{
 "type": "FeatureCollection",
 "name": "EventLine",
 "crs": {
  "type": "name",
  "properties": {
   "name": "urn:ogc:def:crs:OGC:1.3:CRS84"
  }
 },
 "_warning": "TRAINING EXERCISE \u2014 NOT AN ACTUAL INCIDENT. Fabricated data. Never publish, never sync to NIFS or NIFC AGOL.",
 "_fire": "Red",
 "_generated_by": "scripts/make_fires.py",
 "features": [
  {
   "type": "Feature",
   "properties": {
    "FeatureCategory": "Completed Dozer Line",
    "Label": "Div Z Dozer",
    "IsVisible": "Yes",
    "MapMethod": "GPS-Driven",
    "GeometryID": "RE-LN-0001",
    "IncidentName": "Red",
    "IRWINID": null,
    "CreateName": "TRAINEE, GISS",
    "CreateDate": "2026-07-28T04:30:00-06:00",
    "DeleteThis": "No",
    "Comments": "Completed 0730 op 2. Two blades.",
    "LengthMiles": 2.451
   },
   "geometry": {
    "type": "LineString",
    "coordinates": [
     [
      -103.431564,
      43.952665
     ],
     [
      -103.431063,
      43.945165
     ],
     [
      -103.425063,
      43.939165
     ],
     [
      -103.417064,
      43.935165
     ],
     [
      -103.408565,
      43.938166
     ],
     [
      -103.401066,
      43.942166
     ]
    ]
   }
  },
  {
   "type": "Feature",
   "properties": {
    "FeatureCategory": "Completed Hand Line",
    "Label": "Div A Hand",
    "IsVisible": "Yes",
    "MapMethod": "GPS-Walked",
    "GeometryID": "RE-LN-0002",
    "IncidentName": "Red",
    "IRWINID": null,
    "CreateName": "TRAINEE, GISS",
    "CreateDate": "2026-07-28T04:30:00-06:00",
    "DeleteThis": "No",
    "Comments": "Completed op 2. Type 1 crew.",
    "LengthMiles": 1.098
   },
   "geometry": {
    "type": "LineString",
    "coordinates": [
     [
      -103.431564,
      43.952665
     ],
     [
      -103.427565,
      43.959665
     ],
     [
      -103.419566,
      43.965665
     ]
    ]
   }
  },
  {
   "type": "Feature",
   "properties": {
    "FeatureCategory": "Completed Road as Line",
    "Label": "Div Z Road",
    "IsVisible": "Yes",
    "MapMethod": "GPS-Driven",
    "GeometryID": "RE-LN-0003",
    "IncidentName": "Red",
    "IRWINID": null,
    "CreateName": "TRAINEE, GISS",
    "CreateDate": "2026-07-28T04:30:00-06:00",
    "DeleteThis": "No",
    "Comments": "Existing road brushed and used as line.",
    "LengthMiles": 0.89
   },
   "geometry": {
    "type": "LineString",
    "coordinates": [
     [
      -103.401066,
      43.942166
     ],
     [
      -103.394566,
      43.946666
     ],
     [
      -103.389067,
      43.951667
     ]
    ]
   }
  },
  {
   "type": "Feature",
   "properties": {
    "FeatureCategory": "Proposed Dozer Line",
    "Label": "Div A Proposed Dozer",
    "IsVisible": "Yes",
    "MapMethod": "Digitized-Topo",
    "GeometryID": "RE-LN-0004",
    "IncidentName": "Red",
    "IRWINID": null,
    "CreateName": "TRAINEE, GISS",
    "CreateDate": "2026-07-28T04:30:00-06:00",
    "DeleteThis": "No",
    "Comments": "Op 3 objective. Tie DP 4 to the north contingency.",
    "LengthMiles": 1.358
   },
   "geometry": {
    "type": "LineString",
    "coordinates": [
     [
      -103.389067,
      43.951667
     ],
     [
      -103.384568,
      43.957667
     ],
     [
      -103.383069,
      43.964167
     ],
     [
      -103.385569,
      43.970167
     ]
    ]
   }
  },
  {
   "type": "Feature",
   "properties": {
    "FeatureCategory": "Proposed Hand Line",
    "Label": "North Contingency Hand",
    "IsVisible": "Yes",
    "MapMethod": "Digitized-Topo",
    "GeometryID": "RE-LN-0005",
    "IncidentName": "Red",
    "IRWINID": null,
    "CreateName": "TRAINEE, GISS",
    "CreateDate": "2026-07-28T04:30:00-06:00",
    "DeleteThis": "No",
    "Comments": "Contingency only. Do not construct without Ops approval.",
    "LengthMiles": 1.317
   },
   "geometry": {
    "type": "LineString",
    "coordinates": [
     [
      -103.385569,
      43.970167
     ],
     [
      -103.392569,
      43.974167
     ],
     [
      -103.400568,
      43.975666
     ],
     [
      -103.409567,
      43.974166
     ]
    ]
   }
  },
  {
   "type": "Feature",
   "properties": {
    "FeatureCategory": "Proposed Road as Line",
    "Label": "North Contingency Road",
    "IsVisible": "Yes",
    "MapMethod": "Digitized-Topo",
    "GeometryID": "RE-LN-0006",
    "IncidentName": "Red",
    "IRWINID": null,
    "CreateName": "TRAINEE, GISS",
    "CreateDate": "2026-07-28T04:30:00-06:00",
    "DeleteThis": "No",
    "Comments": "Contingency.",
    "LengthMiles": 1.115
   },
   "geometry": {
    "type": "LineString",
    "coordinates": [
     [
      -103.409567,
      43.974166
     ],
     [
      -103.419566,
      43.971165
     ],
     [
      -103.427565,
      43.965165
     ]
    ]
   }
  },
  {
   "type": "Feature",
   "properties": {
    "FeatureCategory": "Uncontrolled Fire Edge",
    "Label": "Active Edge",
    "IsVisible": "Yes",
    "MapMethod": "Infrared Image",
    "GeometryID": "RE-LN-0007",
    "IncidentName": "Red",
    "IRWINID": null,
    "CreateName": "TRAINEE, GISS",
    "CreateDate": "2026-07-28T04:30:00-06:00",
    "DeleteThis": "No",
    "Comments": "Active at 0214 MDT 7/28.",
    "LengthMiles": 2.201
   },
   "geometry": {
    "type": "LineString",
    "coordinates": [
     [
      -103.417566,
      43.963166
     ],
     [
      -103.408567,
      43.966666
     ],
     [
      -103.399568,
      43.968166
     ],
     [
      -103.392568,
      43.965667
     ],
     [
      -103.389068,
      43.960667
     ],
     [
      -103.390567,
      43.954167
     ]
    ]
   }
  },
  {
   "type": "Feature",
   "properties": {
    "FeatureCategory": "Contained Fire Edge",
    "Label": "Held Edge",
    "IsVisible": "Yes",
    "MapMethod": "Infrared Image",
    "GeometryID": "RE-LN-0008",
    "IncidentName": "Red",
    "IRWINID": null,
    "CreateName": "TRAINEE, GISS",
    "CreateDate": "2026-07-28T04:30:00-06:00",
    "DeleteThis": "No",
    "Comments": "Held at 0214 MDT 7/28.",
    "LengthMiles": 4.047
   },
   "geometry": {
    "type": "LineString",
    "coordinates": [
     [
      -103.390567,
      43.954167
     ],
     [
      -103.396066,
      43.949166
     ],
     [
      -103.402566,
      43.944666
     ],
     [
      -103.409565,
      43.940666
     ],
     [
      -103.416564,
      43.937666
     ],
     [
      -103.422563,
      43.938165
     ],
     [
      -103.427564,
      43.944165
     ],
     [
      -103.429064,
      43.951165
     ],
     [
      -103.425565,
      43.957665
     ],
     [
      -103.417566,
      43.963166
     ]
    ]
   }
  },
  {
   "type": "Feature",
   "properties": {
    "FeatureCategory": "Access Route",
    "Label": "Storm Mountain Rd",
    "IsVisible": "Yes",
    "MapMethod": "GPS-Driven",
    "GeometryID": "RE-LN-0009",
    "IncidentName": "Red",
    "IRWINID": null,
    "CreateName": "TRAINEE, GISS",
    "CreateDate": "2026-07-28T04:30:00-06:00",
    "DeleteThis": "No",
    "Comments": "1.7 mi of winding FS road. Single lane with turnouts. THE access constraint \u2014 brief every resource on it.",
    "LengthMiles": 2.636
   },
   "geometry": {
    "type": "LineString",
    "coordinates": [
     [
      -103.336573,
      43.965669
     ],
     [
      -103.346572,
      43.964168
     ],
     [
      -103.356571,
      43.961168
     ],
     [
      -103.36557,
      43.959168
     ],
     [
      -103.374569,
      43.959967
     ],
     [
      -103.381569,
      43.960667
     ],
     [
      -103.385568,
      43.964167
     ]
    ]
   }
  },
  {
   "type": "Feature",
   "properties": {
    "FeatureCategory": "Access Route",
    "Label": "South Access",
    "IsVisible": "Yes",
    "MapMethod": "GPS-Driven",
    "GeometryID": "RE-LN-0010",
    "IncidentName": "Red",
    "IRWINID": null,
    "CreateName": "TRAINEE, GISS",
    "CreateDate": "2026-07-28T04:30:00-06:00",
    "DeleteThis": "No",
    "Comments": "Longer, wider, slower.",
    "LengthMiles": 4.074
   },
   "geometry": {
    "type": "LineString",
    "coordinates": [
     [
      -103.336573,
      43.965669
     ],
     [
      -103.344571,
      43.951169
     ],
     [
      -103.356569,
      43.942168
     ],
     [
      -103.372568,
      43.939167
     ],
     [
      -103.387566,
      43.940167
     ],
     [
      -103.398566,
      43.941666
     ]
    ]
   }
  },
  {
   "type": "Feature",
   "properties": {
    "FeatureCategory": "Escape Route",
    "Label": "ER North",
    "IsVisible": "Yes",
    "MapMethod": "GPS-Walked",
    "GeometryID": "RE-LN-0011",
    "IncidentName": "Red",
    "IRWINID": null,
    "CreateName": "TRAINEE, GISS",
    "CreateDate": "2026-07-28T04:30:00-06:00",
    "DeleteThis": "No",
    "Comments": "DP 4 to the north ridge.",
    "LengthMiles": 1.055
   },
   "geometry": {
    "type": "LineString",
    "coordinates": [
     [
      -103.385568,
      43.964167
     ],
     [
      -103.380569,
      43.971167
     ],
     [
      -103.37457,
      43.977167
     ]
    ]
   }
  },
  {
   "type": "Feature",
   "properties": {
    "FeatureCategory": "Escape Route",
    "Label": "ER South",
    "IsVisible": "Yes",
    "MapMethod": "GPS-Walked",
    "GeometryID": "RE-LN-0012",
    "IncidentName": "Red",
    "IRWINID": null,
    "CreateName": "TRAINEE, GISS",
    "CreateDate": "2026-07-28T04:30:00-06:00",
    "DeleteThis": "No",
    "Comments": "DP 5 to SZ-2.",
    "LengthMiles": 0.94
   },
   "geometry": {
    "type": "LineString",
    "coordinates": [
     [
      -103.401066,
      43.942166
     ],
     [
      -103.394566,
      43.937166
     ],
     [
      -103.386566,
      43.933667
     ]
    ]
   }
  },
  {
   "type": "Feature",
   "properties": {
    "FeatureCategory": "Division Break",
    "Label": "Div A / Div Z",
    "IsVisible": "Yes",
    "MapMethod": "Digitized-Topo",
    "GeometryID": "RE-LN-0013",
    "IncidentName": "Red",
    "IRWINID": null,
    "CreateName": "TRAINEE, GISS",
    "CreateDate": "2026-07-28T04:30:00-06:00",
    "DeleteThis": "No",
    "Comments": "",
    "LengthMiles": 2.382
   },
   "geometry": {
    "type": "LineString",
    "coordinates": [
     [
      -103.433564,
      43.955165
     ],
     [
      -103.422565,
      43.952665
     ],
     [
      -103.410565,
      43.951166
     ],
     [
      -103.398566,
      43.950366
     ],
     [
      -103.386567,
      43.949967
     ]
    ]
   }
  },
  {
   "type": "Feature",
   "properties": {
    "FeatureCategory": "Division Break",
    "Label": "Div Z / Div M",
    "IsVisible": "Yes",
    "MapMethod": "Digitized-Topo",
    "GeometryID": "RE-LN-0014",
    "IncidentName": "Red",
    "IRWINID": null,
    "CreateName": "TRAINEE, GISS",
    "CreateDate": "2026-07-28T04:30:00-06:00",
    "DeleteThis": "No",
    "Comments": "",
    "LengthMiles": 1.259
   },
   "geometry": {
    "type": "LineString",
    "coordinates": [
     [
      -103.402565,
      43.932166
     ],
     [
      -103.403565,
      43.942166
     ],
     [
      -103.403066,
      43.950366
     ]
    ]
   }
  },
  {
   "type": "Feature",
   "properties": {
    "FeatureCategory": "Branch Break",
    "Label": "Branch I / Branch II",
    "IsVisible": "Yes",
    "MapMethod": "Digitized-Topo",
    "GeometryID": "RE-LN-0015",
    "IncidentName": "Red",
    "IRWINID": null,
    "CreateName": "TRAINEE, GISS",
    "CreateDate": "2026-07-28T04:30:00-06:00",
    "DeleteThis": "No",
    "Comments": "",
    "LengthMiles": 2.024
   },
   "geometry": {
    "type": "LineString",
    "coordinates": [
     [
      -103.434565,
      43.967165
     ],
     [
      -103.414567,
      43.969666
     ],
     [
      -103.394568,
      43.972166
     ]
    ]
   }
  },
  {
   "type": "Feature",
   "properties": {
    "FeatureCategory": "Pump and Hose Lay",
    "Label": "Draft 1 Lay",
    "IsVisible": "Yes",
    "MapMethod": "GPS-Walked",
    "GeometryID": "RE-LN-0016",
    "IncidentName": "Red",
    "IRWINID": null,
    "CreateName": "TRAINEE, GISS",
    "CreateDate": "2026-07-28T04:30:00-06:00",
    "DeleteThis": "No",
    "Comments": "From Draft 1 to the structure group. Two portable pumps.",
    "LengthMiles": 1.002
   },
   "geometry": {
    "type": "LineString",
    "coordinates": [
     [
      -103.36537,
      43.965368
     ],
     [
      -103.37257,
      43.964167
     ],
     [
      -103.379569,
      43.962367
     ],
     [
      -103.384568,
      43.961167
     ]
    ]
   }
  },
  {
   "type": "Feature",
   "properties": {
    "FeatureCategory": "Fire Spread Direction",
    "Label": "Predicted Spread",
    "IsVisible": "Yes",
    "MapMethod": "Digitized-Other",
    "GeometryID": "RE-LN-0017",
    "IncidentName": "Red",
    "IRWINID": null,
    "CreateName": "TRAINEE, GISS",
    "CreateDate": "2026-07-28T04:30:00-06:00",
    "DeleteThis": "No",
    "Comments": "Predicted op 3 spread, northeast.",
    "LengthMiles": 1.389
   },
   "geometry": {
    "type": "LineString",
    "coordinates": [
     [
      -103.414565,
      43.951166
     ],
     [
      -103.402567,
      43.959166
     ],
     [
      -103.394568,
      43.965166
     ]
    ]
   }
  },
  {
   "type": "Feature",
   "properties": {
    "FeatureCategory": "Completed Hand Line",
    "Label": "H/L Coon Hollow",
    "IsVisible": "Yes",
    "MapMethod": "Digitized-Other",
    "GeometryID": "RE-TR-0001",
    "IncidentName": "Red",
    "IRWINID": null,
    "CreateName": "TRAINEE, GISS",
    "CreateDate": "2026-07-28T04:30:00-06:00",
    "DeleteThis": "No",
    "Comments": "Derived from trail 'Coon Hollow' running within 75 m of the fire edge. Confirm with Ops before publishing.",
    "LengthMiles": 0.048,
    "DerivedFrom": "trail"
   },
   "geometry": {
    "type": "LineString",
    "coordinates": [
     [
      -103.389068,
      43.960667
     ],
     [
      -103.388831,
      43.960509
     ],
     [
      -103.388594,
      43.960351
     ],
     [
      -103.388357,
      43.960193
     ]
    ]
   }
  },
  {
   "type": "Feature",
   "properties": {
    "FeatureCategory": "Completed Road as Line",
    "Label": "Road FS 231",
    "IsVisible": "Yes",
    "MapMethod": "Digitized-Other",
    "GeometryID": "RE-RO-0001",
    "IncidentName": "Red",
    "IRWINID": null,
    "CreateName": "TRAINEE, GISS",
    "CreateDate": "2026-07-28T04:30:00-06:00",
    "DeleteThis": "No",
    "Comments": "Derived from road 'FS 231' running within 60 m of the fire edge. Confirm with Ops before publishing.",
    "LengthMiles": 0.094,
    "DerivedFrom": "road"
   },
   "geometry": {
    "type": "LineString",
    "coordinates": [
     [
      -103.423515,
      43.938391
     ],
     [
      -103.423257,
      43.938262
     ],
     [
      -103.422999,
      43.938133
     ],
     [
      -103.422741,
      43.938004
     ],
     [
      -103.422483,
      43.937875
     ],
     [
      -103.422225,
      43.937746
     ],
     [
      -103.421966,
      43.937617
     ]
    ]
   }
  },
  {
   "type": "Feature",
   "properties": {
    "FeatureCategory": "Contained Fire Edge",
    "Label": "Contained",
    "IsVisible": "Yes",
    "MapMethod": "Infrared Image",
    "GeometryID": "RE-ED-0001",
    "IncidentName": "Red",
    "IRWINID": null,
    "CreateName": "TRAINEE, GISS",
    "CreateDate": "2026-07-28T04:30:00-06:00",
    "DeleteThis": "No",
    "Comments": "Derived from perimeter and held line. OPS MUST CONFIRM before this is published.",
    "LengthMiles": 0.094,
    "DerivedFrom": "perimeter"
   },
   "geometry": {
    "type": "LineString",
    "coordinates": [
     [
      -103.422563,
      43.938165
     ],
     [
      -103.422724,
      43.938359
     ],
     [
      -103.422886,
      43.938552
     ],
     [
      -103.423047,
      43.938746
     ],
     [
      -103.423208,
      43.938939
     ],
     [
      -103.42337,
      43.939133
     ],
     [
      -103.423531,
      43.939326
     ]
    ]
   }
  },
  {
   "type": "Feature",
   "properties": {
    "FeatureCategory": "Contained Fire Edge",
    "Label": "Contained",
    "IsVisible": "Yes",
    "MapMethod": "Infrared Image",
    "GeometryID": "RE-ED-0002",
    "IncidentName": "Red",
    "IRWINID": null,
    "CreateName": "TRAINEE, GISS",
    "CreateDate": "2026-07-28T04:30:00-06:00",
    "DeleteThis": "No",
    "Comments": "Derived from perimeter and held line. OPS MUST CONFIRM before this is published.",
    "LengthMiles": 0.111,
    "DerivedFrom": "perimeter"
   },
   "geometry": {
    "type": "LineString",
    "coordinates": [
     [
      -103.389505,
      43.961292
     ],
     [
      -103.38936,
      43.961084
     ],
     [
      -103.389214,
      43.960875
     ],
     [
      -103.389068,
      43.960667
     ],
     [
      -103.38912,
      43.960443
     ],
     [
      -103.389171,
      43.960219
     ],
     [
      -103.389223,
      43.959995
     ],
     [
      -103.389275,
      43.95977
     ]
    ]
   }
  },
  {
   "type": "Feature",
   "properties": {
    "FeatureCategory": "Contained Fire Edge",
    "Label": "Contained",
    "IsVisible": "Yes",
    "MapMethod": "Infrared Image",
    "GeometryID": "RE-ED-0003",
    "IncidentName": "Red",
    "IRWINID": null,
    "CreateName": "TRAINEE, GISS",
    "CreateDate": "2026-07-28T04:30:00-06:00",
    "DeleteThis": "No",
    "Comments": "Derived from perimeter and held line. OPS MUST CONFIRM before this is published.",
    "LengthMiles": 0.079,
    "DerivedFrom": "perimeter"
   },
   "geometry": {
    "type": "LineString",
    "coordinates": [
     [
      -103.420984,
      43.938034
     ],
     [
      -103.4213,
      43.93806
     ],
     [
      -103.421616,
      43.938086
     ],
     [
      -103.421932,
      43.938112
     ],
     [
      -103.422247,
      43.938139
     ],
     [
      -103.422563,
      43.938165
     ]
    ]
   }
  },
  {
   "type": "Feature",
   "properties": {
    "FeatureCategory": "Uncontrolled Fire Edge",
    "Label": "Uncontrolled",
    "IsVisible": "Yes",
    "MapMethod": "Infrared Image",
    "GeometryID": "RE-ED-0004",
    "IncidentName": "Red",
    "IRWINID": null,
    "CreateName": "TRAINEE, GISS",
    "CreateDate": "2026-07-28T04:30:00-06:00",
    "DeleteThis": "No",
    "Comments": "Derived from perimeter and held line. OPS MUST CONFIRM before this is published.",
    "LengthMiles": 3.577,
    "DerivedFrom": "perimeter"
   },
   "geometry": {
    "type": "LineString",
    "coordinates": [
     [
      -103.423692,
      43.93952
     ],
     [
      -103.423853,
      43.939713
     ],
     [
      -103.424015,
      43.939907
     ],
     [
      -103.424176,
      43.940101
     ],
     [
      -103.424337,
      43.940294
     ],
     [
      -103.424499,
      43.940488
     ],
     [
      -103.42466,
      43.940681
     ],
     [
      -103.424821,
      43.940875
     ],
     [
      -103.424983,
      43.941068
     ],
     [
      -103.425144,
      43.941262
     ],
     [
      -103.425305,
      43.941455
     ],
     [
      -103.425467,
      43.941649
     ],
     [
      -103.425628,
      43.941842
     ],
     [
      -103.425789,
      43.942036
     ],
     [
      -103.425951,
      43.94223
     ],
     [
      -103.426112,
      43.942423
     ],
     [
      -103.426273,
      43.942617
     ],
     [
      -103.426435,
      43.94281
     ],
     [
      -103.426596,
      43.943004
     ],
     [
      -103.426757,
      43.943197
     ],
     [
      -103.426919,
      43.943391
     ],
     [
      -103.42708,
      43.943584
     ],
     [
      -103.427241,
      43.943778
     ],
     [
      -103.427403,
      43.943971
     ],
     [
      -103.427564,
      43.944165
     ],
     [
      -103.427612,
      43.944391
     ],
     [
      -103.427661,
      43.944617
     ],
     [
      -103.427709,
      43.944842
     ],
     [
      -103.427758,
      43.945068
     ],
     [
      -103.427806,
      43.945294
     ],
     [
      -103.427854,
      43.94552
     ],
     [
      -103.427903,
      43.945746
     ],
     [
      -103.427951,
      43.945971
     ],
     [
      -103.427999,
      43.946197
     ],
     [
      -103.428048,
      43.946423
     ],
     [
      -103.428096,
      43.946649
     ],
     [
      -103.428145,
      43.946875
     ],
     [
      -103.428193,
      43.9471
     ],
     [
      -103.428241,
      43.947326
     ],
     [
      -103.42829,
      43.947552
     ],
     [
      -103.428338,
      43.947778
     ],
     [
      -103.428387,
      43.948004
     ],
     [
      -103.428435,
      43.94823
     ],
     [
      -103.428483,
      43.948455
     ],
     [
      -103.428532,
      43.948681
     ],
     [
      -103.42858,
      43.948907
     ],
     [
      -103.428628,
      43.949133
     ],
     [
      -103.428677,
      43.949359
     ],
     [
      -103.428725,
      43.949584
     ],
     [
      -103.428774,
      43.94981
     ],
     [
      -103.428822,
      43.950036
     ],
     [
      -103.42887,
      43.950262
     ],
     [
      -103.428919,
      43.950488
     ],
     [
      -103.428967,
      43.950713
     ],
     [
      -103.429016,
      43.950939
     ],
     [
      -103.429064,
      43.951165
     ],
     [
      -103.428947,
      43.951382
     ],
     [
      -103.428831,
      43.951598
     ],
     [
      -103.428714,
      43.951815
     ],
     [
      -103.428598,
      43.952032
     ],
     [
      -103.428481,
      43.952248
     ],
     [
      -103.428364,
      43.952465
     ],
     [
      -103.428248,
      43.952682
     ],
     [
      -103.428131,
      43.952898
     ],
     [
      -103.428014,
      43.953115
     ],
     [
      -103.427898,
      43.953332
     ],
     [
      -103.427781,
      43.953548
     ],
     [
      -103.427664,
      43.953765
     ],
     [
      -103.427548,
      43.953982
     ],
     [
      -103.427431,
      43.954198
     ],
     [
      -103.427315,
      43.954415
     ],
     [
      -103.427198,
      43.954632
     ],
     [
      -103.427081,
      43.954848
     ],
     [
      -103.426965,
      43.955065
     ],
     [
      -103.426848,
      43.955282
     ],
     [
      -103.426731,
      43.955498
     ],
     [
      -103.426615,
      43.955715
     ],
     [
      -103.426498,
      43.955932
     ],
     [
      -103.426382,
      43.956148
     ],
     [
      -103.426265,
      43.956365
     ],
     [
      -103.426148,
      43.956582
     ],
     [
      -103.426032,
      43.956798
     ],
     [
      -103.425915,
      43.957015
     ],
     [
      -103.425798,
      43.957232
     ],
     [
      -103.425682,
      43.957448
     ],
     [
      -103.425565,
      43.957665
     ],
     [
      -103.425336,
      43.957822
     ],
     [
      -103.425108,
      43.957979
     ],
     [
      -103.424879,
      43.958137
     ],
     [
      -103.424651,
      43.958294
     ],
     [
      -103.424422,
      43.958451
     ],
     [
      -103.424194,
      43.958608
     ],
     [
      -103.423965,
      43.958765
     ],
     [
      -103.423737,
      43.958922
     ],
     [
      -103.423508,
      43.95908
     ],
     [
      -103.42328,
      43.959237
     ],
     [
      -103.423051,
      43.959394
     ],
     [
      -103.422823,
      43.959551
     ],
     [
      -103.422594,
      43.959708
     ],
     [
      -103.422366,
      43.959865
     ],
     [
      -103.422137,
      43.960023
     ],
     [
      -103.421908,
      43.96018
     ],
     [
      -103.42168,
      43.960337
     ],
     [
      -103.421451,
      43.960494
     ],
     [
      -103.421223,
      43.960651
     ],
     [
      -103.420994,
      43.960809
     ],
     [
      -103.420766,
      43.960966
     ],
     [
      -103.420537,
      43.961123
     ],
     [
      -103.420309,
      43.96128
     ],
     [
      -103.42008,
      43.961437
     ],
     [
      -103.419852,
      43.961594
     ],
     [
      -103.419623,
      43.961752
     ],
     [
      -103.419394,
      43.961909
     ],
     [
      -103.419166,
      43.962066
     ],
     [
      -103.418937,
      43.962223
     ],
     [
      -103.418709,
      43.96238
     ],
     [
      -103.41848,
      43.962537
     ],
     [
      -103.418252,
      43.962695
     ],
     [
      -103.418023,
      43.962852
     ],
     [
      -103.417795,
      43.963009
     ],
     [
      -103.417566,
      43.963166
     ],
     [
      -103.417285,
      43.963275
     ],
     [
      -103.417004,
      43.963385
     ],
     [
      -103.416722,
      43.963494
     ],
     [
      -103.416441,
      43.963604
     ],
     [
      -103.41616,
      43.963713
     ],
     [
      -103.415879,
      43.963822
     ],
     [
      -103.415598,
      43.963932
     ],
     [
      -103.415316,
      43.964041
     ],
     [
      -103.415035,
      43.96415
     ],
     [
      -103.414754,
      43.96426
     ],
     [
      -103.414473,
      43.964369
     ],
     [
      -103.414191,
      43.964479
     ],
     [
      -103.41391,
      43.964588
     ],
     [
      -103.413629,
      43.964697
     ],
     [
      -103.413348,
      43.964807
     ],
     [
      -103.413067,
      43.964916
     ],
     [
      -103.412785,
      43.965025
     ],
     [
      -103.412504,
      43.965135
     ],
     [
      -103.412223,
      43.965244
     ],
     [
      -103.411942,
      43.965354
     ],
     [
      -103.411661,
      43.965463
     ],
     [
      -103.411379,
      43.965572
     ],
     [
      -103.411098,
      43.965682
     ],
     [
      -103.410817,
      43.965791
     ],
     [
      -103.410536,
      43.9659
     ],
     [
      -103.410254,
      43.96601
     ],
     [
      -103.409973,
      43.966119
     ],
     [
      -103.409692,
      43.966229
     ],
     [
      -103.409411,
      43.966338
     ],
     [
      -103.409129,
      43.966447
     ],
     [
      -103.408848,
      43.966557
     ],
     [
      -103.408567,
      43.966666
     ],
     [
      -103.408257,
      43.966718
     ],
     [
      -103.407946,
      43.966769
     ],
     [
      -103.407636,
      43.966821
     ],
     [
      -103.407326,
      43.966873
     ],
     [
      -103.407015,
      43.966925
     ],
     [
      -103.406705,
      43.966976
     ],
     [
      -103.406395,
      43.967028
     ],
     [
      -103.406085,
      43.96708
     ],
     [
      -103.405774,
      43.967132
     ],
     [
      -103.405464,
      43.967183
     ],
     [
      -103.405154,
      43.967235
     ],
     [
      -103.404843,
      43.967287
     ],
     [
      -103.404533,
      43.967339
     ],
     [
      -103.404223,
      43.96739
     ],
     [
      -103.403912,
      43.967442
     ],
     [
      -103.403602,
      43.967494
     ],
     [
      -103.403292,
      43.967545
     ],
     [
      -103.402981,
      43.967597
     ],
     [
      -103.402671,
      43.967649
     ],
     [
      -103.402361,
      43.967701
     ],
     [
      -103.402051,
      43.967752
     ],
     [
      -103.40174,
      43.967804
     ],
     [
      -103.40143,
      43.967856
     ],
     [
      -103.40112,
      43.967907
     ],
     [
      -103.400809,
      43.967959
     ],
     [
      -103.400499,
      43.968011
     ],
     [
      -103.400189,
      43.968063
     ],
     [
      -103.399878,
      43.968114
     ],
     [
      -103.399568,
      43.968166
     ],
     [
      -103.399288,
      43.968066
     ],
     [
      -103.399008,
      43.967966
     ],
     [
      -103.398728,
      43.967866
     ],
     [
      -103.398448,
      43.967766
     ],
     [
      -103.398168,
      43.967666
     ],
     [
      -103.397888,
      43.967566
     ],
     [
      -103.397608,
      43.967466
     ],
     [
      -103.397328,
      43.967366
     ],
     [
      -103.397048,
      43.967266
     ],
     [
      -103.396768,
      43.967166
     ],
     [
      -103.396488,
      43.967066
     ],
     [
      -103.396208,
      43.966967
     ],
     [
      -103.395928,
      43.966867
     ],
     [
      -103.395648,
      43.966767
     ],
     [
      -103.395368,
      43.966667
     ],
     [
      -103.395088,
      43.966567
     ],
     [
      -103.394808,
      43.966467
     ],
     [
      -103.394528,
      43.966367
     ],
     [
      -103.394248,
      43.966267
     ],
     [
      -103.393968,
      43.966167
     ],
     [
      -103.393688,
      43.966067
     ],
     [
      -103.393408,
      43.965967
     ],
     [
      -103.393128,
      43.965867
     ],
     [
      -103.392848,
      43.965767
     ],
     [
      -103.392568,
      43.965667
     ],
     [
      -103.392422,
      43.965459
     ],
     [
      -103.392276,
      43.96525
     ],
     [
      -103.39213,
      43.965042
     ],
     [
      -103.391985,
      43.964834
     ],
     [
      -103.391839,
      43.964625
     ],
     [
      -103.391693,
      43.964417
     ],
     [
      -103.391547,
      43.964209
     ],
     [
      -103.391401,
      43.964
     ],
     [
      -103.391255,
      43.963792
     ],
     [
      -103.39111,
      43.963584
     ],
     [
      -103.390964,
      43.963375
     ],
     [
      -103.390818,
      43.963167
     ],
     [
      -103.390672,
      43.962959
     ],
     [
      -103.390526,
      43.96275
     ],
     [
      -103.39038,
      43.962542
     ],
     [
      -103.390235,
      43.962334
     ],
     [
      -103.390089,
      43.962125
     ],
     [
      -103.389943,
      43.961917
     ],
     [
      -103.389797,
      43.961709
     ],
     [
      -103.389651,
      43.9615
     ]
    ]
   }
  },
  {
   "type": "Feature",
   "properties": {
    "FeatureCategory": "Uncontrolled Fire Edge",
    "Label": "Uncontrolled",
    "IsVisible": "Yes",
    "MapMethod": "Infrared Image",
    "GeometryID": "RE-ED-0005",
    "IncidentName": "Red",
    "IRWINID": null,
    "CreateName": "TRAINEE, GISS",
    "CreateDate": "2026-07-28T04:30:00-06:00",
    "DeleteThis": "No",
    "Comments": "Derived from perimeter and held line. OPS MUST CONFIRM before this is published.",
    "LengthMiles": 2.323,
    "DerivedFrom": "perimeter"
   },
   "geometry": {
    "type": "LineString",
    "coordinates": [
     [
      -103.389326,
      43.959546
     ],
     [
      -103.389378,
      43.959322
     ],
     [
      -103.38943,
      43.959098
     ],
     [
      -103.389482,
      43.958874
     ],
     [
      -103.389533,
      43.95865
     ],
     [
      -103.389585,
      43.958426
     ],
     [
      -103.389637,
      43.958201
     ],
     [
      -103.389688,
      43.957977
     ],
     [
      -103.38974,
      43.957753
     ],
     [
      -103.389792,
      43.957529
     ],
     [
      -103.389843,
      43.957305
     ],
     [
      -103.389895,
      43.957081
     ],
     [
      -103.389947,
      43.956857
     ],
     [
      -103.389998,
      43.956633
     ],
     [
      -103.39005,
      43.956408
     ],
     [
      -103.390102,
      43.956184
     ],
     [
      -103.390154,
      43.95596
     ],
     [
      -103.390205,
      43.955736
     ],
     [
      -103.390257,
      43.955512
     ],
     [
      -103.390309,
      43.955288
     ],
     [
      -103.39036,
      43.955064
     ],
     [
      -103.390412,
      43.954839
     ],
     [
      -103.390464,
      43.954615
     ],
     [
      -103.390515,
      43.954391
     ],
     [
      -103.390567,
      43.954167
     ],
     [
      -103.390763,
      43.953988
     ],
     [
      -103.39096,
      43.95381
     ],
     [
      -103.391156,
      43.953631
     ],
     [
      -103.391353,
      43.953453
     ],
     [
      -103.391549,
      43.953274
     ],
     [
      -103.391745,
      43.953095
     ],
     [
      -103.391942,
      43.952917
     ],
     [
      -103.392138,
      43.952738
     ],
     [
      -103.392335,
      43.95256
     ],
     [
      -103.392531,
      43.952381
     ],
     [
      -103.392727,
      43.952202
     ],
     [
      -103.392924,
      43.952024
     ],
     [
      -103.39312,
      43.951845
     ],
     [
      -103.393317,
      43.951667
     ],
     [
      -103.393513,
      43.951488
     ],
     [
      -103.393709,
      43.951309
     ],
     [
      -103.393906,
      43.951131
     ],
     [
      -103.394102,
      43.950952
     ],
     [
      -103.394299,
      43.950773
     ],
     [
      -103.394495,
      43.950595
     ],
     [
      -103.394691,
      43.950416
     ],
     [
      -103.394888,
      43.950238
     ],
     [
      -103.395084,
      43.950059
     ],
     [
      -103.39528,
      43.94988
     ],
     [
      -103.395477,
      43.949702
     ],
     [
      -103.395673,
      43.949523
     ],
     [
      -103.39587,
      43.949345
     ],
     [
      -103.396066,
      43.949166
     ],
     [
      -103.396298,
      43.949005
     ],
     [
      -103.39653,
      43.948845
     ],
     [
      -103.396762,
      43.948684
     ],
     [
      -103.396995,
      43.948523
     ],
     [
      -103.397227,
      43.948362
     ],
     [
      -103.397459,
      43.948202
     ],
     [
      -103.397691,
      43.948041
     ],
     [
      -103.397923,
      43.94788
     ],
     [
      -103.398155,
      43.94772
     ],
     [
      -103.398388,
      43.947559
     ],
     [
      -103.39862,
      43.947398
     ],
     [
      -103.398852,
      43.947237
     ],
     [
      -103.399084,
      43.947077
     ],
     [
      -103.399316,
      43.946916
     ],
     [
      -103.399548,
      43.946755
     ],
     [
      -103.39978,
      43.946595
     ],
     [
      -103.400013,
      43.946434
     ],
     [
      -103.400245,
      43.946273
     ],
     [
      -103.400477,
      43.946112
     ],
     [
      -103.400709,
      43.945952
     ],
     [
      -103.400941,
      43.945791
     ],
     [
      -103.401173,
      43.94563
     ],
     [
      -103.401405,
      43.94547
     ],
     [
      -103.401637,
      43.945309
     ],
     [
      -103.40187,
      43.945148
     ],
     [
      -103.402102,
      43.944987
     ],
     [
      -103.402334,
      43.944827
     ],
     [
      -103.402566,
      43.944666
     ],
     [
      -103.402816,
      43.944523
     ],
     [
      -103.403066,
      43.94438
     ],
     [
      -103.403316,
      43.944237
     ],
     [
      -103.403566,
      43.944095
     ],
     [
      -103.403816,
      43.943952
     ],
     [
      -103.404066,
      43.943809
     ],
     [
      -103.404316,
      43.943666
     ],
     [
      -103.404566,
      43.943523
     ],
     [
      -103.404816,
      43.94338
     ],
     [
      -103.405066,
      43.943237
     ],
     [
      -103.405316,
      43.943095
     ],
     [
      -103.405566,
      43.942952
     ],
     [
      -103.405816,
      43.942809
     ],
     [
      -103.406066,
      43.942666
     ],
     [
      -103.406316,
      43.942523
     ],
     [
      -103.406566,
      43.94238
     ],
     [
      -103.406816,
      43.942237
     ],
     [
      -103.407065,
      43.942095
     ],
     [
      -103.407315,
      43.941952
     ],
     [
      -103.407565,
      43.941809
     ],
     [
      -103.407815,
      43.941666
     ],
     [
      -103.408065,
      43.941523
     ],
     [
      -103.408315,
      43.94138
     ],
     [
      -103.408565,
      43.941237
     ],
     [
      -103.408815,
      43.941095
     ],
     [
      -103.409065,
      43.940952
     ],
     [
      -103.409315,
      43.940809
     ],
     [
      -103.409565,
      43.940666
     ],
     [
      -103.409834,
      43.940551
     ],
     [
      -103.410103,
      43.940435
     ],
     [
      -103.410373,
      43.94032
     ],
     [
      -103.410642,
      43.940204
     ],
     [
      -103.410911,
      43.940089
     ],
     [
      -103.41118,
      43.939974
     ],
     [
      -103.411449,
      43.939858
     ],
     [
      -103.411719,
      43.939743
     ],
     [
      -103.411988,
      43.939628
     ],
     [
      -103.412257,
      43.939512
     ],
     [
      -103.412526,
      43.939397
     ],
     [
      -103.412795,
      43.939281
     ],
     [
      -103.413065,
      43.939166
     ],
     [
      -103.413334,
      43.939051
     ],
     [
      -103.413603,
      43.938935
     ],
     [
      -103.413872,
      43.93882
     ],
     [
      -103.414141,
      43.938705
     ],
     [
      -103.414411,
      43.938589
     ],
     [
      -103.41468,
      43.938474
     ],
     [
      -103.414949,
      43.938358
     ],
     [
      -103.415218,
      43.938243
     ],
     [
      -103.415487,
      43.938128
     ],
     [
      -103.415756,
      43.938012
     ],
     [
      -103.416026,
      43.937897
     ],
     [
      -103.416295,
      43.937781
     ],
     [
      -103.416564,
      43.937666
     ],
     [
      -103.41688,
      43.937692
     ],
     [
      -103.417195,
      43.937719
     ],
     [
      -103.417511,
      43.937745
     ],
     [
      -103.417827,
      43.937771
     ],
     [
      -103.418143,
      43.937797
     ],
     [
      -103.418458,
      43.937824
     ],
     [
      -103.418774,
      43.93785
     ],
     [
      -103.41909,
      43.937876
     ],
     [
      -103.419406,
      43.937902
     ],
     [
      -103.419721,
      43.937929
     ],
     [
      -103.420037,
      43.937955
     ],
     [
      -103.420353,
      43.937981
     ],
     [
      -103.420669,
      43.938007
     ]
    ]
   }
  }
 ],
 "_derived_by": "scripts/derive_tactical.py"
}
