{
 "type": "FeatureCollection",
 "name": "EventPolygon",
 "crs": {
  "type": "name",
  "properties": {
   "name": "urn:ogc:def:crs:OGC:1.3:CRS84"
  }
 },
 "_warning": "TRAINING EXERCISE \u2014 NOT AN ACTUAL INCIDENT. Fabricated data. Never publish, never sync to NIFS or NIFC AGOL.",
 "_fire": "Red",
 "_generated_by": "scripts/make_fires.py",
 "features": [
  {
   "type": "Feature",
   "properties": {
    "FeatureCategory": "Wildfire Daily Fire Perimeter",
    "Label": "Red 07/26",
    "IsVisible": "Yes",
    "MapMethod": "Infrared Image",
    "GeometryID": "RE-PY-0001",
    "IncidentName": "Red",
    "IRWINID": null,
    "CreateName": "TRAINEE, GISS",
    "CreateDate": "2026-07-28T04:30:00-06:00",
    "DeleteThis": "No",
    "Comments": "Operational period 1 perimeter.",
    "GISAcres": 240.7,
    "PolygonDateTime": "2026-07-26T02:14:00-06:00"
   },
   "geometry": {
    "type": "Polygon",
    "coordinates": [
     [
      [
       -103.419564,
       43.943165
      ],
      [
       -103.421564,
       43.946665
      ],
      [
       -103.420565,
       43.950165
      ],
      [
       -103.416565,
       43.952666
      ],
      [
       -103.411566,
       43.953166
      ],
      [
       -103.407566,
       43.951166
      ],
      [
       -103.407065,
       43.947666
      ],
      [
       -103.410565,
       43.944666
      ],
      [
       -103.415564,
       43.942966
      ],
      [
       -103.419564,
       43.943165
      ]
     ]
    ]
   }
  },
  {
   "type": "Feature",
   "properties": {
    "FeatureCategory": "Wildfire Daily Fire Perimeter",
    "Label": "Red 07/27",
    "IsVisible": "Yes",
    "MapMethod": "Infrared Image",
    "GeometryID": "RE-PY-0002",
    "IncidentName": "Red",
    "IRWINID": null,
    "CreateName": "TRAINEE, GISS",
    "CreateDate": "2026-07-28T04:30:00-06:00",
    "DeleteThis": "No",
    "Comments": "Operational period 2 perimeter.",
    "GISAcres": 775.2,
    "PolygonDateTime": "2026-07-27T02:14:00-06:00"
   },
   "geometry": {
    "type": "Polygon",
    "coordinates": [
     [
      [
       -103.421064,
       43.940665
      ],
      [
       -103.424564,
       43.945165
      ],
      [
       -103.425064,
       43.950665
      ],
      [
       -103.421565,
       43.955165
      ],
      [
       -103.415066,
       43.958666
      ],
      [
       -103.408066,
       43.960166
      ],
      [
       -103.402067,
       43.958666
      ],
      [
       -103.399067,
       43.954666
      ],
      [
       -103.400566,
       43.950166
      ],
      [
       -103.405565,
       43.945666
      ],
      [
       -103.412065,
       43.942166
      ],
      [
       -103.417564,
       43.940165
      ],
      [
       -103.421064,
       43.940665
      ]
     ]
    ]
   }
  },
  {
   "type": "Feature",
   "properties": {
    "FeatureCategory": "Wildfire Daily Fire Perimeter",
    "Label": "Red 07/28",
    "IsVisible": "Yes",
    "MapMethod": "Infrared Image",
    "GeometryID": "RE-PY-0003",
    "IncidentName": "Red",
    "IRWINID": null,
    "CreateName": "TRAINEE, GISS",
    "CreateDate": "2026-07-28T04:30:00-06:00",
    "DeleteThis": "No",
    "Comments": "Operational period 3 perimeter.",
    "GISAcres": 1765.3,
    "PolygonDateTime": "2026-07-28T02:14:00-06:00"
   },
   "geometry": {
    "type": "Polygon",
    "coordinates": [
     [
      [
       -103.422563,
       43.938165
      ],
      [
       -103.427564,
       43.944165
      ],
      [
       -103.429064,
       43.951165
      ],
      [
       -103.425565,
       43.957665
      ],
      [
       -103.417566,
       43.963166
      ],
      [
       -103.408567,
       43.966666
      ],
      [
       -103.399568,
       43.968166
      ],
      [
       -103.392568,
       43.965667
      ],
      [
       -103.389068,
       43.960667
      ],
      [
       -103.390567,
       43.954167
      ],
      [
       -103.396066,
       43.949166
      ],
      [
       -103.402566,
       43.944666
      ],
      [
       -103.409565,
       43.940666
      ],
      [
       -103.416564,
       43.937666
      ],
      [
       -103.422563,
       43.938165
      ]
     ]
    ]
   }
  },
  {
   "type": "Feature",
   "properties": {
    "FeatureCategory": "Temporary Flight Restriction",
    "Label": "TFR 5 NM",
    "IsVisible": "Yes",
    "MapMethod": "Digitized-Other",
    "GeometryID": "RE-PY-0004",
    "IncidentName": "Red",
    "IRWINID": null,
    "CreateName": "TRAINEE, GISS",
    "CreateDate": "2026-07-28T04:30:00-06:00",
    "DeleteThis": "No",
    "Comments": "5 NM radius, surface to 8500 ft MSL. Exercise only \u2014 no real TFR exists. Wider than the AOI, which is why air ops needs a wider extent than ops.",
    "GISAcres": 66481.7,
    "PolygonDateTime": null
   },
   "geometry": {
    "type": "Polygon",
    "coordinates": [
     [
      [
       -103.294644,
       43.950336
      ],
      [
       -103.294875,
       43.957606
      ],
      [
       -103.295983,
       43.964834
      ],
      [
       -103.297958,
       43.971964
      ],
      [
       -103.300788,
       43.978943
      ],
      [
       -103.304449,
       43.985717
      ],
      [
       -103.308916,
       43.992234
      ],
      [
       -103.314153,
       43.998446
      ],
      [
       -103.320121,
       44.004304
      ],
      [
       -103.326775,
       44.009764
      ],
      [
       -103.334065,
       44.014784
      ],
      [
       -103.341934,
       44.019326
      ],
      [
       -103.350322,
       44.023356
      ],
      [
       -103.359167,
       44.026841
      ],
      [
       -103.3684,
       44.029757
      ],
      [
       -103.377951,
       44.03208
      ],
      [
       -103.387747,
       44.033793
      ],
      [
       -103.397713,
       44.034882
      ],
      [
       -103.407773,
       44.03534
      ],
      [
       -103.41785,
       44.035163
      ],
      [
       -103.427867,
       44.034352
      ],
      [
       -103.437747,
       44.032913
      ],
      [
       -103.447416,
       44.030858
      ],
      [
       -103.456798,
       44.028202
      ],
      [
       -103.465823,
       44.024965
      ],
      [
       -103.474422,
       44.021172
      ],
      [
       -103.482529,
       44.016853
      ],
      [
       -103.490082,
       44.012039
      ],
      [
       -103.497023,
       44.006768
      ],
      [
       -103.503301,
       44.001081
      ],
      [
       -103.508867,
       43.995019
      ],
      [
       -103.513678,
       43.98863
      ],
      [
       -103.517699,
       43.981963
      ],
      [
       -103.520899,
       43.975068
      ],
      [
       -103.523255,
       43.967998
      ],
      [
       -103.524747,
       43.960806
      ],
      [
       -103.525366,
       43.953547
      ],
      [
       -103.525106,
       43.946278
      ],
      [
       -103.523971,
       43.939052
      ],
      [
       -103.521969,
       43.931925
      ],
      [
       -103.519116,
       43.924952
      ],
      [
       -103.515433,
       43.918184
      ],
      [
       -103.51095,
       43.911674
      ],
      [
       -103.505699,
       43.905471
      ],
      [
       -103.499722,
       43.899623
      ],
      [
       -103.493064,
       43.894173
      ],
      [
       -103.485775,
       43.889162
      ],
      [
       -103.477912,
       43.88463
      ],
      [
       -103.469533,
       43.88061
      ],
      [
       -103.460703,
       43.877133
      ],
      [
       -103.451489,
       43.874225
      ],
      [
       -103.44196,
       43.871909
      ],
      [
       -103.432189,
       43.870201
      ],
      [
       -103.42225,
       43.869115
      ],
      [
       -103.412218,
       43.868658
      ],
      [
       -103.402169,
       43.868835
      ],
      [
       -103.392179,
       43.869645
      ],
      [
       -103.382325,
       43.87108
      ],
      [
       -103.372681,
       43.87313
      ],
      [
       -103.363319,
       43.87578
      ],
      [
       -103.354311,
       43.879009
      ],
      [
       -103.345726,
       43.882793
      ],
      [
       -103.337628,
       43.887103
      ],
      [
       -103.330079,
       43.891907
      ],
      [
       -103.323137,
       43.897167
      ],
      [
       -103.316854,
       43.902845
      ],
      [
       -103.311278,
       43.908897
      ],
      [
       -103.306451,
       43.915277
      ],
      [
       -103.302412,
       43.921937
      ],
      [
       -103.299189,
       43.928826
      ],
      [
       -103.29681,
       43.935891
      ],
      [
       -103.29529,
       43.94308
      ],
      [
       -103.294644,
       43.950336
      ]
     ]
    ]
   }
  },
  {
   "type": "Feature",
   "properties": {
    "FeatureCategory": "Aerial Hazard Area",
    "Label": "Powerline Corridor",
    "IsVisible": "Yes",
    "MapMethod": "Digitized-Other",
    "GeometryID": "RE-PY-0005",
    "IncidentName": "Red",
    "IRWINID": null,
    "CreateName": "TRAINEE, GISS",
    "CreateDate": "2026-07-28T04:30:00-06:00",
    "DeleteThis": "No",
    "Comments": "Distribution line. No low-level flight.",
    "GISAcres": 1410.6,
    "PolygonDateTime": null
   },
   "geometry": {
    "type": "Polygon",
    "coordinates": [
     [
      [
       -103.443235,
       43.986634
      ],
      [
       -103.423553,
       43.98269
      ],
      [
       -103.404396,
       43.980765
      ],
      [
       -103.385254,
       43.981734
      ],
      [
       -103.365586,
       43.984693
      ],
      [
       -103.365586,
       43.984693
      ],
      [
       -103.364288,
       43.984763
      ],
      [
       -103.363009,
       43.984587
      ],
      [
       -103.361837,
       43.984179
      ],
      [
       -103.360851,
       43.983565
      ],
      [
       -103.360118,
       43.982788
      ],
      [
       -103.35969,
       43.9819
      ],
      [
       -103.359594,
       43.980963
      ],
      [
       -103.359837,
       43.980039
      ],
      [
       -103.360403,
       43.979193
      ],
      [
       -103.361253,
       43.978481
      ],
      [
       -103.362329,
       43.977952
      ],
      [
       -103.363558,
       43.977643
      ],
      [
       -103.363558,
       43.977643
      ],
      [
       -103.383886,
       43.9746
      ],
      [
       -103.40474,
       43.973567
      ],
      [
       -103.425581,
       43.97564
      ],
      [
       -103.445895,
       43.979694
      ],
      [
       -103.445895,
       43.979694
      ],
      [
       -103.447094,
       43.980061
      ],
      [
       -103.44812,
       43.980639
      ],
      [
       -103.448904,
       43.981389
      ],
      [
       -103.449392,
       43.982261
      ],
      [
       -103.449552,
       43.983194
      ],
      [
       -103.449371,
       43.984124
      ],
      [
       -103.448863,
       43.98499
      ],
      [
       -103.448062,
       43.985731
      ],
      [
       -103.447023,
       43.986297
      ],
      [
       -103.445816,
       43.98665
      ],
      [
       -103.444524,
       43.986765
      ],
      [
       -103.443235,
       43.986634
      ],
      [
       -103.443235,
       43.986634
      ]
     ]
    ]
   }
  },
  {
   "type": "Feature",
   "properties": {
    "FeatureCategory": "Retardant Avoidance Area",
    "Label": "Spring Creek",
    "IsVisible": "Yes",
    "MapMethod": "Digitized-Other",
    "GeometryID": "RE-PY-0006",
    "IncidentName": "Red",
    "IRWINID": null,
    "CreateName": "TRAINEE, GISS",
    "CreateDate": "2026-07-28T04:30:00-06:00",
    "DeleteThis": "No",
    "Comments": "300 m each side of the creek. Exercise buffer.",
    "GISAcres": 623.0,
    "PolygonDateTime": null
   },
   "geometry": {
    "type": "Polygon",
    "coordinates": [
     [
      [
       -103.358443,
       43.968948
      ],
      [
       -103.366632,
       43.964858
      ],
      [
       -103.37504,
       43.961703
      ],
      [
       -103.384468,
       43.959086
      ],
      [
       -103.393998,
       43.957497
      ],
      [
       -103.40328,
       43.956973
      ],
      [
       -103.40328,
       43.956973
      ],
      [
       -103.404255,
       43.957012
      ],
      [
       -103.405182,
       43.957231
      ],
      [
       -103.406,
       43.957616
      ],
      [
       -103.406652,
       43.95814
      ],
      [
       -103.407093,
       43.958769
      ],
      [
       -103.407295,
       43.959459
      ],
      [
       -103.407242,
       43.960163
      ],
      [
       -103.406939,
       43.960833
      ],
      [
       -103.406406,
       43.961423
      ],
      [
       -103.405679,
       43.961894
      ],
      [
       -103.404809,
       43.962213
      ],
      [
       -103.403854,
       43.962359
      ],
      [
       -103.403854,
       43.962359
      ],
      [
       -103.395136,
       43.962835
      ],
      [
       -103.386668,
       43.964248
      ],
      [
       -103.378098,
       43.966631
      ],
      [
       -103.370508,
       43.969478
      ],
      [
       -103.3627,
       43.973388
      ],
      [
       -103.3627,
       43.973388
      ],
      [
       -103.361831,
       43.97371
      ],
      [
       -103.360877,
       43.973859
      ],
      [
       -103.359902,
       43.973825
      ],
      [
       -103.358973,
       43.973609
      ],
      [
       -103.358152,
       43.973227
      ],
      [
       -103.357497,
       43.972705
      ],
      [
       -103.35705,
       43.972078
      ],
      [
       -103.356844,
       43.971389
      ],
      [
       -103.356892,
       43.970685
      ],
      [
       -103.357191,
       43.970014
      ],
      [
       -103.357719,
       43.969421
      ],
      [
       -103.358443,
       43.968948
      ],
      [
       -103.358443,
       43.968948
      ]
     ]
    ]
   }
  },
  {
   "type": "Feature",
   "properties": {
    "FeatureCategory": "Closure Area",
    "Label": "Red Closure",
    "IsVisible": "Yes",
    "MapMethod": "Digitized-Other",
    "GeometryID": "RE-PY-0007",
    "IncidentName": "Red",
    "IRWINID": null,
    "CreateName": "TRAINEE, GISS",
    "CreateDate": "2026-07-28T04:30:00-06:00",
    "DeleteThis": "No",
    "Comments": "Public closure. Roads and trails inside are closed.",
    "GISAcres": 13676.6,
    "PolygonDateTime": null
   },
   "geometry": {
    "type": "Polygon",
    "coordinates": [
     [
      [
       -103.357677,
       43.95126
      ],
      [
       -103.357786,
       43.954557
      ],
      [
       -103.358292,
       43.957835
      ],
      [
       -103.359191,
       43.961069
      ],
      [
       -103.360477,
       43.964233
      ],
      [
       -103.362141,
       43.967305
      ],
      [
       -103.364169,
       43.97026
      ],
      [
       -103.366546,
       43.973076
      ],
      [
       -103.369254,
       43.975732
      ],
      [
       -103.372272,
       43.978207
      ],
      [
       -103.375578,
       43.980483
      ],
      [
       -103.379147,
       43.982542
      ],
      [
       -103.38295,
       43.984369
      ],
      [
       -103.38696,
       43.985948
      ],
      [
       -103.391146,
       43.98727
      ],
      [
       -103.395475,
       43.988323
      ],
      [
       -103.399915,
       43.989099
      ],
      [
       -103.404432,
       43.989593
      ],
      [
       -103.408991,
       43.9898
      ],
      [
       -103.413558,
       43.98972
      ],
      [
       -103.418098,
       43.989352
      ],
      [
       -103.422576,
       43.9887
      ],
      [
       -103.426958,
       43.987769
      ],
      [
       -103.431211,
       43.986565
      ],
      [
       -103.435303,
       43.985098
      ],
      [
       -103.439201,
       43.983378
      ],
      [
       -103.442877,
       43.98142
      ],
      [
       -103.446302,
       43.979238
      ],
      [
       -103.449451,
       43.976849
      ],
      [
       -103.452299,
       43.97427
      ],
      [
       -103.454824,
       43.971522
      ],
      [
       -103.457009,
       43.968626
      ],
      [
       -103.458835,
       43.965603
      ],
      [
       -103.460289,
       43.962476
      ],
      [
       -103.46136,
       43.95927
      ],
      [
       -103.46204,
       43.956008
      ],
      [
       -103.462325,
       43.952716
      ],
      [
       -103.46221,
       43.949419
      ],
      [
       -103.461699,
       43.946141
      ],
      [
       -103.460794,
       43.942909
      ],
      [
       -103.459503,
       43.939745
      ],
      [
       -103.457835,
       43.936675
      ],
      [
       -103.455804,
       43.933721
      ],
      [
       -103.453424,
       43.930907
      ],
      [
       -103.450714,
       43.928253
      ],
      [
       -103.447695,
       43.925779
      ],
      [
       -103.444389,
       43.923506
      ],
      [
       -103.440821,
       43.921449
      ],
      [
       -103.43702,
       43.919624
      ],
      [
       -103.433013,
       43.918046
      ],
      [
       -103.428832,
       43.916726
      ],
      [
       -103.424507,
       43.915675
      ],
      [
       -103.420072,
       43.9149
      ],
      [
       -103.415561,
       43.914407
      ],
      [
       -103.411007,
       43.914199
      ],
      [
       -103.406446,
       43.91428
      ],
      [
       -103.401912,
       43.914647
      ],
      [
       -103.397439,
       43.915298
      ],
      [
       -103.393061,
       43.916229
      ],
      [
       -103.388813,
       43.917431
      ],
      [
       -103.384725,
       43.918897
      ],
      [
       -103.380829,
       43.920614
      ],
      [
       -103.377155,
       43.92257
      ],
      [
       -103.373731,
       43.924751
      ],
      [
       -103.370582,
       43.927138
      ],
      [
       -103.367733,
       43.929714
      ],
      [
       -103.365205,
       43.93246
      ],
      [
       -103.363018,
       43.935355
      ],
      [
       -103.361188,
       43.938377
      ],
      [
       -103.359729,
       43.941502
      ],
      [
       -103.358653,
       43.944707
      ],
      [
       -103.357967,
       43.947968
      ],
      [
       -103.357677,
       43.95126
      ]
     ]
    ]
   }
  },
  {
   "type": "Feature",
   "properties": {
    "FeatureCategory": "Safety Zone",
    "Label": "SZ-1 Area",
    "IsVisible": "Yes",
    "MapMethod": "GPS-Walked",
    "GeometryID": "RE-PY-0008",
    "IncidentName": "Red",
    "IRWINID": null,
    "CreateName": "TRAINEE, GISS",
    "CreateDate": "2026-07-28T04:30:00-06:00",
    "DeleteThis": "No",
    "Comments": "Meadow. Measured, not eyeballed.",
    "GISAcres": 13.1,
    "PolygonDateTime": null
   },
   "geometry": {
    "type": "Polygon",
    "coordinates": [
     [
      [
       -103.389147,
       43.956344
      ],
      [
       -103.389151,
       43.956446
      ],
      [
       -103.389166,
       43.956548
      ],
      [
       -103.389194,
       43.956648
      ],
      [
       -103.389234,
       43.956746
      ],
      [
       -103.389286,
       43.956841
      ],
      [
       -103.389349,
       43.956932
      ],
      [
       -103.389422,
       43.957019
      ],
      [
       -103.389506,
       43.957102
      ],
      [
       -103.389599,
       43.957178
      ],
      [
       -103.389702,
       43.957249
      ],
      [
       -103.389812,
       43.957312
      ],
      [
       -103.38993,
       43.957369
      ],
      [
       -103.390054,
       43.957418
      ],
      [
       -103.390183,
       43.957459
      ],
      [
       -103.390317,
       43.957491
      ],
      [
       -103.390455,
       43.957515
      ],
      [
       -103.390594,
       43.957531
      ],
      [
       -103.390735,
       43.957537
      ],
      [
       -103.390877,
       43.957535
      ],
      [
       -103.391017,
       43.957523
      ],
      [
       -103.391156,
       43.957503
      ],
      [
       -103.391291,
       43.957474
      ],
      [
       -103.391423,
       43.957437
      ],
      [
       -103.391549,
       43.957392
      ],
      [
       -103.39167,
       43.957338
      ],
      [
       -103.391784,
       43.957278
      ],
      [
       -103.39189,
       43.95721
      ],
      [
       -103.391987,
       43.957137
      ],
      [
       -103.392076,
       43.957057
      ],
      [
       -103.392154,
       43.956972
      ],
      [
       -103.392222,
       43.956882
      ],
      [
       -103.392278,
       43.956789
      ],
      [
       -103.392323,
       43.956692
      ],
      [
       -103.392357,
       43.956593
      ],
      [
       -103.392378,
       43.956492
      ],
      [
       -103.392387,
       43.95639
      ],
      [
       -103.392383,
       43.956288
      ],
      [
       -103.392368,
       43.956186
      ],
      [
       -103.39234,
       43.956086
      ],
      [
       -103.3923,
       43.955988
      ],
      [
       -103.392248,
       43.955893
      ],
      [
       -103.392185,
       43.955802
      ],
      [
       -103.392112,
       43.955715
      ],
      [
       -103.392028,
       43.955632
      ],
      [
       -103.391935,
       43.955556
      ],
      [
       -103.391832,
       43.955485
      ],
      [
       -103.391722,
       43.955422
      ],
      [
       -103.391604,
       43.955365
      ],
      [
       -103.39148,
       43.955316
      ],
      [
       -103.391351,
       43.955275
      ],
      [
       -103.391217,
       43.955243
      ],
      [
       -103.391079,
       43.955219
      ],
      [
       -103.39094,
       43.955203
      ],
      [
       -103.390799,
       43.955197
      ],
      [
       -103.390657,
       43.955199
      ],
      [
       -103.390517,
       43.955211
      ],
      [
       -103.390378,
       43.955231
      ],
      [
       -103.390243,
       43.95526
      ],
      [
       -103.390111,
       43.955297
      ],
      [
       -103.389985,
       43.955342
      ],
      [
       -103.389864,
       43.955396
      ],
      [
       -103.38975,
       43.955456
      ],
      [
       -103.389644,
       43.955524
      ],
      [
       -103.389547,
       43.955597
      ],
      [
       -103.389458,
       43.955677
      ],
      [
       -103.38938,
       43.955762
      ],
      [
       -103.389312,
       43.955852
      ],
      [
       -103.389256,
       43.955945
      ],
      [
       -103.389211,
       43.956042
      ],
      [
       -103.389177,
       43.956141
      ],
      [
       -103.389156,
       43.956242
      ],
      [
       -103.389147,
       43.956344
      ]
     ]
    ]
   }
  },
  {
   "type": "Feature",
   "properties": {
    "FeatureCategory": "Structure Group",
    "Label": "Training Grounds Structures",
    "IsVisible": "Yes",
    "MapMethod": "GPS-Walked",
    "GeometryID": "RE-PY-0009",
    "IncidentName": "Red",
    "IRWINID": null,
    "CreateName": "TRAINEE, GISS",
    "CreateDate": "2026-07-28T04:30:00-06:00",
    "DeleteThis": "No",
    "Comments": "Lodge, dining hall, cabin row, tank. Structure protection group assigned.",
    "GISAcres": 95.0,
    "PolygonDateTime": null
   },
   "geometry": {
    "type": "Polygon",
    "coordinates": [
     [
      [
       -103.377007,
       43.959905
      ],
      [
       -103.377016,
       43.96018
      ],
      [
       -103.377059,
       43.960453
      ],
      [
       -103.377134,
       43.960723
      ],
      [
       -103.377241,
       43.960986
      ],
      [
       -103.37738,
       43.961242
      ],
      [
       -103.377549,
       43.961488
      ],
      [
       -103.377747,
       43.961723
      ],
      [
       -103.377972,
       43.961944
      ],
      [
       -103.378224,
       43.962151
      ],
      [
       -103.378499,
       43.96234
      ],
      [
       -103.378797,
       43.962512
      ],
      [
       -103.379113,
       43.962664
      ],
      [
       -103.379447,
       43.962796
      ],
      [
       -103.379796,
       43.962906
      ],
      [
       -103.380157,
       43.962994
      ],
      [
       -103.380526,
       43.963058
      ],
      [
       -103.380903,
       43.9631
      ],
      [
       -103.381282,
       43.963117
      ],
      [
       -103.381663,
       43.96311
      ],
      [
       -103.382041,
       43.96308
      ],
      [
       -103.382414,
       43.963026
      ],
      [
       -103.382779,
       43.962948
      ],
      [
       -103.383134,
       43.962848
      ],
      [
       -103.383474,
       43.962726
      ],
      [
       -103.383799,
       43.962583
      ],
      [
       -103.384106,
       43.96242
      ],
      [
       -103.384391,
       43.962238
      ],
      [
       -103.384654,
       43.962039
      ],
      [
       -103.384891,
       43.961824
      ],
      [
       -103.385102,
       43.961595
      ],
      [
       -103.385284,
       43.961354
      ],
      [
       -103.385437,
       43.961102
      ],
      [
       -103.385558,
       43.960842
      ],
      [
       -103.385648,
       43.960575
      ],
      [
       -103.385705,
       43.960303
      ],
      [
       -103.385729,
       43.960029
      ],
      [
       -103.38572,
       43.959754
      ],
      [
       -103.385677,
       43.959481
      ],
      [
       -103.385602,
       43.959211
      ],
      [
       -103.385495,
       43.958948
      ],
      [
       -103.385356,
       43.958692
      ],
      [
       -103.385187,
       43.958445
      ],
      [
       -103.384989,
       43.958211
      ],
      [
       -103.384763,
       43.95799
      ],
      [
       -103.384512,
       43.957783
      ],
      [
       -103.384236,
       43.957594
      ],
      [
       -103.383939,
       43.957422
      ],
      [
       -103.383622,
       43.95727
      ],
      [
       -103.383288,
       43.957138
      ],
      [
       -103.38294,
       43.957028
      ],
      [
       -103.382579,
       43.95694
      ],
      [
       -103.382209,
       43.956876
      ],
      [
       -103.381833,
       43.956834
      ],
      [
       -103.381454,
       43.956817
      ],
      [
       -103.381073,
       43.956824
      ],
      [
       -103.380695,
       43.956854
      ],
      [
       -103.380322,
       43.956908
      ],
      [
       -103.379957,
       43.956986
      ],
      [
       -103.379603,
       43.957086
      ],
      [
       -103.379262,
       43.957208
      ],
      [
       -103.378937,
       43.957351
      ],
      [
       -103.378631,
       43.957514
      ],
      [
       -103.378345,
       43.957696
      ],
      [
       -103.378083,
       43.957895
      ],
      [
       -103.377845,
       43.95811
      ],
      [
       -103.377634,
       43.958338
      ],
      [
       -103.377452,
       43.95858
      ],
      [
       -103.3773,
       43.958832
      ],
      [
       -103.377178,
       43.959092
      ],
      [
       -103.377088,
       43.959359
      ],
      [
       -103.377031,
       43.959631
      ],
      [
       -103.377007,
       43.959905
      ]
     ]
    ]
   }
  },
  {
   "type": "Feature",
   "properties": {
    "FeatureCategory": "Management Action Point Area",
    "Label": "MAP 1 \u2014 Access Road",
    "IsVisible": "Yes",
    "MapMethod": "Digitized-Topo",
    "GeometryID": "RE-PY-0010",
    "IncidentName": "Red",
    "IRWINID": null,
    "CreateName": "TRAINEE, GISS",
    "CreateDate": "2026-07-28T04:30:00-06:00",
    "DeleteThis": "No",
    "Comments": "Trigger: fire crosses the drainage west of DP 3 \u2014 evacuate the training grounds.",
    "GISAcres": 193.8,
    "PolygonDateTime": null
   },
   "geometry": {
    "type": "Polygon",
    "coordinates": [
     [
      [
       -103.368339,
       43.960578
      ],
      [
       -103.368352,
       43.960971
      ],
      [
       -103.368412,
       43.961361
      ],
      [
       -103.36852,
       43.961746
      ],
      [
       -103.368673,
       43.962123
      ],
      [
       -103.368871,
       43.962488
      ],
      [
       -103.369112,
       43.96284
      ],
      [
       -103.369395,
       43.963175
      ],
      [
       -103.369718,
       43.963492
      ],
      [
       -103.370077,
       43.963786
      ],
      [
       -103.37047,
       43.964057
      ],
      [
       -103.370895,
       43.964302
      ],
      [
       -103.371348,
       43.96452
      ],
      [
       -103.371825,
       43.964708
      ],
      [
       -103.372323,
       43.964865
      ],
      [
       -103.372838,
       43.964991
      ],
      [
       -103.373366,
       43.965083
      ],
      [
       -103.373904,
       43.965142
      ],
      [
       -103.374446,
       43.965167
      ],
      [
       -103.37499,
       43.965158
      ],
      [
       -103.37553,
       43.965114
      ],
      [
       -103.376063,
       43.965037
      ],
      [
       -103.376585,
       43.964926
      ],
      [
       -103.377091,
       43.964783
      ],
      [
       -103.377578,
       43.964608
      ],
      [
       -103.378042,
       43.964404
      ],
      [
       -103.37848,
       43.964171
      ],
      [
       -103.378888,
       43.963912
      ],
      [
       -103.379263,
       43.963627
      ],
      [
       -103.379602,
       43.963321
      ],
      [
       -103.379903,
       43.962994
      ],
      [
       -103.380163,
       43.962649
      ],
      [
       -103.380381,
       43.962289
      ],
      [
       -103.380555,
       43.961917
      ],
      [
       -103.380683,
       43.961536
      ],
      [
       -103.380764,
       43.961147
      ],
      [
       -103.380799,
       43.960755
      ],
      [
       -103.380786,
       43.960363
      ],
      [
       -103.380725,
       43.959973
      ],
      [
       -103.380618,
       43.959588
      ],
      [
       -103.380465,
       43.959211
      ],
      [
       -103.380267,
       43.958845
      ],
      [
       -103.380025,
       43.958494
      ],
      [
       -103.379742,
       43.958158
      ],
      [
       -103.37942,
       43.957842
      ],
      [
       -103.379061,
       43.957548
      ],
      [
       -103.378667,
       43.957277
      ],
      [
       -103.378243,
       43.957032
      ],
      [
       -103.37779,
       43.956814
      ],
      [
       -103.377313,
       43.956626
      ],
      [
       -103.376815,
       43.956469
      ],
      [
       -103.3763,
       43.956343
      ],
      [
       -103.375772,
       43.956251
      ],
      [
       -103.375234,
       43.956192
      ],
      [
       -103.374692,
       43.956167
      ],
      [
       -103.374148,
       43.956176
      ],
      [
       -103.373608,
       43.95622
      ],
      [
       -103.373075,
       43.956297
      ],
      [
       -103.372554,
       43.956408
      ],
      [
       -103.372048,
       43.956551
      ],
      [
       -103.371561,
       43.956726
      ],
      [
       -103.371096,
       43.95693
      ],
      [
       -103.370659,
       43.957163
      ],
      [
       -103.370251,
       43.957422
      ],
      [
       -103.369876,
       43.957706
      ],
      [
       -103.369536,
       43.958013
      ],
      [
       -103.369235,
       43.95834
      ],
      [
       -103.368975,
       43.958685
      ],
      [
       -103.368757,
       43.959044
      ],
      [
       -103.368583,
       43.959417
      ],
      [
       -103.368455,
       43.959798
      ],
      [
       -103.368374,
       43.960186
      ],
      [
       -103.368339,
       43.960578
      ]
     ]
    ]
   }
  },
  {
   "type": "Feature",
   "properties": {
    "FeatureCategory": "Evacuation Area",
    "Label": "Zone A \u2014 GO",
    "IsVisible": "Yes",
    "MapMethod": "Digitized-Other",
    "GeometryID": "RE-PY-0011",
    "IncidentName": "Red",
    "IRWINID": null,
    "CreateName": "TRAINEE, GISS",
    "CreateDate": "2026-07-28T04:30:00-06:00",
    "DeleteThis": "No",
    "Comments": "Immediate evacuation. Structures inside the Management Action Point trigger.",
    "GISAcres": 1744.5,
    "PolygonDateTime": null
   },
   "geometry": {
    "type": "Polygon",
    "coordinates": [
     [
      [
       -103.371878,
       43.960902
      ],
      [
       -103.371917,
       43.96208
      ],
      [
       -103.372098,
       43.96325
      ],
      [
       -103.37242,
       43.964405
      ],
      [
       -103.372879,
       43.965535
      ],
      [
       -103.373474,
       43.966632
      ],
      [
       -103.374198,
       43.967688
      ],
      [
       -103.375047,
       43.968694
      ],
      [
       -103.376014,
       43.969642
      ],
      [
       -103.377093,
       43.970526
      ],
      [
       -103.378273,
       43.971339
      ],
      [
       -103.379547,
       43.972074
      ],
      [
       -103.380906,
       43.972726
      ],
      [
       -103.382337,
       43.973291
      ],
      [
       -103.383832,
       43.973763
      ],
      [
       -103.385377,
       43.974139
      ],
      [
       -103.386963,
       43.974416
      ],
      [
       -103.388575,
       43.974593
      ],
      [
       -103.390203,
       43.974667
      ],
      [
       -103.391834,
       43.974639
      ],
      [
       -103.393455,
       43.974508
      ],
      [
       -103.395054,
       43.974275
      ],
      [
       -103.396619,
       43.973943
      ],
      [
       -103.398138,
       43.973513
      ],
      [
       -103.399599,
       43.97299
      ],
      [
       -103.400991,
       43.972376
      ],
      [
       -103.402304,
       43.971677
      ],
      [
       -103.403528,
       43.970898
      ],
      [
       -103.404653,
       43.970046
      ],
      [
       -103.405671,
       43.969125
      ],
      [
       -103.406573,
       43.968144
      ],
      [
       -103.407354,
       43.96711
      ],
      [
       -103.408007,
       43.96603
      ],
      [
       -103.408528,
       43.964914
      ],
      [
       -103.408911,
       43.963769
      ],
      [
       -103.409155,
       43.962604
      ],
      [
       -103.409258,
       43.961429
      ],
      [
       -103.409218,
       43.960251
      ],
      [
       -103.409036,
       43.959081
      ],
      [
       -103.408714,
       43.957926
      ],
      [
       -103.408254,
       43.956796
      ],
      [
       -103.407659,
       43.955699
      ],
      [
       -103.406934,
       43.954644
      ],
      [
       -103.406085,
       43.953638
      ],
      [
       -103.405117,
       43.95269
      ],
      [
       -103.404039,
       43.951806
      ],
      [
       -103.402859,
       43.950994
      ],
      [
       -103.401585,
       43.950259
      ],
      [
       -103.400227,
       43.949607
      ],
      [
       -103.398795,
       43.949043
      ],
      [
       -103.397301,
       43.948571
      ],
      [
       -103.395756,
       43.948195
      ],
      [
       -103.394172,
       43.947918
      ],
      [
       -103.39256,
       43.947741
      ],
      [
       -103.390932,
       43.947667
      ],
      [
       -103.389302,
       43.947695
      ],
      [
       -103.387682,
       43.947826
      ],
      [
       -103.386084,
       43.948059
      ],
      [
       -103.38452,
       43.948391
      ],
      [
       -103.383001,
       43.94882
      ],
      [
       -103.381541,
       43.949344
      ],
      [
       -103.380149,
       43.949957
      ],
      [
       -103.378836,
       43.950656
      ],
      [
       -103.377612,
       43.951434
      ],
      [
       -103.376487,
       43.952287
      ],
      [
       -103.375469,
       43.953207
      ],
      [
       -103.374566,
       43.954188
      ],
      [
       -103.373785,
       43.955222
      ],
      [
       -103.373132,
       43.956301
      ],
      [
       -103.372611,
       43.957417
      ],
      [
       -103.372226,
       43.958562
      ],
      [
       -103.371982,
       43.959727
      ],
      [
       -103.371878,
       43.960902
      ]
     ]
    ]
   }
  },
  {
   "type": "Feature",
   "properties": {
    "FeatureCategory": "Evacuation Area",
    "Label": "Zone B \u2014 SET",
    "IsVisible": "Yes",
    "MapMethod": "Digitized-Other",
    "GeometryID": "RE-PY-0012",
    "IncidentName": "Red",
    "IRWINID": null,
    "CreateName": "TRAINEE, GISS",
    "CreateDate": "2026-07-28T04:30:00-06:00",
    "DeleteThis": "No",
    "Comments": "Be ready. Sheriff will upgrade if the fire crosses the drainage.",
    "GISAcres": 3752.6,
    "PolygonDateTime": null
   },
   "geometry": {
    "type": "Polygon",
    "coordinates": [
     [
      [
       -103.333158,
       43.964771
      ],
      [
       -103.333214,
       43.966498
      ],
      [
       -103.333479,
       43.968216
      ],
      [
       -103.333949,
       43.969909
      ],
      [
       -103.334622,
       43.971567
      ],
      [
       -103.335493,
       43.973176
      ],
      [
       -103.336555,
       43.974725
      ],
      [
       -103.337799,
       43.9762
      ],
      [
       -103.339217,
       43.977592
      ],
      [
       -103.340797,
       43.978889
      ],
      [
       -103.342528,
       43.980081
      ],
      [
       -103.344397,
       43.98116
      ],
      [
       -103.346389,
       43.982117
      ],
      [
       -103.348488,
       43.982946
      ],
      [
       -103.35068,
       43.983639
      ],
      [
       -103.352947,
       43.984191
      ],
      [
       -103.355273,
       43.984598
      ],
      [
       -103.357638,
       43.984858
      ],
      [
       -103.360026,
       43.984968
      ],
      [
       -103.362418,
       43.984927
      ],
      [
       -103.364796,
       43.984735
      ],
      [
       -103.367142,
       43.984395
      ],
      [
       -103.369438,
       43.983908
      ],
      [
       -103.371666,
       43.983278
      ],
      [
       -103.37381,
       43.982511
      ],
      [
       -103.375852,
       43.981612
      ],
      [
       -103.377779,
       43.980587
      ],
      [
       -103.379574,
       43.979445
      ],
      [
       -103.381225,
       43.978195
      ],
      [
       -103.382718,
       43.976845
      ],
      [
       -103.384043,
       43.975406
      ],
      [
       -103.385189,
       43.97389
      ],
      [
       -103.386148,
       43.972307
      ],
      [
       -103.386911,
       43.97067
      ],
      [
       -103.387475,
       43.96899
      ],
      [
       -103.387833,
       43.967282
      ],
      [
       -103.387984,
       43.965558
      ],
      [
       -103.387927,
       43.963831
      ],
      [
       -103.387661,
       43.962114
      ],
      [
       -103.387189,
       43.96042
      ],
      [
       -103.386514,
       43.958763
      ],
      [
       -103.385642,
       43.957154
      ],
      [
       -103.38458,
       43.955606
      ],
      [
       -103.383335,
       43.954131
      ],
      [
       -103.381916,
       43.95274
      ],
      [
       -103.380336,
       43.951444
      ],
      [
       -103.378604,
       43.950252
      ],
      [
       -103.376736,
       43.949173
      ],
      [
       -103.374745,
       43.948217
      ],
      [
       -103.372646,
       43.947389
      ],
      [
       -103.370455,
       43.946696
      ],
      [
       -103.36819,
       43.946144
      ],
      [
       -103.365866,
       43.945737
      ],
      [
       -103.363502,
       43.945478
      ],
      [
       -103.361115,
       43.945368
      ],
      [
       -103.358725,
       43.945409
      ],
      [
       -103.356348,
       43.945601
      ],
      [
       -103.354004,
       43.945941
      ],
      [
       -103.35171,
       43.946427
      ],
      [
       -103.349483,
       43.947057
      ],
      [
       -103.34734,
       43.947824
      ],
      [
       -103.345298,
       43.948722
      ],
      [
       -103.343372,
       43.949746
      ],
      [
       -103.341577,
       43.950888
      ],
      [
       -103.339926,
       43.952138
      ],
      [
       -103.338432,
       43.953487
      ],
      [
       -103.337107,
       43.954925
      ],
      [
       -103.33596,
       43.956441
      ],
      [
       -103.335001,
       43.958024
      ],
      [
       -103.334236,
       43.95966
      ],
      [
       -103.333671,
       43.961339
      ],
      [
       -103.333311,
       43.963047
      ],
      [
       -103.333158,
       43.964771
      ]
     ]
    ]
   }
  },
  {
   "type": "Feature",
   "properties": {
    "FeatureCategory": "Evacuation Area",
    "Label": "Zone C \u2014 READY",
    "IsVisible": "Yes",
    "MapMethod": "Digitized-Other",
    "GeometryID": "RE-PY-0013",
    "IncidentName": "Red",
    "IRWINID": null,
    "CreateName": "TRAINEE, GISS",
    "CreateDate": "2026-07-28T04:30:00-06:00",
    "DeleteThis": "No",
    "Comments": "Stay informed.",
    "GISAcres": 5241.1,
    "PolygonDateTime": null
   },
   "geometry": {
    "type": "Polygon",
    "coordinates": [
     [
      [
       -103.302174,
       43.968692
      ],
      [
       -103.30224,
       43.970733
      ],
      [
       -103.302551,
       43.972763
      ],
      [
       -103.303106,
       43.974765
      ],
      [
       -103.303901,
       43.976724
      ],
      [
       -103.304929,
       43.978626
      ],
      [
       -103.306182,
       43.980456
      ],
      [
       -103.307652,
       43.9822
      ],
      [
       -103.309327,
       43.983845
      ],
      [
       -103.311195,
       43.985378
      ],
      [
       -103.31324,
       43.986788
      ],
      [
       -103.315448,
       43.988064
      ],
      [
       -103.317801,
       43.989196
      ],
      [
       -103.320283,
       43.990175
      ],
      [
       -103.322873,
       43.990995
      ],
      [
       -103.325552,
       43.991648
      ],
      [
       -103.3283,
       43.992131
      ],
      [
       -103.331096,
       43.992438
      ],
      [
       -103.333919,
       43.992568
      ],
      [
       -103.336746,
       43.99252
      ],
      [
       -103.339557,
       43.992295
      ],
      [
       -103.34233,
       43.991893
      ],
      [
       -103.345043,
       43.991318
      ],
      [
       -103.347677,
       43.990575
      ],
      [
       -103.350211,
       43.989669
      ],
      [
       -103.352626,
       43.988606
      ],
      [
       -103.354904,
       43.987396
      ],
      [
       -103.357026,
       43.986047
      ],
      [
       -103.358978,
       43.984569
      ],
      [
       -103.360744,
       43.982974
      ],
      [
       -103.36231,
       43.981274
      ],
      [
       -103.363665,
       43.979482
      ],
      [
       -103.364799,
       43.977612
      ],
      [
       -103.365702,
       43.975677
      ],
      [
       -103.366369,
       43.973693
      ],
      [
       -103.366793,
       43.971674
      ],
      [
       -103.366972,
       43.969637
      ],
      [
       -103.366905,
       43.967596
      ],
      [
       -103.366591,
       43.965566
      ],
      [
       -103.366034,
       43.963565
      ],
      [
       -103.365238,
       43.961606
      ],
      [
       -103.364208,
       43.959704
      ],
      [
       -103.362953,
       43.957875
      ],
      [
       -103.361482,
       43.956131
      ],
      [
       -103.359806,
       43.954487
      ],
      [
       -103.357939,
       43.952955
      ],
      [
       -103.355893,
       43.951546
      ],
      [
       -103.353686,
       43.950271
      ],
      [
       -103.351333,
       43.949139
      ],
      [
       -103.348853,
       43.948161
      ],
      [
       -103.346264,
       43.947342
      ],
      [
       -103.343587,
       43.946689
      ],
      [
       -103.340841,
       43.946207
      ],
      [
       -103.338047,
       43.9459
      ],
      [
       -103.335227,
       43.94577
      ],
      [
       -103.332401,
       43.945817
      ],
      [
       -103.329593,
       43.946043
      ],
      [
       -103.326822,
       43.946444
      ],
      [
       -103.32411,
       43.947019
      ],
      [
       -103.321478,
       43.947762
      ],
      [
       -103.318945,
       43.948667
      ],
      [
       -103.316531,
       43.949729
      ],
      [
       -103.314255,
       43.950939
      ],
      [
       -103.312132,
       43.952287
      ],
      [
       -103.310181,
       43.953764
      ],
      [
       -103.308415,
       43.955358
      ],
      [
       -103.306847,
       43.957057
      ],
      [
       -103.305491,
       43.958848
      ],
      [
       -103.304356,
       43.960718
      ],
      [
       -103.303451,
       43.962652
      ],
      [
       -103.302782,
       43.964636
      ],
      [
       -103.302356,
       43.966655
      ],
      [
       -103.302174,
       43.968692
      ]
     ]
    ]
   }
  },
  {
   "type": "Feature",
   "properties": {
    "FeatureCategory": "Repair Area",
    "Label": "Div Z Dozer Repair",
    "IsVisible": "Yes",
    "MapMethod": "GPS-Walked",
    "GeometryID": "RE-PY-0014",
    "IncidentName": "Red",
    "IRWINID": null,
    "CreateName": "TRAINEE, GISS",
    "CreateDate": "2026-07-28T04:30:00-06:00",
    "DeleteThis": "No",
    "Comments": "Waterbar, pull berm back, scatter slash. Two blades wide.",
    "GISAcres": 115.1,
    "PolygonDateTime": null
   },
   "geometry": {
    "type": "Polygon",
    "coordinates": [
     [
      [
       -103.430817,
       43.952691
      ],
      [
       -103.430357,
       43.945343
      ],
      [
       -103.424538,
       43.939549
      ],
      [
       -103.417002,
       43.935703
      ],
      [
       -103.408952,
       43.938628
      ],
      [
       -103.40151,
       43.942601
      ],
      [
       -103.40151,
       43.942601
      ],
      [
       -103.401339,
       43.942669
      ],
      [
       -103.40115,
       43.942703
      ],
      [
       -103.400955,
       43.9427
      ],
      [
       -103.400767,
       43.942661
      ],
      [
       -103.4006,
       43.942588
      ],
      [
       -103.400465,
       43.942487
      ],
      [
       -103.40037,
       43.942363
      ],
      [
       -103.400323,
       43.942227
      ],
      [
       -103.400327,
       43.942086
      ],
      [
       -103.400381,
       43.94195
      ],
      [
       -103.400482,
       43.941829
      ],
      [
       -103.400622,
       43.941731
      ],
      [
       -103.400622,
       43.941731
      ],
      [
       -103.408178,
       43.937704
      ],
      [
       -103.417126,
       43.934627
      ],
      [
       -103.425588,
       43.938781
      ],
      [
       -103.431769,
       43.944987
      ],
      [
       -103.432311,
       43.952639
      ],
      [
       -103.432311,
       43.952639
      ],
      [
       -103.432295,
       43.952779
      ],
      [
       -103.432229,
       43.952912
      ],
      [
       -103.432118,
       43.953028
      ],
      [
       -103.431969,
       43.953119
      ],
      [
       -103.431792,
       43.953179
      ],
      [
       -103.4316,
       43.953204
      ],
      [
       -103.431406,
       43.953193
      ],
      [
       -103.431222,
       43.953145
      ],
      [
       -103.431061,
       43.953065
      ],
      [
       -103.430935,
       43.952957
      ],
      [
       -103.430852,
       43.95283
      ],
      [
       -103.430817,
       43.952691
      ],
      [
       -103.430817,
       43.952691
      ]
     ]
    ]
   }
  },
  {
   "type": "Feature",
   "properties": {
    "FeatureCategory": "Repair Area",
    "Label": "Div Z Road Repair",
    "IsVisible": "Yes",
    "MapMethod": "GPS-Walked",
    "GeometryID": "RE-PY-0015",
    "IncidentName": "Red",
    "IRWINID": null,
    "CreateName": "TRAINEE, GISS",
    "CreateDate": "2026-07-28T04:30:00-06:00",
    "DeleteThis": "No",
    "Comments": "Blade back to template, reinstall drainage.",
    "GISAcres": 29.5,
    "PolygonDateTime": null
   },
   "geometry": {
    "type": "Polygon",
    "coordinates": [
     [
      [
       -103.401411,
       43.942426
      ],
      [
       -103.394934,
       43.946909
      ],
      [
       -103.389457,
       43.951891
      ],
      [
       -103.389457,
       43.951891
      ],
      [
       -103.389364,
       43.951956
      ],
      [
       -103.38925,
       43.952002
      ],
      [
       -103.389124,
       43.952025
      ],
      [
       -103.388994,
       43.952023
      ],
      [
       -103.388869,
       43.951997
      ],
      [
       -103.388757,
       43.951949
      ],
      [
       -103.388667,
       43.951881
      ],
      [
       -103.388603,
       43.951799
      ],
      [
       -103.388572,
       43.951708
      ],
      [
       -103.388574,
       43.951614
      ],
      [
       -103.38861,
       43.951524
      ],
      [
       -103.388677,
       43.951443
      ],
      [
       -103.388677,
       43.951443
      ],
      [
       -103.394198,
       43.946423
      ],
      [
       -103.400721,
       43.941906
      ],
      [
       -103.400721,
       43.941906
      ],
      [
       -103.400826,
       43.94185
      ],
      [
       -103.400947,
       43.941816
      ],
      [
       -103.401077,
       43.941806
      ],
      [
       -103.401205,
       43.94182
      ],
      [
       -103.401324,
       43.941858
      ],
      [
       -103.401426,
       43.941917
      ],
      [
       -103.401503,
       43.941993
      ],
      [
       -103.40155,
       43.94208
      ],
      [
       -103.401564,
       43.942174
      ],
      [
       -103.401544,
       43.942267
      ],
      [
       -103.401492,
       43.942353
      ],
      [
       -103.401411,
       43.942426
      ],
      [
       -103.401411,
       43.942426
      ]
     ]
    ]
   }
  }
 ]
}
