{
 "type": "FeatureCollection",
 "name": "trails",
 "crs": {
  "type": "name",
  "properties": {
   "name": "urn:ogc:def:crs:OGC:1.3:CRS84"
  }
 },
 "_warning": "TRAINING EXERCISE \u2014 NOT AN ACTUAL INCIDENT. Fabricated data. Never publish, never sync to NIFS or NIFC AGOL.",
 "_fire": "Red",
 "_generated_by": "scripts/make_fires.py",
 "features": [
  {
   "type": "Feature",
   "properties": {
    "TRAIL_NAME": "Storm Mountain Loop",
    "TRAIL_NO": "9082",
    "LINE_STATUS": ""
   },
   "geometry": {
    "type": "LineString",
    "coordinates": [
     [
      -103.431564,
      43.952665
     ],
     [
      -103.427565,
      43.959665
     ],
     [
      -103.419566,
      43.965665
     ],
     [
      -103.410567,
      43.969166
     ],
     [
      -103.400568,
      43.970366
     ]
    ]
   }
  },
  {
   "type": "Feature",
   "properties": {
    "TRAIL_NAME": "Coon Hollow",
    "TRAIL_NO": "9083",
    "LINE_STATUS": ""
   },
   "geometry": {
    "type": "LineString",
    "coordinates": [
     [
      -103.389068,
      43.960667
     ],
     [
      -103.384568,
      43.957667
     ],
     [
      -103.383069,
      43.964167
     ],
     [
      -103.385569,
      43.970167
     ]
    ]
   }
  },
  {
   "type": "Feature",
   "properties": {
    "TRAIL_NAME": "Rockerville Flume",
    "TRAIL_NO": "9084",
    "LINE_STATUS": ""
   },
   "geometry": {
    "type": "LineString",
    "coordinates": [
     [
      -103.360571,
      43.971168
     ],
     [
      -103.36857,
      43.967168
     ],
     [
      -103.376569,
      43.964167
     ],
     [
      -103.385568,
      43.961667
     ]
    ]
   }
  },
  {
   "type": "Feature",
   "properties": {
    "TRAIL_NAME": "Spring Creek Spur",
    "TRAIL_NO": "9085",
    "LINE_STATUS": ""
   },
   "geometry": {
    "type": "LineString",
    "coordinates": [
     [
      -103.344571,
      43.955169
     ],
     [
      -103.339571,
      43.951169
     ],
     [
      -103.334571,
      43.947169
     ]
    ]
   }
  },
  {
   "type": "Feature",
   "properties": {
    "TRAIL_NAME": "Old Mine Trail",
    "TRAIL_NO": "9086",
    "LINE_STATUS": "none"
   },
   "geometry": {
    "type": "LineString",
    "coordinates": [
     [
      -103.420564,
      43.948165
     ],
     [
      -103.415565,
      43.951166
     ],
     [
      -103.410566,
      43.954166
     ]
    ]
   }
  }
 ]
}
