{
 "type": "FeatureCollection",
 "name": "EventPolygon",
 "crs": {
  "type": "name",
  "properties": {
   "name": "urn:ogc:def:crs:OGC:1.3:CRS84"
  }
 },
 "_warning": "TRAINING EXERCISE \u2014 NOT AN ACTUAL INCIDENT. Fabricated data. Never publish, never sync to NIFS or NIFC AGOL.",
 "_fire": "Violet",
 "_generated_by": "scripts/make_fires.py",
 "features": [
  {
   "type": "Feature",
   "properties": {
    "FeatureCategory": "Wildfire Daily Fire Perimeter",
    "Label": "Violet 08/01",
    "IsVisible": "Yes",
    "MapMethod": "Infrared Image",
    "GeometryID": "VI-PY-0001",
    "IncidentName": "Violet",
    "IRWINID": null,
    "CreateName": "TRAINEE, GISS",
    "CreateDate": "2026-08-03T03:45:00-06:00",
    "DeleteThis": "No",
    "Comments": "Operational period 6 perimeter.",
    "GISAcres": 541.7,
    "PolygonDateTime": "2026-08-01T02:14:00-06:00"
   },
   "geometry": {
    "type": "Polygon",
    "coordinates": [
     [
      [
       -103.403129,
       43.982964
      ],
      [
       -103.400109,
       43.988208
      ],
      [
       -103.393904,
       43.991153
      ],
      [
       -103.385987,
       43.990738
      ],
      [
       -103.379948,
       43.987436
      ],
      [
       -103.378643,
       43.98225
      ],
      [
       -103.383255,
       43.978155
      ],
      [
       -103.391376,
       43.977656
      ],
      [
       -103.399178,
       43.979686
      ],
      [
       -103.403129,
       43.982964
      ]
     ]
    ]
   }
  },
  {
   "type": "Feature",
   "properties": {
    "FeatureCategory": "Wildfire Daily Fire Perimeter",
    "Label": "Violet 08/02",
    "IsVisible": "Yes",
    "MapMethod": "Infrared Image",
    "GeometryID": "VI-PY-0002",
    "IncidentName": "Violet",
    "IRWINID": null,
    "CreateName": "TRAINEE, GISS",
    "CreateDate": "2026-08-03T03:45:00-06:00",
    "DeleteThis": "No",
    "Comments": "Operational period 7 perimeter.",
    "GISAcres": 1744.1,
    "PolygonDateTime": "2026-08-02T02:14:00-06:00"
   },
   "geometry": {
    "type": "Polygon",
    "coordinates": [
     [
      [
       -103.408393,
       43.981462
      ],
      [
       -103.405496,
       43.988917
      ],
      [
       -103.397944,
       43.995132
      ],
      [
       -103.387617,
       43.997221
      ],
      [
       -103.375577,
       43.99595
      ],
      [
       -103.365947,
       43.992175
      ],
      [
       -103.361788,
       43.985986
      ],
      [
       -103.364484,
       43.979446
      ],
      [
       -103.372687,
       43.975824
      ],
      [
       -103.384602,
       43.974885
      ],
      [
       -103.39664,
       43.976155
      ],
      [
       -103.405414,
       43.978249
      ],
      [
       -103.408393,
       43.981462
      ]
     ]
    ]
   }
  },
  {
   "type": "Feature",
   "properties": {
    "FeatureCategory": "Wildfire Daily Fire Perimeter",
    "Label": "Violet 08/03",
    "IsVisible": "Yes",
    "MapMethod": "Infrared Image",
    "GeometryID": "VI-PY-0003",
    "IncidentName": "Violet",
    "IRWINID": null,
    "CreateName": "TRAINEE, GISS",
    "CreateDate": "2026-08-03T03:45:00-06:00",
    "DeleteThis": "No",
    "Comments": "Operational period 8 perimeter.",
    "GISAcres": 3971.9,
    "PolygonDateTime": "2026-08-03T02:14:00-06:00"
   },
   "geometry": {
    "type": "Polygon",
    "coordinates": [
     [
      [
       -103.413658,
       43.97996
      ],
      [
       -103.410149,
       43.990155
      ],
      [
       -103.401454,
       43.998728
      ],
      [
       -103.388186,
       44.002937
      ],
      [
       -103.371614,
       44.002637
      ],
      [
       -103.356923,
       43.999449
      ],
      [
       -103.345173,
       43.994141
      ],
      [
       -103.341426,
       43.986126
      ],
      [
       -103.345063,
       43.978143
      ],
      [
       -103.356204,
       43.972401
      ],
      [
       -103.369383,
       43.971315
      ],
      [
       -103.382889,
       43.971525
      ],
      [
       -103.396191,
       43.972648
      ],
      [
       -103.408025,
       43.974831
      ],
      [
       -103.413658,
       43.97996
      ]
     ]
    ]
   }
  },
  {
   "type": "Feature",
   "properties": {
    "FeatureCategory": "Temporary Flight Restriction",
    "Label": "TFR 5 NM",
    "IsVisible": "Yes",
    "MapMethod": "Digitized-Other",
    "GeometryID": "VI-PY-0004",
    "IncidentName": "Violet",
    "IRWINID": null,
    "CreateName": "TRAINEE, GISS",
    "CreateDate": "2026-08-03T03:45:00-06:00",
    "DeleteThis": "No",
    "Comments": "5 NM radius, surface to 8500 ft MSL. Exercise only \u2014 no real TFR exists. Wider than the AOI, which is why air ops needs a wider extent than ops.",
    "GISAcres": 66481.8,
    "PolygonDateTime": null
   },
   "geometry": {
    "type": "Polygon",
    "coordinates": [
     [
      [
       -103.264582,
       43.983305
      ],
      [
       -103.264809,
       43.990575
      ],
      [
       -103.265914,
       43.997802
      ],
      [
       -103.267887,
       44.004933
      ],
      [
       -103.270714,
       44.011912
      ],
      [
       -103.274374,
       44.018687
      ],
      [
       -103.27884,
       44.025206
      ],
      [
       -103.284076,
       44.031419
      ],
      [
       -103.290045,
       44.037279
      ],
      [
       -103.2967,
       44.04274
      ],
      [
       -103.30399,
       44.047763
      ],
      [
       -103.311861,
       44.052307
      ],
      [
       -103.320253,
       44.056338
      ],
      [
       -103.3291,
       44.059827
      ],
      [
       -103.338337,
       44.062745
      ],
      [
       -103.347892,
       44.06507
      ],
      [
       -103.357692,
       44.066786
      ],
      [
       -103.367663,
       44.067878
      ],
      [
       -103.377728,
       44.068339
      ],
      [
       -103.387811,
       44.068164
      ],
      [
       -103.397834,
       44.067356
      ],
      [
       -103.40772,
       44.06592
      ],
      [
       -103.417395,
       44.063867
      ],
      [
       -103.426784,
       44.061214
      ],
      [
       -103.435816,
       44.057979
      ],
      [
       -103.444421,
       44.054189
      ],
      [
       -103.452535,
       44.049872
      ],
      [
       -103.460094,
       44.04506
      ],
      [
       -103.467043,
       44.039791
      ],
      [
       -103.473326,
       44.034105
      ],
      [
       -103.478898,
       44.028045
      ],
      [
       -103.483716,
       44.021658
      ],
      [
       -103.487743,
       44.014992
      ],
      [
       -103.490948,
       44.008098
      ],
      [
       -103.493308,
       44.001028
      ],
      [
       -103.494805,
       43.993837
      ],
      [
       -103.495428,
       43.986579
      ],
      [
       -103.495172,
       43.979309
      ],
      [
       -103.49404,
       43.972083
      ],
      [
       -103.492041,
       43.964956
      ],
      [
       -103.48919,
       43.957981
      ],
      [
       -103.485508,
       43.951213
      ],
      [
       -103.481026,
       43.944702
      ],
      [
       -103.475775,
       43.938498
      ],
      [
       -103.469798,
       43.932648
      ],
      [
       -103.463139,
       43.927196
      ],
      [
       -103.455849,
       43.922184
      ],
      [
       -103.447984,
       43.917649
      ],
      [
       -103.439603,
       43.913627
      ],
      [
       -103.43077,
       43.910148
      ],
      [
       -103.421552,
       43.907238
      ],
      [
       -103.412019,
       43.904918
      ],
      [
       -103.402244,
       43.903208
      ],
      [
       -103.392299,
       43.902119
      ],
      [
       -103.382262,
       43.90166
      ],
      [
       -103.372208,
       43.901834
      ],
      [
       -103.362212,
       43.902641
      ],
      [
       -103.352352,
       43.904073
      ],
      [
       -103.342701,
       43.906121
      ],
      [
       -103.333333,
       43.908768
      ],
      [
       -103.324319,
       43.911995
      ],
      [
       -103.315727,
       43.915776
      ],
      [
       -103.307622,
       43.920084
      ],
      [
       -103.300067,
       43.924886
      ],
      [
       -103.293118,
       43.930145
      ],
      [
       -103.286829,
       43.935821
      ],
      [
       -103.281246,
       43.941871
      ],
      [
       -103.276414,
       43.94825
      ],
      [
       -103.272369,
       43.954908
      ],
      [
       -103.269141,
       43.961796
      ],
      [
       -103.266756,
       43.968861
      ],
      [
       -103.265232,
       43.976048
      ],
      [
       -103.264582,
       43.983305
      ]
     ]
    ]
   }
  },
  {
   "type": "Feature",
   "properties": {
    "FeatureCategory": "Aerial Hazard Area",
    "Label": "Powerline Corridor",
    "IsVisible": "Yes",
    "MapMethod": "Digitized-Other",
    "GeometryID": "VI-PY-0005",
    "IncidentName": "Violet",
    "IRWINID": null,
    "CreateName": "TRAINEE, GISS",
    "CreateDate": "2026-08-03T03:45:00-06:00",
    "DeleteThis": "No",
    "Comments": "Distribution line. No low-level flight.",
    "GISAcres": 2054.6,
    "PolygonDateTime": null
   },
   "geometry": {
    "type": "Polygon",
    "coordinates": [
     [
      [
       -103.366489,
       44.0463
      ],
      [
       -103.351333,
       44.026933
      ],
      [
       -103.333592,
       44.009966
      ],
      [
       -103.311555,
       43.996112
      ],
      [
       -103.286223,
       43.984102
      ],
      [
       -103.286223,
       43.984102
      ],
      [
       -103.285238,
       43.983487
      ],
      [
       -103.284506,
       43.98271
      ],
      [
       -103.284079,
       43.981822
      ],
      [
       -103.283984,
       43.980884
      ],
      [
       -103.284228,
       43.979961
      ],
      [
       -103.284795,
       43.979115
      ],
      [
       -103.285646,
       43.978404
      ],
      [
       -103.286723,
       43.977876
      ],
      [
       -103.287953,
       43.977567
      ],
      [
       -103.289251,
       43.977498
      ],
      [
       -103.290529,
       43.977675
      ],
      [
       -103.291701,
       43.978084
      ],
      [
       -103.291701,
       43.978084
      ],
      [
       -103.317581,
       43.990373
      ],
      [
       -103.340892,
       44.005058
      ],
      [
       -103.359683,
       44.022988
      ],
      [
       -103.375181,
       44.042756
      ],
      [
       -103.375181,
       44.042756
      ],
      [
       -103.375668,
       44.043628
      ],
      [
       -103.375827,
       44.044561
      ],
      [
       -103.375645,
       44.045492
      ],
      [
       -103.375135,
       44.046357
      ],
      [
       -103.374332,
       44.047097
      ],
      [
       -103.373291,
       44.047663
      ],
      [
       -103.372083,
       44.048014
      ],
      [
       -103.370789,
       44.048128
      ],
      [
       -103.369499,
       44.047997
      ],
      [
       -103.3683,
       44.04763
      ],
      [
       -103.367273,
       44.047051
      ],
      [
       -103.366489,
       44.0463
      ],
      [
       -103.366489,
       44.0463
      ]
     ]
    ]
   }
  },
  {
   "type": "Feature",
   "properties": {
    "FeatureCategory": "Retardant Avoidance Area",
    "Label": "Spring Creek",
    "IsVisible": "Yes",
    "MapMethod": "Digitized-Other",
    "GeometryID": "VI-PY-0006",
    "IncidentName": "Violet",
    "IRWINID": null,
    "CreateName": "TRAINEE, GISS",
    "CreateDate": "2026-08-03T03:45:00-06:00",
    "DeleteThis": "No",
    "Comments": "300 m each side of the creek. Exercise buffer.",
    "GISAcres": 900.0,
    "PolygonDateTime": null
   },
   "geometry": {
    "type": "Polygon",
    "coordinates": [
     [
      [
       -103.300092,
       43.964772
      ],
      [
       -103.314672,
       43.966699
      ],
      [
       -103.328001,
       43.96975
      ],
      [
       -103.341633,
       43.974134
      ],
      [
       -103.353843,
       43.979651
      ],
      [
       -103.364344,
       43.986146
      ],
      [
       -103.364344,
       43.986146
      ],
      [
       -103.364996,
       43.986671
      ],
      [
       -103.365437,
       43.9873
      ],
      [
       -103.365638,
       43.98799
      ],
      [
       -103.365585,
       43.988694
      ],
      [
       -103.365281,
       43.989364
      ],
      [
       -103.364748,
       43.989954
      ],
      [
       -103.364021,
       43.990425
      ],
      [
       -103.36315,
       43.990744
      ],
      [
       -103.362194,
       43.990889
      ],
      [
       -103.361219,
       43.99085
      ],
      [
       -103.360291,
       43.990631
      ],
      [
       -103.359473,
       43.990246
      ],
      [
       -103.359473,
       43.990246
      ],
      [
       -103.349417,
       43.984005
      ],
      [
       -103.338131,
       43.978906
      ],
      [
       -103.325333,
       43.974796
      ],
      [
       -103.312884,
       43.971943
      ],
      [
       -103.29875,
       43.970086
      ],
      [
       -103.29875,
       43.970086
      ],
      [
       -103.29782,
       43.969869
      ],
      [
       -103.297,
       43.969487
      ],
      [
       -103.296345,
       43.968964
      ],
      [
       -103.2959,
       43.968337
      ],
      [
       -103.295694,
       43.967648
      ],
      [
       -103.295743,
       43.966944
      ],
      [
       -103.296042,
       43.966273
      ],
      [
       -103.296571,
       43.965681
      ],
      [
       -103.297295,
       43.965208
      ],
      [
       -103.298163,
       43.964886
      ],
      [
       -103.299118,
       43.964737
      ],
      [
       -103.300092,
       43.964772
      ],
      [
       -103.300092,
       43.964772
      ]
     ]
    ]
   }
  },
  {
   "type": "Feature",
   "properties": {
    "FeatureCategory": "Closure Area",
    "Label": "Violet Closure",
    "IsVisible": "Yes",
    "MapMethod": "Digitized-Other",
    "GeometryID": "VI-PY-0007",
    "IncidentName": "Violet",
    "IRWINID": null,
    "CreateName": "TRAINEE, GISS",
    "CreateDate": "2026-08-03T03:45:00-06:00",
    "DeleteThis": "No",
    "Comments": "Public closure. Roads and trails inside are closed.",
    "GISAcres": 30772.4,
    "PolygonDateTime": null
   },
   "geometry": {
    "type": "Polygon",
    "coordinates": [
     [
      [
       -103.301475,
       43.983859
      ],
      [
       -103.301632,
       43.988805
      ],
      [
       -103.302387,
       43.993723
      ],
      [
       -103.303732,
       43.998573
      ],
      [
       -103.305658,
       44.003321
      ],
      [
       -103.308151,
       44.00793
      ],
      [
       -103.311191,
       44.012364
      ],
      [
       -103.314755,
       44.01659
      ],
      [
       -103.318816,
       44.020576
      ],
      [
       -103.323345,
       44.02429
      ],
      [
       -103.328305,
       44.027706
      ],
      [
       -103.333659,
       44.030797
      ],
      [
       -103.339367,
       44.033539
      ],
      [
       -103.345385,
       44.035911
      ],
      [
       -103.351667,
       44.037895
      ],
      [
       -103.358165,
       44.039477
      ],
      [
       -103.36483,
       44.040643
      ],
      [
       -103.371611,
       44.041386
      ],
      [
       -103.378455,
       44.041699
      ],
      [
       -103.385312,
       44.041581
      ],
      [
       -103.392128,
       44.041031
      ],
      [
       -103.398851,
       44.040054
      ],
      [
       -103.405431,
       44.038658
      ],
      [
       -103.411817,
       44.036854
      ],
      [
       -103.417959,
       44.034654
      ],
      [
       -103.423813,
       44.032076
      ],
      [
       -103.429332,
       44.02914
      ],
      [
       -103.434474,
       44.025868
      ],
      [
       -103.439202,
       44.022284
      ],
      [
       -103.443477,
       44.018417
      ],
      [
       -103.447269,
       44.014295
      ],
      [
       -103.450549,
       44.00995
      ],
      [
       -103.45329,
       44.005416
      ],
      [
       -103.455473,
       44.000726
      ],
      [
       -103.457082,
       43.995917
      ],
      [
       -103.458103,
       43.991025
      ],
      [
       -103.45853,
       43.986087
      ],
      [
       -103.458359,
       43.981141
      ],
      [
       -103.457592,
       43.976224
      ],
      [
       -103.456234,
       43.971375
      ],
      [
       -103.454297,
       43.96663
      ],
      [
       -103.451795,
       43.962024
      ],
      [
       -103.448747,
       43.957593
      ],
      [
       -103.445177,
       43.953372
      ],
      [
       -103.441111,
       43.94939
      ],
      [
       -103.436581,
       43.94568
      ],
      [
       -103.431621,
       43.942269
      ],
      [
       -103.426269,
       43.939183
      ],
      [
       -103.420566,
       43.936446
      ],
      [
       -103.414555,
       43.934078
      ],
      [
       -103.408282,
       43.932097
      ],
      [
       -103.401794,
       43.930518
      ],
      [
       -103.39514,
       43.929354
      ],
      [
       -103.388372,
       43.928613
      ],
      [
       -103.38154,
       43.9283
      ],
      [
       -103.374697,
       43.928419
      ],
      [
       -103.367893,
       43.928968
      ],
      [
       -103.361182,
       43.929943
      ],
      [
       -103.354614,
       43.931336
      ],
      [
       -103.348238,
       43.933138
      ],
      [
       -103.342103,
       43.935334
      ],
      [
       -103.336256,
       43.937908
      ],
      [
       -103.330741,
       43.94084
      ],
      [
       -103.3256,
       43.944107
      ],
      [
       -103.320873,
       43.947686
      ],
      [
       -103.316594,
       43.951549
      ],
      [
       -103.312798,
       43.955666
      ],
      [
       -103.309512,
       43.960007
      ],
      [
       -103.306761,
       43.964538
      ],
      [
       -103.304568,
       43.969225
      ],
      [
       -103.302948,
       43.974032
      ],
      [
       -103.301914,
       43.978922
      ],
      [
       -103.301475,
       43.983859
      ]
     ]
    ]
   }
  },
  {
   "type": "Feature",
   "properties": {
    "FeatureCategory": "Safety Zone",
    "Label": "SZ-1 Area",
    "IsVisible": "Yes",
    "MapMethod": "GPS-Walked",
    "GeometryID": "VI-PY-0008",
    "IncidentName": "Violet",
    "IRWINID": null,
    "CreateName": "TRAINEE, GISS",
    "CreateDate": "2026-08-03T03:45:00-06:00",
    "DeleteThis": "No",
    "Comments": "Meadow. Measured, not eyeballed.",
    "GISAcres": 13.1,
    "PolygonDateTime": null
   },
   "geometry": {
    "type": "Polygon",
    "coordinates": [
     [
      [
       -103.351564,
       43.974864
      ],
      [
       -103.351567,
       43.974966
      ],
      [
       -103.351583,
       43.975067
      ],
      [
       -103.351611,
       43.975167
      ],
      [
       -103.351651,
       43.975265
      ],
      [
       -103.351702,
       43.97536
      ],
      [
       -103.351765,
       43.975452
      ],
      [
       -103.351838,
       43.975539
      ],
      [
       -103.351922,
       43.975621
      ],
      [
       -103.352016,
       43.975698
      ],
      [
       -103.352118,
       43.975768
      ],
      [
       -103.352228,
       43.975832
      ],
      [
       -103.352346,
       43.975889
      ],
      [
       -103.35247,
       43.975937
      ],
      [
       -103.352599,
       43.975978
      ],
      [
       -103.352733,
       43.976011
      ],
      [
       -103.352871,
       43.976035
      ],
      [
       -103.353011,
       43.97605
      ],
      [
       -103.353152,
       43.976057
      ],
      [
       -103.353293,
       43.976055
      ],
      [
       -103.353433,
       43.976043
      ],
      [
       -103.353572,
       43.976023
      ],
      [
       -103.353708,
       43.975994
      ],
      [
       -103.353839,
       43.975957
      ],
      [
       -103.353966,
       43.975912
      ],
      [
       -103.354087,
       43.975859
      ],
      [
       -103.354201,
       43.975798
      ],
      [
       -103.354307,
       43.975731
      ],
      [
       -103.354404,
       43.975657
      ],
      [
       -103.354493,
       43.975577
      ],
      [
       -103.354571,
       43.975492
      ],
      [
       -103.354639,
       43.975403
      ],
      [
       -103.354695,
       43.975309
      ],
      [
       -103.354741,
       43.975212
      ],
      [
       -103.354774,
       43.975113
      ],
      [
       -103.354795,
       43.975012
      ],
      [
       -103.354804,
       43.97491
      ],
      [
       -103.354801,
       43.974808
      ],
      [
       -103.354785,
       43.974707
      ],
      [
       -103.354757,
       43.974607
      ],
      [
       -103.354717,
       43.974509
      ],
      [
       -103.354666,
       43.974414
      ],
      [
       -103.354603,
       43.974322
      ],
      [
       -103.35453,
       43.974235
      ],
      [
       -103.354446,
       43.974153
      ],
      [
       -103.354352,
       43.974076
      ],
      [
       -103.35425,
       43.974006
      ],
      [
       -103.35414,
       43.973942
      ],
      [
       -103.354022,
       43.973885
      ],
      [
       -103.353898,
       43.973837
      ],
      [
       -103.353768,
       43.973796
      ],
      [
       -103.353635,
       43.973763
      ],
      [
       -103.353497,
       43.973739
      ],
      [
       -103.353357,
       43.973724
      ],
      [
       -103.353216,
       43.973717
      ],
      [
       -103.353075,
       43.973719
      ],
      [
       -103.352935,
       43.973731
      ],
      [
       -103.352796,
       43.973751
      ],
      [
       -103.35266,
       43.97378
      ],
      [
       -103.352529,
       43.973817
      ],
      [
       -103.352402,
       43.973862
      ],
      [
       -103.352281,
       43.973915
      ],
      [
       -103.352167,
       43.973976
      ],
      [
       -103.352061,
       43.974043
      ],
      [
       -103.351964,
       43.974117
      ],
      [
       -103.351875,
       43.974197
      ],
      [
       -103.351797,
       43.974282
      ],
      [
       -103.351729,
       43.974371
      ],
      [
       -103.351673,
       43.974465
      ],
      [
       -103.351627,
       43.974562
      ],
      [
       -103.351594,
       43.974661
      ],
      [
       -103.351573,
       43.974762
      ],
      [
       -103.351564,
       43.974864
      ]
     ]
    ]
   }
  },
  {
   "type": "Feature",
   "properties": {
    "FeatureCategory": "Structure Group",
    "Label": "Training Grounds Structures",
    "IsVisible": "Yes",
    "MapMethod": "GPS-Walked",
    "GeometryID": "VI-PY-0009",
    "IncidentName": "Violet",
    "IRWINID": null,
    "CreateName": "TRAINEE, GISS",
    "CreateDate": "2026-08-03T03:45:00-06:00",
    "DeleteThis": "No",
    "Comments": "Lodge, dining hall, cabin row, tank. Structure protection group assigned.",
    "GISAcres": 95.0,
    "PolygonDateTime": null
   },
   "geometry": {
    "type": "Polygon",
    "coordinates": [
     [
      [
       -103.333565,
       43.971435
      ],
      [
       -103.333574,
       43.97171
      ],
      [
       -103.333616,
       43.971983
      ],
      [
       -103.333691,
       43.972253
      ],
      [
       -103.333798,
       43.972517
      ],
      [
       -103.333937,
       43.972773
      ],
      [
       -103.334106,
       43.973019
      ],
      [
       -103.334304,
       43.973254
      ],
      [
       -103.334529,
       43.973475
      ],
      [
       -103.334781,
       43.973681
      ],
      [
       -103.335056,
       43.973871
      ],
      [
       -103.335353,
       43.974043
      ],
      [
       -103.33567,
       43.974195
      ],
      [
       -103.336004,
       43.974327
      ],
      [
       -103.336353,
       43.974437
      ],
      [
       -103.336713,
       43.974525
      ],
      [
       -103.337083,
       43.97459
      ],
      [
       -103.337459,
       43.974631
      ],
      [
       -103.337839,
       43.974649
      ],
      [
       -103.33822,
       43.974642
      ],
      [
       -103.338598,
       43.974612
      ],
      [
       -103.338971,
       43.974558
      ],
      [
       -103.339336,
       43.974481
      ],
      [
       -103.339691,
       43.974381
      ],
      [
       -103.340032,
       43.974259
      ],
      [
       -103.340357,
       43.974116
      ],
      [
       -103.340663,
       43.973953
      ],
      [
       -103.340949,
       43.973771
      ],
      [
       -103.341212,
       43.973572
      ],
      [
       -103.34145,
       43.973358
      ],
      [
       -103.34166,
       43.973129
      ],
      [
       -103.341843,
       43.972888
      ],
      [
       -103.341996,
       43.972636
      ],
      [
       -103.342117,
       43.972375
      ],
      [
       -103.342207,
       43.972108
      ],
      [
       -103.342264,
       43.971837
      ],
      [
       -103.342289,
       43.971562
      ],
      [
       -103.34228,
       43.971288
      ],
      [
       -103.342238,
       43.971014
      ],
      [
       -103.342163,
       43.970745
      ],
      [
       -103.342056,
       43.970481
      ],
      [
       -103.341917,
       43.970225
      ],
      [
       -103.341748,
       43.969979
      ],
      [
       -103.34155,
       43.969744
      ],
      [
       -103.341325,
       43.969523
      ],
      [
       -103.341073,
       43.969317
      ],
      [
       -103.340798,
       43.969127
      ],
      [
       -103.340501,
       43.968955
      ],
      [
       -103.340184,
       43.968803
      ],
      [
       -103.33985,
       43.968671
      ],
      [
       -103.339501,
       43.968561
      ],
      [
       -103.339141,
       43.968473
      ],
      [
       -103.338771,
       43.968408
      ],
      [
       -103.338395,
       43.968367
      ],
      [
       -103.338015,
       43.968349
      ],
      [
       -103.337634,
       43.968356
      ],
      [
       -103.337256,
       43.968386
      ],
      [
       -103.336883,
       43.96844
      ],
      [
       -103.336518,
       43.968517
      ],
      [
       -103.336163,
       43.968617
      ],
      [
       -103.335822,
       43.968739
      ],
      [
       -103.335497,
       43.968882
      ],
      [
       -103.335191,
       43.969045
      ],
      [
       -103.334905,
       43.969227
      ],
      [
       -103.334642,
       43.969426
      ],
      [
       -103.334405,
       43.96964
      ],
      [
       -103.334194,
       43.969869
      ],
      [
       -103.334011,
       43.97011
      ],
      [
       -103.333859,
       43.970362
      ],
      [
       -103.333737,
       43.970622
      ],
      [
       -103.333647,
       43.970889
      ],
      [
       -103.33359,
       43.971161
      ],
      [
       -103.333565,
       43.971435
      ]
     ]
    ]
   }
  },
  {
   "type": "Feature",
   "properties": {
    "FeatureCategory": "Management Action Point Area",
    "Label": "MAP 1 \u2014 Access Road",
    "IsVisible": "Yes",
    "MapMethod": "Digitized-Topo",
    "GeometryID": "VI-PY-0010",
    "IncidentName": "Violet",
    "IRWINID": null,
    "CreateName": "TRAINEE, GISS",
    "CreateDate": "2026-08-03T03:45:00-06:00",
    "DeleteThis": "No",
    "Comments": "Trigger: fire crosses the drainage west of DP 3 \u2014 evacuate the training grounds.",
    "GISAcres": 193.8,
    "PolygonDateTime": null
   },
   "geometry": {
    "type": "Polygon",
    "coordinates": [
     [
      [
       -103.323459,
       43.966938
      ],
      [
       -103.323471,
       43.96733
      ],
      [
       -103.323531,
       43.967721
      ],
      [
       -103.323638,
       43.968105
      ],
      [
       -103.323791,
       43.968482
      ],
      [
       -103.323989,
       43.968848
      ],
      [
       -103.32423,
       43.9692
      ],
      [
       -103.324513,
       43.969535
      ],
      [
       -103.324835,
       43.969852
      ],
      [
       -103.325194,
       43.970146
      ],
      [
       -103.325587,
       43.970417
      ],
      [
       -103.326012,
       43.970663
      ],
      [
       -103.326464,
       43.97088
      ],
      [
       -103.326941,
       43.971069
      ],
      [
       -103.327439,
       43.971226
      ],
      [
       -103.327955,
       43.971352
      ],
      [
       -103.328483,
       43.971445
      ],
      [
       -103.32902,
       43.971504
      ],
      [
       -103.329563,
       43.971529
      ],
      [
       -103.330106,
       43.97152
      ],
      [
       -103.330647,
       43.971476
      ],
      [
       -103.33118,
       43.971399
      ],
      [
       -103.331702,
       43.971289
      ],
      [
       -103.332208,
       43.971146
      ],
      [
       -103.332695,
       43.970972
      ],
      [
       -103.333159,
       43.970767
      ],
      [
       -103.333597,
       43.970535
      ],
      [
       -103.334006,
       43.970275
      ],
      [
       -103.334381,
       43.969991
      ],
      [
       -103.33472,
       43.969685
      ],
      [
       -103.335022,
       43.969358
      ],
      [
       -103.335282,
       43.969013
      ],
      [
       -103.335501,
       43.968654
      ],
      [
       -103.335675,
       43.968281
      ],
      [
       -103.335803,
       43.9679
      ],
      [
       -103.335885,
       43.967512
      ],
      [
       -103.335919,
       43.96712
      ],
      [
       -103.335907,
       43.966727
      ],
      [
       -103.335847,
       43.966337
      ],
      [
       -103.33574,
       43.965952
      ],
      [
       -103.335587,
       43.965575
      ],
      [
       -103.335389,
       43.96521
      ],
      [
       -103.335147,
       43.964858
      ],
      [
       -103.334865,
       43.964522
      ],
      [
       -103.334543,
       43.964206
      ],
      [
       -103.334183,
       43.963911
      ],
      [
       -103.33379,
       43.96364
      ],
      [
       -103.333366,
       43.963395
      ],
      [
       -103.332913,
       43.963178
      ],
      [
       -103.332436,
       43.962989
      ],
      [
       -103.331938,
       43.962832
      ],
      [
       -103.331423,
       43.962706
      ],
      [
       -103.330895,
       43.962613
      ],
      [
       -103.330358,
       43.962554
      ],
      [
       -103.329815,
       43.962529
      ],
      [
       -103.329272,
       43.962538
      ],
      [
       -103.328731,
       43.962582
      ],
      [
       -103.328198,
       43.962659
      ],
      [
       -103.327677,
       43.962769
      ],
      [
       -103.32717,
       43.962912
      ],
      [
       -103.326683,
       43.963086
      ],
      [
       -103.326219,
       43.963291
      ],
      [
       -103.325781,
       43.963523
      ],
      [
       -103.325373,
       43.963783
      ],
      [
       -103.324998,
       43.964067
      ],
      [
       -103.324658,
       43.964373
      ],
      [
       -103.324357,
       43.9647
      ],
      [
       -103.324096,
       43.965045
      ],
      [
       -103.323878,
       43.965404
      ],
      [
       -103.323704,
       43.965776
      ],
      [
       -103.323575,
       43.966158
      ],
      [
       -103.323493,
       43.966546
      ],
      [
       -103.323459,
       43.966938
      ]
     ]
    ]
   }
  },
  {
   "type": "Feature",
   "properties": {
    "FeatureCategory": "Evacuation Area",
    "Label": "Zone A \u2014 GO",
    "IsVisible": "Yes",
    "MapMethod": "Digitized-Other",
    "GeometryID": "VI-PY-0011",
    "IncidentName": "Violet",
    "IRWINID": null,
    "CreateName": "TRAINEE, GISS",
    "CreateDate": "2026-08-03T03:45:00-06:00",
    "DeleteThis": "No",
    "Comments": "Immediate evacuation. Structures inside the Management Action Point trigger.",
    "GISAcres": 1744.5,
    "PolygonDateTime": null
   },
   "geometry": {
    "type": "Polygon",
    "coordinates": [
     [
      [
       -103.327224,
       43.97955
      ],
      [
       -103.327262,
       43.980727
      ],
      [
       -103.327442,
       43.981898
      ],
      [
       -103.327763,
       43.983053
      ],
      [
       -103.328222,
       43.984183
      ],
      [
       -103.328815,
       43.985281
      ],
      [
       -103.329539,
       43.986336
      ],
      [
       -103.330388,
       43.987342
      ],
      [
       -103.331355,
       43.988291
      ],
      [
       -103.332432,
       43.989175
      ],
      [
       -103.333613,
       43.989989
      ],
      [
       -103.334887,
       43.990724
      ],
      [
       -103.336245,
       43.991377
      ],
      [
       -103.337677,
       43.991942
      ],
      [
       -103.339171,
       43.992415
      ],
      [
       -103.340717,
       43.992791
      ],
      [
       -103.342303,
       43.993069
      ],
      [
       -103.343916,
       43.993247
      ],
      [
       -103.345544,
       43.993322
      ],
      [
       -103.347175,
       43.993294
      ],
      [
       -103.348797,
       43.993164
      ],
      [
       -103.350396,
       43.992932
      ],
      [
       -103.351962,
       43.9926
      ],
      [
       -103.353482,
       43.992171
      ],
      [
       -103.354944,
       43.991648
      ],
      [
       -103.356337,
       43.991035
      ],
      [
       -103.357651,
       43.990337
      ],
      [
       -103.358875,
       43.989558
      ],
      [
       -103.360001,
       43.988706
      ],
      [
       -103.36102,
       43.987786
      ],
      [
       -103.361924,
       43.986805
      ],
      [
       -103.362706,
       43.985771
      ],
      [
       -103.36336,
       43.984692
      ],
      [
       -103.363881,
       43.983576
      ],
      [
       -103.364266,
       43.982431
      ],
      [
       -103.364511,
       43.981267
      ],
      [
       -103.364614,
       43.980091
      ],
      [
       -103.364575,
       43.978914
      ],
      [
       -103.364395,
       43.977743
      ],
      [
       -103.364073,
       43.976588
      ],
      [
       -103.363614,
       43.975458
      ],
      [
       -103.363019,
       43.974361
      ],
      [
       -103.362295,
       43.973305
      ],
      [
       -103.361446,
       43.9723
      ],
      [
       -103.360479,
       43.971351
      ],
      [
       -103.359401,
       43.970467
      ],
      [
       -103.358221,
       43.969654
      ],
      [
       -103.356947,
       43.968918
      ],
      [
       -103.355589,
       43.968266
      ],
      [
       -103.354158,
       43.967701
      ],
      [
       -103.352664,
       43.967229
      ],
      [
       -103.351119,
       43.966852
      ],
      [
       -103.349534,
       43.966574
      ],
      [
       -103.347921,
       43.966397
      ],
      [
       -103.346294,
       43.966322
      ],
      [
       -103.344663,
       43.96635
      ],
      [
       -103.343042,
       43.96648
      ],
      [
       -103.341443,
       43.966712
      ],
      [
       -103.339878,
       43.967044
      ],
      [
       -103.338359,
       43.967472
      ],
      [
       -103.336898,
       43.967995
      ],
      [
       -103.335505,
       43.968608
      ],
      [
       -103.334191,
       43.969306
      ],
      [
       -103.332967,
       43.970084
      ],
      [
       -103.331841,
       43.970936
      ],
      [
       -103.330822,
       43.971856
      ],
      [
       -103.329918,
       43.972837
      ],
      [
       -103.329136,
       43.97387
      ],
      [
       -103.328481,
       43.974949
      ],
      [
       -103.327959,
       43.976065
      ],
      [
       -103.327574,
       43.97721
      ],
      [
       -103.327328,
       43.978374
      ],
      [
       -103.327224,
       43.97955
      ]
     ]
    ]
   }
  },
  {
   "type": "Feature",
   "properties": {
    "FeatureCategory": "Evacuation Area",
    "Label": "Zone B \u2014 SET",
    "IsVisible": "Yes",
    "MapMethod": "Digitized-Other",
    "GeometryID": "VI-PY-0012",
    "IncidentName": "Violet",
    "IRWINID": null,
    "CreateName": "TRAINEE, GISS",
    "CreateDate": "2026-08-03T03:45:00-06:00",
    "DeleteThis": "No",
    "Comments": "Be ready. Sheriff will upgrade if the fire crosses the drainage.",
    "GISAcres": 3752.5,
    "PolygonDateTime": null
   },
   "geometry": {
    "type": "Polygon",
    "coordinates": [
     [
      [
       -103.280827,
       43.96066
      ],
      [
       -103.280881,
       43.962387
      ],
      [
       -103.281144,
       43.964104
      ],
      [
       -103.281613,
       43.965798
      ],
      [
       -103.282285,
       43.967456
      ],
      [
       -103.283154,
       43.969066
      ],
      [
       -103.284214,
       43.970614
      ],
      [
       -103.285457,
       43.97209
      ],
      [
       -103.286874,
       43.973483
      ],
      [
       -103.288453,
       43.97478
      ],
      [
       -103.290183,
       43.975974
      ],
      [
       -103.29205,
       43.977053
      ],
      [
       -103.294041,
       43.978012
      ],
      [
       -103.29614,
       43.978841
      ],
      [
       -103.298331,
       43.979535
      ],
      [
       -103.300597,
       43.980088
      ],
      [
       -103.302922,
       43.980497
      ],
      [
       -103.305287,
       43.980757
      ],
      [
       -103.307675,
       43.980868
      ],
      [
       -103.310067,
       43.980828
      ],
      [
       -103.312445,
       43.980638
      ],
      [
       -103.314791,
       43.980298
      ],
      [
       -103.317087,
       43.979813
      ],
      [
       -103.319315,
       43.979184
      ],
      [
       -103.321459,
       43.978418
      ],
      [
       -103.323503,
       43.977519
      ],
      [
       -103.32543,
       43.976496
      ],
      [
       -103.327226,
       43.975355
      ],
      [
       -103.328878,
       43.974105
      ],
      [
       -103.330372,
       43.972756
      ],
      [
       -103.331698,
       43.971318
      ],
      [
       -103.332845,
       43.969802
      ],
      [
       -103.333805,
       43.968219
      ],
      [
       -103.33457,
       43.966583
      ],
      [
       -103.335135,
       43.964904
      ],
      [
       -103.335495,
       43.963196
      ],
      [
       -103.335648,
       43.961472
      ],
      [
       -103.335592,
       43.959744
      ],
      [
       -103.335327,
       43.958027
      ],
      [
       -103.334857,
       43.956334
      ],
      [
       -103.334184,
       43.954676
      ],
      [
       -103.333313,
       43.953067
      ],
      [
       -103.332252,
       43.951518
      ],
      [
       -103.331008,
       43.950043
      ],
      [
       -103.329591,
       43.948651
      ],
      [
       -103.328012,
       43.947354
      ],
      [
       -103.326282,
       43.946161
      ],
      [
       -103.324415,
       43.945082
      ],
      [
       -103.322425,
       43.944124
      ],
      [
       -103.320327,
       43.943296
      ],
      [
       -103.318137,
       43.942602
      ],
      [
       -103.315872,
       43.942049
      ],
      [
       -103.313548,
       43.941641
      ],
      [
       -103.311185,
       43.94138
      ],
      [
       -103.308799,
       43.94127
      ],
      [
       -103.306408,
       43.94131
      ],
      [
       -103.304032,
       43.9415
      ],
      [
       -103.301688,
       43.941839
      ],
      [
       -103.299393,
       43.942325
      ],
      [
       -103.297166,
       43.942953
      ],
      [
       -103.295022,
       43.943719
      ],
      [
       -103.29298,
       43.944617
      ],
      [
       -103.291053,
       43.94564
      ],
      [
       -103.289257,
       43.94678
      ],
      [
       -103.287605,
       43.94803
      ],
      [
       -103.28611,
       43.949378
      ],
      [
       -103.284784,
       43.950815
      ],
      [
       -103.283636,
       43.952331
      ],
      [
       -103.282675,
       43.953913
      ],
      [
       -103.281909,
       43.955549
      ],
      [
       -103.281342,
       43.957228
      ],
      [
       -103.280981,
       43.958936
      ],
      [
       -103.280827,
       43.96066
      ]
     ]
    ]
   }
  },
  {
   "type": "Feature",
   "properties": {
    "FeatureCategory": "Evacuation Area",
    "Label": "Zone C \u2014 READY",
    "IsVisible": "Yes",
    "MapMethod": "Digitized-Other",
    "GeometryID": "VI-PY-0013",
    "IncidentName": "Violet",
    "IRWINID": null,
    "CreateName": "TRAINEE, GISS",
    "CreateDate": "2026-08-03T03:45:00-06:00",
    "DeleteThis": "No",
    "Comments": "Stay informed.",
    "GISAcres": 5241.2,
    "PolygonDateTime": null
   },
   "geometry": {
    "type": "Polygon",
    "coordinates": [
     [
      [
       -103.242425,
       43.944887
      ],
      [
       -103.242489,
       43.946929
      ],
      [
       -103.242798,
       43.948958
      ],
      [
       -103.24335,
       43.95096
      ],
      [
       -103.244143,
       43.95292
      ],
      [
       -103.245169,
       43.954823
      ],
      [
       -103.24642,
       43.956653
      ],
      [
       -103.247888,
       43.958398
      ],
      [
       -103.24956,
       43.960044
      ],
      [
       -103.251425,
       43.961578
      ],
      [
       -103.253468,
       43.962989
      ],
      [
       -103.255674,
       43.964266
      ],
      [
       -103.258026,
       43.965399
      ],
      [
       -103.260505,
       43.96638
      ],
      [
       -103.263093,
       43.967201
      ],
      [
       -103.265771,
       43.967855
      ],
      [
       -103.268517,
       43.968339
      ],
      [
       -103.271312,
       43.968648
      ],
      [
       -103.274133,
       43.96878
      ],
      [
       -103.276959,
       43.968733
      ],
      [
       -103.279769,
       43.968509
      ],
      [
       -103.282541,
       43.968109
      ],
      [
       -103.285254,
       43.967535
      ],
      [
       -103.287888,
       43.966793
      ],
      [
       -103.290422,
       43.965888
      ],
      [
       -103.292837,
       43.964827
      ],
      [
       -103.295114,
       43.963618
      ],
      [
       -103.297237,
       43.96227
      ],
      [
       -103.29919,
       43.960794
      ],
      [
       -103.300956,
       43.9592
      ],
      [
       -103.302523,
       43.957501
      ],
      [
       -103.30388,
       43.955709
      ],
      [
       -103.305015,
       43.953839
      ],
      [
       -103.30592,
       43.951905
      ],
      [
       -103.306588,
       43.949921
      ],
      [
       -103.307014,
       43.947903
      ],
      [
       -103.307195,
       43.945865
      ],
      [
       -103.30713,
       43.943824
      ],
      [
       -103.306819,
       43.941795
      ],
      [
       -103.306264,
       43.939793
      ],
      [
       -103.30547,
       43.937834
      ],
      [
       -103.304442,
       43.935932
      ],
      [
       -103.303189,
       43.934102
      ],
      [
       -103.301721,
       43.932357
      ],
      [
       -103.300047,
       43.930712
      ],
      [
       -103.298182,
       43.929179
      ],
      [
       -103.296139,
       43.927769
      ],
      [
       -103.293934,
       43.926493
      ],
      [
       -103.291583,
       43.92536
      ],
      [
       -103.289105,
       43.92438
      ],
      [
       -103.286518,
       43.92356
      ],
      [
       -103.283842,
       43.922906
      ],
      [
       -103.281098,
       43.922422
      ],
      [
       -103.278305,
       43.922114
      ],
      [
       -103.275487,
       43.921982
      ],
      [
       -103.272662,
       43.922029
      ],
      [
       -103.269855,
       43.922253
      ],
      [
       -103.267085,
       43.922653
      ],
      [
       -103.264374,
       43.923226
      ],
      [
       -103.261742,
       43.923967
      ],
      [
       -103.259209,
       43.924872
      ],
      [
       -103.256795,
       43.925932
      ],
      [
       -103.254518,
       43.92714
      ],
      [
       -103.252395,
       43.928488
      ],
      [
       -103.250443,
       43.929963
      ],
      [
       -103.248676,
       43.931557
      ],
      [
       -103.247108,
       43.933255
      ],
      [
       -103.24575,
       43.935045
      ],
      [
       -103.244614,
       43.936915
      ],
      [
       -103.243707,
       43.938848
      ],
      [
       -103.243037,
       43.940832
      ],
      [
       -103.242609,
       43.94285
      ],
      [
       -103.242425,
       43.944887
      ]
     ]
    ]
   }
  },
  {
   "type": "Feature",
   "properties": {
    "FeatureCategory": "Repair Area",
    "Label": "Div Z Dozer Repair",
    "IsVisible": "Yes",
    "MapMethod": "GPS-Walked",
    "GeometryID": "VI-PY-0014",
    "IncidentName": "Violet",
    "IRWINID": null,
    "CreateName": "TRAINEE, GISS",
    "CreateDate": "2026-08-03T03:45:00-06:00",
    "DeleteThis": "No",
    "Comments": "Waterbar, pull berm back, scatter slash. Two blades wide.",
    "GISAcres": 171.3,
    "PolygonDateTime": null
   },
   "geometry": {
    "type": "Polygon",
    "coordinates": [
     [
      [
       -103.401348,
       44.001871
      ],
      [
       -103.411721,
       43.993663
      ],
      [
       -103.414094,
       43.98294
      ],
      [
       -103.411656,
       43.972912
      ],
      [
       -103.398623,
       43.969754
      ],
      [
       -103.384857,
       43.968258
      ],
      [
       -103.384857,
       43.968258
      ],
      [
       -103.38467,
       43.968219
      ],
      [
       -103.384503,
       43.968146
      ],
      [
       -103.384367,
       43.968045
      ],
      [
       -103.384273,
       43.967921
      ],
      [
       -103.384226,
       43.967784
      ],
      [
       -103.38423,
       43.967643
      ],
      [
       -103.384284,
       43.967508
      ],
      [
       -103.384384,
       43.967387
      ],
      [
       -103.384525,
       43.967289
      ],
      [
       -103.384696,
       43.967221
      ],
      [
       -103.384885,
       43.967187
      ],
      [
       -103.385081,
       43.96719
      ],
      [
       -103.385081,
       43.96719
      ],
      [
       -103.398981,
       43.968706
      ],
      [
       -103.412798,
       43.972214
      ],
      [
       -103.41559,
       43.982934
      ],
      [
       -103.413067,
       43.994133
      ],
      [
       -103.402456,
       44.002597
      ],
      [
       -103.402456,
       44.002597
      ],
      [
       -103.402307,
       44.002688
      ],
      [
       -103.40213,
       44.002748
      ],
      [
       -103.401938,
       44.002773
      ],
      [
       -103.401743,
       44.002762
      ],
      [
       -103.401559,
       44.002714
      ],
      [
       -103.401399,
       44.002634
      ],
      [
       -103.401273,
       44.002526
      ],
      [
       -103.401189,
       44.002399
      ],
      [
       -103.401155,
       44.00226
      ],
      [
       -103.401171,
       44.002119
      ],
      [
       -103.401237,
       44.001987
      ],
      [
       -103.401348,
       44.001871
      ],
      [
       -103.401348,
       44.001871
      ]
     ]
    ]
   }
  },
  {
   "type": "Feature",
   "properties": {
    "FeatureCategory": "Repair Area",
    "Label": "Div Z Road Repair",
    "IsVisible": "Yes",
    "MapMethod": "GPS-Walked",
    "GeometryID": "VI-PY-0015",
    "IncidentName": "Violet",
    "IRWINID": null,
    "CreateName": "TRAINEE, GISS",
    "CreateDate": "2026-08-03T03:45:00-06:00",
    "DeleteThis": "No",
    "Comments": "Blade back to template, reinstall drainage.",
    "GISAcres": 43.7,
    "PolygonDateTime": null
   },
   "geometry": {
    "type": "Polygon",
    "coordinates": [
     [
      [
       -103.384958,
       43.968084
      ],
      [
       -103.371488,
       43.967874
      ],
      [
       -103.358343,
       43.968959
      ],
      [
       -103.358343,
       43.968959
      ],
      [
       -103.358212,
       43.968957
      ],
      [
       -103.358087,
       43.968931
      ],
      [
       -103.357976,
       43.968883
      ],
      [
       -103.357885,
       43.968815
      ],
      [
       -103.357822,
       43.968733
      ],
      [
       -103.357791,
       43.968642
      ],
      [
       -103.357793,
       43.968548
      ],
      [
       -103.357829,
       43.968457
      ],
      [
       -103.357896,
       43.968377
      ],
      [
       -103.357989,
       43.968312
      ],
      [
       -103.358103,
       43.968266
      ],
      [
       -103.358229,
       43.968243
      ],
      [
       -103.358229,
       43.968243
      ],
      [
       -103.371442,
       43.967154
      ],
      [
       -103.38498,
       43.967364
      ],
      [
       -103.38498,
       43.967364
      ],
      [
       -103.385108,
       43.967378
      ],
      [
       -103.385227,
       43.967416
      ],
      [
       -103.385329,
       43.967475
      ],
      [
       -103.385406,
       43.967551
      ],
      [
       -103.385453,
       43.967638
      ],
      [
       -103.385467,
       43.967732
      ],
      [
       -103.385448,
       43.967825
      ],
      [
       -103.385395,
       43.967911
      ],
      [
       -103.385314,
       43.967984
      ],
      [
       -103.385209,
       43.96804
      ],
      [
       -103.385088,
       43.968074
      ],
      [
       -103.384958,
       43.968084
      ],
      [
       -103.384958,
       43.968084
      ]
     ]
    ]
   }
  }
 ]
}
