{
 "type": "FeatureCollection",
 "name": "roads",
 "crs": {
  "type": "name",
  "properties": {
   "name": "urn:ogc:def:crs:OGC:1.3:CRS84"
  }
 },
 "_warning": "TRAINING EXERCISE \u2014 NOT AN ACTUAL INCIDENT. Fabricated data. Never publish, never sync to NIFS or NIFC AGOL.",
 "_fire": "Violet",
 "_generated_by": "scripts/make_fires.py",
 "features": [
  {
   "type": "Feature",
   "properties": {
    "NAME": "Storm Mountain Rd",
    "LINE_STATUS": ""
   },
   "geometry": {
    "type": "LineString",
    "coordinates": [
     [
      -103.28207,
      43.943204
     ],
     [
      -103.294869,
      43.949279
     ],
     [
      -103.309874,
      43.953763
     ],
     [
      -103.322352,
      43.958541
     ],
     [
      -103.330718,
      43.966287
     ],
     [
      -103.337111,
      43.972394
     ],
     [
      -103.336208,
      43.979171
     ]
    ]
   }
  },
  {
   "type": "Feature",
   "properties": {
    "NAME": "South Fork Rd",
    "LINE_STATUS": ""
   },
   "geometry": {
    "type": "LineString",
    "coordinates": [
     [
      -103.384969,
      43.967724
     ],
     [
      -103.371465,
      43.967514
     ],
     [
      -103.358286,
      43.968601
     ]
    ]
   }
  },
  {
   "type": "Feature",
   "properties": {
    "NAME": "FS 231",
    "LINE_STATUS": ""
   },
   "geometry": {
    "type": "LineString",
    "coordinates": [
     [
      -103.412394,
      43.993898
     ],
     [
      -103.414842,
      43.982937
     ],
     [
      -103.412227,
      43.972563
     ]
    ]
   }
  },
  {
   "type": "Feature",
   "properties": {
    "NAME": "US-16",
    "LINE_STATUS": ""
   },
   "geometry": {
    "type": "LineString",
    "coordinates": [
     [
      -103.255403,
      43.944076
     ],
     [
      -103.28207,
      43.943204
     ],
     [
      -103.313961,
      43.935496
     ]
    ]
   }
  }
 ]
}
