{
 "type": "FeatureCollection",
 "name": "trails",
 "crs": {
  "type": "name",
  "properties": {
   "name": "urn:ogc:def:crs:OGC:1.3:CRS84"
  }
 },
 "_warning": "TRAINING EXERCISE \u2014 NOT AN ACTUAL INCIDENT. Fabricated data. Never publish, never sync to NIFS or NIFC AGOL.",
 "_fire": "Violet",
 "_generated_by": "scripts/make_fires.py",
 "features": [
  {
   "type": "Feature",
   "properties": {
    "TRAIL_NAME": "Storm Mountain Loop",
    "TRAIL_NO": "9082",
    "LINE_STATUS": ""
   },
   "geometry": {
    "type": "LineString",
    "coordinates": [
     [
      -103.401902,
      44.002234
     ],
     [
      -103.387368,
      44.00659
     ],
     [
      -103.37006,
      44.00682
     ],
     [
      -103.355368,
      44.003632
     ],
     [
      -103.342999,
      43.997239
     ]
    ]
   }
  },
  {
   "type": "Feature",
   "properties": {
    "TRAIL_NAME": "Coon Hollow",
    "TRAIL_NO": "9083",
    "LINE_STATUS": ""
   },
   "geometry": {
    "type": "LineString",
    "coordinates": [
     [
      -103.345063,
      43.978143
     ],
     [
      -103.344699,
      43.971513
     ],
     [
      -103.333558,
      43.977254
     ],
     [
      -103.32739,
      43.985531
     ]
    ]
   }
  },
  {
   "type": "Feature",
   "properties": {
    "TRAIL_NAME": "Rockerville Flume",
    "TRAIL_NO": "9084",
    "LINE_STATUS": ""
   },
   "geometry": {
    "type": "LineString",
    "coordinates": [
     [
      -103.299421,
      43.967429
     ],
     [
      -103.313778,
      43.969321
     ],
     [
      -103.326667,
      43.972273
     ],
     [
      -103.339882,
      43.97652
     ]
    ]
   }
  },
  {
   "type": "Feature",
   "properties": {
    "TRAIL_NAME": "Spring Creek Spur",
    "TRAIL_NO": "9085",
    "LINE_STATUS": ""
   },
   "geometry": {
    "type": "LineString",
    "coordinates": [
     [
      -103.305968,
      43.938205
     ],
     [
      -103.306542,
      43.930131
     ],
     [
      -103.307114,
      43.922058
     ]
    ]
   }
  },
  {
   "type": "Feature",
   "properties": {
    "TRAIL_NAME": "Old Mine Trail",
    "TRAIL_NO": "9086",
    "LINE_STATUS": "none"
   },
   "geometry": {
    "type": "LineString",
    "coordinates": [
     [
      -103.396843,
      43.989032
     ],
     [
      -103.38713,
      43.988381
     ],
     [
      -103.377417,
      43.98773
     ]
    ]
   }
  }
 ]
}
