{
 "type": "FeatureCollection",
 "name": "EventLine",
 "crs": {
  "type": "name",
  "properties": {
   "name": "urn:ogc:def:crs:OGC:1.3:CRS84"
  }
 },
 "_warning": "TRAINING EXERCISE \u2014 NOT AN ACTUAL INCIDENT. Fabricated data. Never publish, never sync to NIFS or NIFC AGOL.",
 "_fire": "Yellow",
 "_generated_by": "scripts/make_fires.py",
 "features": [
  {
   "type": "Feature",
   "properties": {
    "FeatureCategory": "Completed Dozer Line",
    "Label": "Div Z Dozer",
    "IsVisible": "Yes",
    "MapMethod": "GPS-Driven",
    "GeometryID": "YE-LN-0001",
    "IncidentName": "Yellow",
    "IRWINID": null,
    "CreateName": "TRAINEE, GISS",
    "CreateDate": "2026-07-30T04:05:00-06:00",
    "DeleteThis": "No",
    "Comments": "Completed 0730 op 2. Two blades.",
    "LengthMiles": 3.309
   },
   "geometry": {
    "type": "LineString",
    "coordinates": [
     [
      -103.301224,
      43.980072
     ],
     [
      -103.314938,
      43.982236
     ],
     [
      -103.327877,
      43.978692
     ],
     [
      -103.337905,
      43.972559
     ],
     [
      -103.335471,
      43.963501
     ],
     [
      -103.330881,
      43.955034
     ]
    ]
   }
  },
  {
   "type": "Feature",
   "properties": {
    "FeatureCategory": "Completed Hand Line",
    "Label": "Div A Hand",
    "IsVisible": "Yes",
    "MapMethod": "GPS-Walked",
    "GeometryID": "YE-LN-0002",
    "IncidentName": "Yellow",
    "IRWINID": null,
    "CreateName": "TRAINEE, GISS",
    "CreateDate": "2026-07-30T04:05:00-06:00",
    "DeleteThis": "No",
    "Comments": "Completed op 2. Type 1 crew.",
    "LengthMiles": 1.482
   },
   "geometry": {
    "type": "LineString",
    "coordinates": [
     [
      -103.301224,
      43.980072
     ],
     [
      -103.289996,
      43.973846
     ],
     [
      -103.281979,
      43.964206
     ]
    ]
   }
  },
  {
   "type": "Feature",
   "properties": {
    "FeatureCategory": "Completed Road as Line",
    "Label": "Div Z Road",
    "IsVisible": "Yes",
    "MapMethod": "GPS-Driven",
    "GeometryID": "YE-LN-0003",
    "IncidentName": "Yellow",
    "IRWINID": null,
    "CreateName": "TRAINEE, GISS",
    "CreateDate": "2026-07-30T04:05:00-06:00",
    "DeleteThis": "No",
    "Comments": "Existing road brushed and used as line.",
    "LengthMiles": 1.201
   },
   "geometry": {
    "type": "LineString",
    "coordinates": [
     [
      -103.330881,
      43.955034
     ],
     [
      -103.325038,
      43.947335
     ],
     [
      -103.317943,
      43.940403
     ]
    ]
   }
  },
  {
   "type": "Feature",
   "properties": {
    "FeatureCategory": "Proposed Dozer Line",
    "Label": "Div A Proposed Dozer",
    "IsVisible": "Yes",
    "MapMethod": "Digitized-Topo",
    "GeometryID": "YE-LN-0004",
    "IncidentName": "Yellow",
    "IRWINID": null,
    "CreateName": "TRAINEE, GISS",
    "CreateDate": "2026-07-30T04:05:00-06:00",
    "DeleteThis": "No",
    "Comments": "Op 3 objective. Tie DP 4 to the north contingency.",
    "LengthMiles": 1.834
   },
   "geometry": {
    "type": "LineString",
    "coordinates": [
     [
      -103.317943,
      43.940403
     ],
     [
      -103.308695,
      43.934062
     ],
     [
      -103.297495,
      43.930371
     ],
     [
      -103.285796,
      43.93062
     ]
    ]
   }
  },
  {
   "type": "Feature",
   "properties": {
    "FeatureCategory": "Proposed Hand Line",
    "Label": "North Contingency Hand",
    "IsVisible": "Yes",
    "MapMethod": "Digitized-Topo",
    "GeometryID": "YE-LN-0005",
    "IncidentName": "Yellow",
    "IRWINID": null,
    "CreateName": "TRAINEE, GISS",
    "CreateDate": "2026-07-30T04:05:00-06:00",
    "DeleteThis": "No",
    "Comments": "Contingency only. Do not construct without Ops approval.",
    "LengthMiles": 1.778
   },
   "geometry": {
    "type": "LineString",
    "coordinates": [
     [
      -103.285796,
      43.93062
     ],
     [
      -103.276126,
      43.935805
     ],
     [
      -103.270612,
      43.942808
     ],
     [
      -103.270157,
      43.951806
     ]
    ]
   }
  },
  {
   "type": "Feature",
   "properties": {
    "FeatureCategory": "Proposed Road as Line",
    "Label": "North Contingency Road",
    "IsVisible": "Yes",
    "MapMethod": "Digitized-Topo",
    "GeometryID": "YE-LN-0006",
    "IncidentName": "Yellow",
    "IRWINID": null,
    "CreateName": "TRAINEE, GISS",
    "CreateDate": "2026-07-30T04:05:00-06:00",
    "DeleteThis": "No",
    "Comments": "Contingency.",
    "LengthMiles": 1.505
   },
   "geometry": {
    "type": "LineString",
    "coordinates": [
     [
      -103.270157,
      43.951806
     ],
     [
      -103.272055,
      43.962273
     ],
     [
      -103.280069,
      43.971913
     ]
    ]
   }
  },
  {
   "type": "Feature",
   "properties": {
    "FeatureCategory": "Uncontrolled Fire Edge",
    "Label": "Active Edge",
    "IsVisible": "Yes",
    "MapMethod": "Infrared Image",
    "GeometryID": "YE-LN-0007",
    "IncidentName": "Yellow",
    "IRWINID": null,
    "CreateName": "TRAINEE, GISS",
    "CreateDate": "2026-07-30T04:05:00-06:00",
    "DeleteThis": "No",
    "Comments": "Active at 0214 MDT 7/28.",
    "LengthMiles": 2.971
   },
   "geometry": {
    "type": "LineString",
    "coordinates": [
     [
      -103.287194,
      43.963202
     ],
     [
      -103.28404,
      43.9535
     ],
     [
      -103.284493,
      43.944501
     ],
     [
      -103.291459,
      43.938789
     ],
     [
      -103.301706,
      43.937248
     ],
     [
      -103.312907,
      43.940939
     ]
    ]
   }
  },
  {
   "type": "Feature",
   "properties": {
    "FeatureCategory": "Contained Fire Edge",
    "Label": "Held Edge",
    "IsVisible": "Yes",
    "MapMethod": "Infrared Image",
    "GeometryID": "YE-LN-0008",
    "IncidentName": "Yellow",
    "IRWINID": null,
    "CreateName": "TRAINEE, GISS",
    "CreateDate": "2026-07-30T04:05:00-06:00",
    "DeleteThis": "No",
    "Comments": "Held at 0214 MDT 7/28.",
    "LengthMiles": 5.463
   },
   "geometry": {
    "type": "LineString",
    "coordinates": [
     [
      -103.312907,
      43.940939
     ],
     [
      -103.320001,
      43.947872
     ],
     [
      -103.325843,
      43.955571
     ],
     [
      -103.330608,
      43.963566
     ],
     [
      -103.333568,
      43.971212
     ],
     [
      -103.33056,
      43.976688
     ],
     [
      -103.317973,
      43.979291
     ],
     [
      -103.30481,
      43.978246
     ],
     [
      -103.294308,
      43.972666
     ],
     [
      -103.287194,
      43.963202
     ]
    ]
   }
  },
  {
   "type": "Feature",
   "properties": {
    "FeatureCategory": "Access Route",
    "Label": "Storm Mountain Rd",
    "IsVisible": "Yes",
    "MapMethod": "GPS-Driven",
    "GeometryID": "YE-LN-0009",
    "IncidentName": "Yellow",
    "IRWINID": null,
    "CreateName": "TRAINEE, GISS",
    "CreateDate": "2026-07-30T04:05:00-06:00",
    "DeleteThis": "No",
    "Comments": "1.7 mi of winding FS road. Single lane with turnouts. THE access constraint \u2014 brief every resource on it.",
    "LengthMiles": 3.559
   },
   "geometry": {
    "type": "LineString",
    "coordinates": [
     [
      -103.311057,
      43.886061
     ],
     [
      -103.310268,
      43.896002
     ],
     [
      -103.312182,
      43.906469
     ],
     [
      -103.312641,
      43.915645
     ],
     [
      -103.308049,
      43.92384
     ],
     [
      -103.304334,
      43.930186
     ],
     [
      -103.296619,
      43.932725
     ]
    ]
   }
  },
  {
   "type": "Feature",
   "properties": {
    "FeatureCategory": "Access Route",
    "Label": "South Access",
    "IsVisible": "Yes",
    "MapMethod": "GPS-Driven",
    "GeometryID": "YE-LN-0010",
    "IncidentName": "Yellow",
    "IRWINID": null,
    "CreateName": "TRAINEE, GISS",
    "CreateDate": "2026-07-30T04:05:00-06:00",
    "DeleteThis": "No",
    "Comments": "Longer, wider, slower.",
    "LengthMiles": 5.5
   },
   "geometry": {
    "type": "LineString",
    "coordinates": [
     [
      -103.311057,
      43.886061
     ],
     [
      -103.334409,
      43.898664
     ],
     [
      -103.34645,
      43.913114
     ],
     [
      -103.346271,
      43.929237
     ],
     [
      -103.339219,
      43.943018
     ],
     [
      -103.332659,
      43.952855
     ]
    ]
   }
  },
  {
   "type": "Feature",
   "properties": {
    "FeatureCategory": "Escape Route",
    "Label": "ER North",
    "IsVisible": "Yes",
    "MapMethod": "GPS-Walked",
    "GeometryID": "YE-LN-0011",
    "IncidentName": "Yellow",
    "IRWINID": null,
    "CreateName": "TRAINEE, GISS",
    "CreateDate": "2026-07-30T04:05:00-06:00",
    "DeleteThis": "No",
    "Comments": "DP 4 to the north ridge.",
    "LengthMiles": 1.424
   },
   "geometry": {
    "type": "LineString",
    "coordinates": [
     [
      -103.296619,
      43.932725
     ],
     [
      -103.285745,
      43.925562
     ],
     [
      -103.277027,
      43.917809
     ]
    ]
   }
  },
  {
   "type": "Feature",
   "properties": {
    "FeatureCategory": "Escape Route",
    "Label": "ER South",
    "IsVisible": "Yes",
    "MapMethod": "GPS-Walked",
    "GeometryID": "YE-LN-0012",
    "IncidentName": "Yellow",
    "IRWINID": null,
    "CreateName": "TRAINEE, GISS",
    "CreateDate": "2026-07-30T04:05:00-06:00",
    "DeleteThis": "No",
    "Comments": "DP 5 to SZ-2.",
    "LengthMiles": 1.269
   },
   "geometry": {
    "type": "LineString",
    "coordinates": [
     [
      -103.330881,
      43.955034
     ],
     [
      -103.342181,
      43.950663
     ],
     [
      -103.351298,
      43.944351
     ]
    ]
   }
  },
  {
   "type": "Feature",
   "properties": {
    "FeatureCategory": "Division Break",
    "Label": "Div A / Div Z",
    "IsVisible": "Yes",
    "MapMethod": "Digitized-Topo",
    "GeometryID": "YE-LN-0013",
    "IncidentName": "Yellow",
    "IRWINID": null,
    "CreateName": "TRAINEE, GISS",
    "CreateDate": "2026-07-30T04:05:00-06:00",
    "DeleteThis": "No",
    "Comments": "",
    "LengthMiles": 3.216
   },
   "geometry": {
    "type": "LineString",
    "coordinates": [
     [
      -103.296008,
      43.981077
     ],
     [
      -103.304387,
      43.971598
     ],
     [
      -103.311307,
      43.960825
     ],
     [
      -103.31696,
      43.949805
     ],
     [
      -103.321886,
      43.938644
     ]
    ]
   }
  },
  {
   "type": "Feature",
   "properties": {
    "FeatureCategory": "Division Break",
    "Label": "Div Z / Div M",
    "IsVisible": "Yes",
    "MapMethod": "Digitized-Topo",
    "GeometryID": "YE-LN-0014",
    "IncidentName": "Yellow",
    "IRWINID": null,
    "CreateName": "TRAINEE, GISS",
    "CreateDate": "2026-07-30T04:05:00-06:00",
    "DeleteThis": "No",
    "Comments": "",
    "LengthMiles": 1.699
   },
   "geometry": {
    "type": "LineString",
    "coordinates": [
     [
      -103.348403,
      43.95995
     ],
     [
      -103.330004,
      43.957389
     ],
     [
      -103.315382,
      43.954043
     ]
    ]
   }
  },
  {
   "type": "Feature",
   "properties": {
    "FeatureCategory": "Branch Break",
    "Label": "Branch I / Branch II",
    "IsVisible": "Yes",
    "MapMethod": "Digitized-Topo",
    "GeometryID": "YE-LN-0015",
    "IncidentName": "Yellow",
    "IRWINID": null,
    "CreateName": "TRAINEE, GISS",
    "CreateDate": "2026-07-30T04:05:00-06:00",
    "DeleteThis": "No",
    "Comments": "",
    "LengthMiles": 2.732
   },
   "geometry": {
    "type": "LineString",
    "coordinates": [
     [
      -103.273997,
      43.977798
     ],
     [
      -103.276519,
      43.958094
     ],
     [
      -103.279032,
      43.93839
     ]
    ]
   }
  },
  {
   "type": "Feature",
   "properties": {
    "FeatureCategory": "Pump and Hose Lay",
    "Label": "Draft 1 Lay",
    "IsVisible": "Yes",
    "MapMethod": "GPS-Walked",
    "GeometryID": "YE-LN-0016",
    "IncidentName": "Yellow",
    "IRWINID": null,
    "CreateName": "TRAINEE, GISS",
    "CreateDate": "2026-07-30T04:05:00-06:00",
    "DeleteThis": "No",
    "Comments": "From Draft 1 to the structure group. Two portable pumps.",
    "LengthMiles": 1.352
   },
   "geometry": {
    "type": "LineString",
    "coordinates": [
     [
      -103.301529,
      43.913285
     ],
     [
      -103.301173,
      43.920485
     ],
     [
      -103.301968,
      43.927707
     ],
     [
      -103.302381,
      43.932835
     ]
    ]
   }
  },
  {
   "type": "Feature",
   "properties": {
    "FeatureCategory": "Fire Spread Direction",
    "Label": "Predicted Spread",
    "IsVisible": "Yes",
    "MapMethod": "Digitized-Other",
    "GeometryID": "YE-LN-0017",
    "IncidentName": "Yellow",
    "IRWINID": null,
    "CreateName": "TRAINEE, GISS",
    "CreateDate": "2026-07-30T04:05:00-06:00",
    "DeleteThis": "No",
    "Comments": "Predicted op 3 spread, northeast.",
    "LengthMiles": 1.875
   },
   "geometry": {
    "type": "LineString",
    "coordinates": [
     [
      -103.309903,
      43.964592
     ],
     [
      -103.299678,
      43.950485
     ],
     [
      -103.291659,
      43.940847
     ]
    ]
   }
  },
  {
   "type": "Feature",
   "properties": {
    "FeatureCategory": "Completed Hand Line",
    "Label": "H/L Coon Hollow",
    "IsVisible": "Yes",
    "MapMethod": "Digitized-Other",
    "GeometryID": "YE-TR-0001",
    "IncidentName": "Yellow",
    "IRWINID": null,
    "CreateName": "TRAINEE, GISS",
    "CreateDate": "2026-07-30T04:05:00-06:00",
    "DeleteThis": "No",
    "Comments": "Derived from trail 'Coon Hollow' running within 75 m of the fire edge. Confirm with Ops before publishing.",
    "LengthMiles": 0.048,
    "DerivedFrom": "trail"
   },
   "geometry": {
    "type": "LineString",
    "coordinates": [
     [
      -103.301706,
      43.937248
     ],
     [
      -103.301975,
      43.937125
     ],
     [
      -103.302244,
      43.937003
     ],
     [
      -103.302512,
      43.93688
     ]
    ]
   }
  },
  {
   "type": "Feature",
   "properties": {
    "FeatureCategory": "Completed Road as Line",
    "Label": "Road FS 231",
    "IsVisible": "Yes",
    "MapMethod": "Digitized-Other",
    "GeometryID": "YE-RO-0001",
    "IncidentName": "Yellow",
    "IRWINID": null,
    "CreateName": "TRAINEE, GISS",
    "CreateDate": "2026-07-30T04:05:00-06:00",
    "DeleteThis": "No",
    "Comments": "Derived from road 'FS 231' running within 60 m of the fire edge. Confirm with Ops before publishing.",
    "LengthMiles": 0.078,
    "DerivedFrom": "road"
   },
   "geometry": {
    "type": "LineString",
    "coordinates": [
     [
      -103.330265,
      43.977232
     ],
     [
      -103.330504,
      43.977086
     ],
     [
      -103.330742,
      43.97694
     ],
     [
      -103.330981,
      43.976794
     ],
     [
      -103.33122,
      43.976648
     ],
     [
      -103.331459,
      43.976502
     ]
    ]
   }
  },
  {
   "type": "Feature",
   "properties": {
    "FeatureCategory": "Contained Fire Edge",
    "Label": "Contained",
    "IsVisible": "Yes",
    "MapMethod": "Infrared Image",
    "GeometryID": "YE-ED-0001",
    "IncidentName": "Yellow",
    "IRWINID": null,
    "CreateName": "TRAINEE, GISS",
    "CreateDate": "2026-07-30T04:05:00-06:00",
    "DeleteThis": "No",
    "Comments": "Derived from perimeter and held line. OPS MUST CONFIRM before this is published.",
    "LengthMiles": 0.078,
    "DerivedFrom": "perimeter"
   },
   "geometry": {
    "type": "LineString",
    "coordinates": [
     [
      -103.33056,
      43.976688
     ],
     [
      -103.33026,
      43.97675
     ],
     [
      -103.329961,
      43.976812
     ],
     [
      -103.329661,
      43.976874
     ],
     [
      -103.329361,
      43.976936
     ],
     [
      -103.329062,
      43.976998
     ]
    ]
   }
  },
  {
   "type": "Feature",
   "properties": {
    "FeatureCategory": "Contained Fire Edge",
    "Label": "Contained",
    "IsVisible": "Yes",
    "MapMethod": "Infrared Image",
    "GeometryID": "YE-ED-0002",
    "IncidentName": "Yellow",
    "IRWINID": null,
    "CreateName": "TRAINEE, GISS",
    "CreateDate": "2026-07-30T04:05:00-06:00",
    "DeleteThis": "No",
    "Comments": "Derived from perimeter and held line. OPS MUST CONFIRM before this is published.",
    "LengthMiles": 0.11,
    "DerivedFrom": "perimeter"
   },
   "geometry": {
    "type": "LineString",
    "coordinates": [
     [
      -103.300774,
      43.937388
     ],
     [
      -103.301085,
      43.937341
     ],
     [
      -103.301395,
      43.937295
     ],
     [
      -103.301706,
      43.937248
     ],
     [
      -103.301993,
      43.937343
     ],
     [
      -103.30228,
      43.937437
     ],
     [
      -103.302568,
      43.937532
     ],
     [
      -103.302855,
      43.937627
     ]
    ]
   }
  },
  {
   "type": "Feature",
   "properties": {
    "FeatureCategory": "Contained Fire Edge",
    "Label": "Contained",
    "IsVisible": "Yes",
    "MapMethod": "Infrared Image",
    "GeometryID": "YE-ED-0003",
    "IncidentName": "Yellow",
    "IRWINID": null,
    "CreateName": "TRAINEE, GISS",
    "CreateDate": "2026-07-30T04:05:00-06:00",
    "DeleteThis": "No",
    "Comments": "Derived from perimeter and held line. OPS MUST CONFIRM before this is published.",
    "LengthMiles": 0.063,
    "DerivedFrom": "perimeter"
   },
   "geometry": {
    "type": "LineString",
    "coordinates": [
     [
      -103.331023,
      43.975846
     ],
     [
      -103.330907,
      43.976056
     ],
     [
      -103.330791,
      43.976267
     ],
     [
      -103.330676,
      43.976477
     ],
     [
      -103.33056,
      43.976688
     ]
    ]
   }
  },
  {
   "type": "Feature",
   "properties": {
    "FeatureCategory": "Uncontrolled Fire Edge",
    "Label": "Uncontrolled",
    "IsVisible": "Yes",
    "MapMethod": "Infrared Image",
    "GeometryID": "YE-ED-0004",
    "IncidentName": "Yellow",
    "IRWINID": null,
    "CreateName": "TRAINEE, GISS",
    "CreateDate": "2026-07-30T04:05:00-06:00",
    "DeleteThis": "No",
    "Comments": "Derived from perimeter and held line. OPS MUST CONFIRM before this is published.",
    "LengthMiles": 4.907,
    "DerivedFrom": "perimeter"
   },
   "geometry": {
    "type": "LineString",
    "coordinates": [
     [
      -103.328762,
      43.97706
     ],
     [
      -103.328462,
      43.977122
     ],
     [
      -103.328163,
      43.977184
     ],
     [
      -103.327863,
      43.977246
     ],
     [
      -103.327563,
      43.977308
     ],
     [
      -103.327264,
      43.97737
     ],
     [
      -103.326964,
      43.977432
     ],
     [
      -103.326664,
      43.977494
     ],
     [
      -103.326364,
      43.977556
     ],
     [
      -103.326065,
      43.977618
     ],
     [
      -103.325765,
      43.97768
     ],
     [
      -103.325465,
      43.977742
     ],
     [
      -103.325166,
      43.977804
     ],
     [
      -103.324866,
      43.977866
     ],
     [
      -103.324566,
      43.977928
     ],
     [
      -103.324267,
      43.97799
     ],
     [
      -103.323967,
      43.978052
     ],
     [
      -103.323667,
      43.978114
     ],
     [
      -103.323368,
      43.978176
     ],
     [
      -103.323068,
      43.978238
     ],
     [
      -103.322768,
      43.9783
     ],
     [
      -103.322468,
      43.978362
     ],
     [
      -103.322169,
      43.978423
     ],
     [
      -103.321869,
      43.978485
     ],
     [
      -103.321569,
      43.978547
     ],
     [
      -103.32127,
      43.978609
     ],
     [
      -103.32097,
      43.978671
     ],
     [
      -103.32067,
      43.978733
     ],
     [
      -103.320371,
      43.978795
     ],
     [
      -103.320071,
      43.978857
     ],
     [
      -103.319771,
      43.978919
     ],
     [
      -103.319472,
      43.978981
     ],
     [
      -103.319172,
      43.979043
     ],
     [
      -103.318872,
      43.979105
     ],
     [
      -103.318572,
      43.979167
     ],
     [
      -103.318273,
      43.979229
     ],
     [
      -103.317973,
      43.979291
     ],
     [
      -103.31766,
      43.979266
     ],
     [
      -103.317346,
      43.979241
     ],
     [
      -103.317033,
      43.979216
     ],
     [
      -103.316719,
      43.979192
     ],
     [
      -103.316406,
      43.979167
     ],
     [
      -103.316093,
      43.979142
     ],
     [
      -103.315779,
      43.979117
     ],
     [
      -103.315466,
      43.979092
     ],
     [
      -103.315152,
      43.979067
     ],
     [
      -103.314839,
      43.979042
     ],
     [
      -103.314525,
      43.979017
     ],
     [
      -103.314212,
      43.978993
     ],
     [
      -103.313899,
      43.978968
     ],
     [
      -103.313585,
      43.978943
     ],
     [
      -103.313272,
      43.978918
     ],
     [
      -103.312958,
      43.978893
     ],
     [
      -103.312645,
      43.978868
     ],
     [
      -103.312332,
      43.978843
     ],
     [
      -103.312018,
      43.978818
     ],
     [
      -103.311705,
      43.978794
     ],
     [
      -103.311391,
      43.978769
     ],
     [
      -103.311078,
      43.978744
     ],
     [
      -103.310765,
      43.978719
     ],
     [
      -103.310451,
      43.978694
     ],
     [
      -103.310138,
      43.978669
     ],
     [
      -103.309824,
      43.978644
     ],
     [
      -103.309511,
      43.978619
     ],
     [
      -103.309198,
      43.978595
     ],
     [
      -103.308884,
      43.97857
     ],
     [
      -103.308571,
      43.978545
     ],
     [
      -103.308257,
      43.97852
     ],
     [
      -103.307944,
      43.978495
     ],
     [
      -103.307631,
      43.97847
     ],
     [
      -103.307317,
      43.978445
     ],
     [
      -103.307004,
      43.97842
     ],
     [
      -103.30669,
      43.978395
     ],
     [
      -103.306377,
      43.97837
     ],
     [
      -103.306064,
      43.978346
     ],
     [
      -103.30575,
      43.978321
     ],
     [
      -103.305437,
      43.978296
     ],
     [
      -103.305123,
      43.978271
     ],
     [
      -103.30481,
      43.978246
     ],
     [
      -103.304554,
      43.97811
     ],
     [
      -103.304298,
      43.977974
     ],
     [
      -103.304041,
      43.977838
     ],
     [
      -103.303785,
      43.977702
     ],
     [
      -103.303529,
      43.977566
     ],
     [
      -103.303273,
      43.977429
     ],
     [
      -103.303017,
      43.977293
     ],
     [
      -103.302761,
      43.977157
     ],
     [
      -103.302505,
      43.977021
     ],
     [
      -103.302248,
      43.976885
     ],
     [
      -103.301992,
      43.976749
     ],
     [
      -103.301736,
      43.976613
     ],
     [
      -103.30148,
      43.976477
     ],
     [
      -103.301224,
      43.976341
     ],
     [
      -103.300968,
      43.976205
     ],
     [
      -103.300711,
      43.976069
     ],
     [
      -103.300455,
      43.975932
     ],
     [
      -103.300199,
      43.975796
     ],
     [
      -103.299943,
      43.97566
     ],
     [
      -103.299687,
      43.975524
     ],
     [
      -103.299431,
      43.975388
     ],
     [
      -103.299175,
      43.975252
     ],
     [
      -103.298918,
      43.975116
     ],
     [
      -103.298662,
      43.97498
     ],
     [
      -103.298406,
      43.974844
     ],
     [
      -103.29815,
      43.974708
     ],
     [
      -103.297894,
      43.974571
     ],
     [
      -103.297638,
      43.974435
     ],
     [
      -103.297382,
      43.974299
     ],
     [
      -103.297125,
      43.974163
     ],
     [
      -103.296869,
      43.974027
     ],
     [
      -103.296613,
      43.973891
     ],
     [
      -103.296357,
      43.973755
     ],
     [
      -103.296101,
      43.973619
     ],
     [
      -103.295845,
      43.973483
     ],
     [
      -103.295589,
      43.973347
     ],
     [
      -103.295332,
      43.97321
     ],
     [
      -103.295076,
      43.973074
     ],
     [
      -103.29482,
      43.972938
     ],
     [
      -103.294564,
      43.972802
     ],
     [
      -103.294308,
      43.972666
     ],
     [
      -103.294157,
      43.972465
     ],
     [
      -103.294005,
      43.972263
     ],
     [
      -103.293854,
      43.972062
     ],
     [
      -103.293702,
      43.971861
     ],
     [
      -103.293551,
      43.971659
     ],
     [
      -103.2934,
      43.971458
     ],
     [
      -103.293248,
      43.971256
     ],
     [
      -103.293097,
      43.971055
     ],
     [
      -103.292946,
      43.970854
     ],
     [
      -103.292794,
      43.970652
     ],
     [
      -103.292643,
      43.970451
     ],
     [
      -103.292491,
      43.97025
     ],
     [
      -103.29234,
      43.970048
     ],
     [
      -103.292189,
      43.969847
     ],
     [
      -103.292037,
      43.969646
     ],
     [
      -103.291886,
      43.969444
     ],
     [
      -103.291735,
      43.969243
     ],
     [
      -103.291583,
      43.969042
     ],
     [
      -103.291432,
      43.96884
     ],
     [
      -103.29128,
      43.968639
     ],
     [
      -103.291129,
      43.968437
     ],
     [
      -103.290978,
      43.968236
     ],
     [
      -103.290826,
      43.968035
     ],
     [
      -103.290675,
      43.967833
     ],
     [
      -103.290524,
      43.967632
     ],
     [
      -103.290372,
      43.967431
     ],
     [
      -103.290221,
      43.967229
     ],
     [
      -103.29007,
      43.967028
     ],
     [
      -103.289918,
      43.966827
     ],
     [
      -103.289767,
      43.966625
     ],
     [
      -103.289616,
      43.966424
     ],
     [
      -103.289464,
      43.966222
     ],
     [
      -103.289313,
      43.966021
     ],
     [
      -103.289161,
      43.96582
     ],
     [
      -103.28901,
      43.965618
     ],
     [
      -103.288859,
      43.965417
     ],
     [
      -103.288707,
      43.965216
     ],
     [
      -103.288556,
      43.965014
     ],
     [
      -103.288405,
      43.964813
     ],
     [
      -103.288253,
      43.964612
     ],
     [
      -103.288102,
      43.96441
     ],
     [
      -103.287951,
      43.964209
     ],
     [
      -103.287799,
      43.964007
     ],
     [
      -103.287648,
      43.963806
     ],
     [
      -103.287497,
      43.963605
     ],
     [
      -103.287345,
      43.963403
     ],
     [
      -103.287194,
      43.963202
     ],
     [
      -103.287122,
      43.962982
     ],
     [
      -103.287051,
      43.962761
     ],
     [
      -103.286979,
      43.962541
     ],
     [
      -103.286907,
      43.96232
     ],
     [
      -103.286836,
      43.9621
     ],
     [
      -103.286764,
      43.961879
     ],
     [
      -103.286692,
      43.961659
     ],
     [
      -103.28662,
      43.961438
     ],
     [
      -103.286549,
      43.961218
     ],
     [
      -103.286477,
      43.960997
     ],
     [
      -103.286405,
      43.960777
     ],
     [
      -103.286334,
      43.960556
     ],
     [
      -103.286262,
      43.960336
     ],
     [
      -103.28619,
      43.960115
     ],
     [
      -103.286119,
      43.959895
     ],
     [
      -103.286047,
      43.959674
     ],
     [
      -103.285975,
      43.959454
     ],
     [
      -103.285904,
      43.959233
     ],
     [
      -103.285832,
      43.959013
     ],
     [
      -103.28576,
      43.958792
     ],
     [
      -103.285689,
      43.958572
     ],
     [
      -103.285617,
      43.958351
     ],
     [
      -103.285545,
      43.958131
     ],
     [
      -103.285474,
      43.95791
     ],
     [
      -103.285402,
      43.95769
     ],
     [
      -103.28533,
      43.957469
     ],
     [
      -103.285258,
      43.957249
     ],
     [
      -103.285187,
      43.957028
     ],
     [
      -103.285115,
      43.956808
     ],
     [
      -103.285043,
      43.956587
     ],
     [
      -103.284972,
      43.956367
     ],
     [
      -103.2849,
      43.956146
     ],
     [
      -103.284828,
      43.955926
     ],
     [
      -103.284757,
      43.955705
     ],
     [
      -103.284685,
      43.955485
     ],
     [
      -103.284613,
      43.955264
     ],
     [
      -103.284542,
      43.955044
     ],
     [
      -103.28447,
      43.954823
     ],
     [
      -103.284398,
      43.954603
     ],
     [
      -103.284327,
      43.954382
     ],
     [
      -103.284255,
      43.954162
     ],
     [
      -103.284183,
      43.953941
     ],
     [
      -103.284112,
      43.953721
     ],
     [
      -103.28404,
      43.9535
     ],
     [
      -103.284051,
      43.953275
     ],
     [
      -103.284063,
      43.95305
     ],
     [
      -103.284074,
      43.952825
     ],
     [
      -103.284085,
      43.9526
     ],
     [
      -103.284097,
      43.952375
     ],
     [
      -103.284108,
      43.95215
     ],
     [
      -103.284119,
      43.951925
     ],
     [
      -103.284131,
      43.9517
     ],
     [
      -103.284142,
      43.951475
     ],
     [
      -103.284153,
      43.95125
     ],
     [
      -103.284165,
      43.951025
     ],
     [
      -103.284176,
      43.9508
     ],
     [
      -103.284187,
      43.950575
     ],
     [
      -103.284199,
      43.95035
     ],
     [
      -103.28421,
      43.950125
     ],
     [
      -103.284221,
      43.9499
     ],
     [
      -103.284233,
      43.949675
     ],
     [
      -103.284244,
      43.94945
     ],
     [
      -103.284255,
      43.949225
     ],
     [
      -103.284267,
      43.949001
     ],
     [
      -103.284278,
      43.948776
     ],
     [
      -103.284289,
      43.948551
     ],
     [
      -103.2843,
      43.948326
     ],
     [
      -103.284312,
      43.948101
     ],
     [
      -103.284323,
      43.947876
     ],
     [
      -103.284334,
      43.947651
     ],
     [
      -103.284346,
      43.947426
     ],
     [
      -103.284357,
      43.947201
     ],
     [
      -103.284368,
      43.946976
     ],
     [
      -103.28438,
      43.946751
     ],
     [
      -103.284391,
      43.946526
     ],
     [
      -103.284402,
      43.946301
     ],
     [
      -103.284414,
      43.946076
     ],
     [
      -103.284425,
      43.945851
     ],
     [
      -103.284436,
      43.945626
     ],
     [
      -103.284448,
      43.945401
     ],
     [
      -103.284459,
      43.945176
     ],
     [
      -103.28447,
      43.944951
     ],
     [
      -103.284482,
      43.944726
     ],
     [
      -103.284493,
      43.944501
     ],
     [
      -103.284704,
      43.944328
     ],
     [
      -103.284915,
      43.944155
     ],
     [
      -103.285126,
      43.943982
     ],
     [
      -103.285337,
      43.943809
     ],
     [
      -103.285549,
      43.943636
     ],
     [
      -103.28576,
      43.943462
     ],
     [
      -103.285971,
      43.943289
     ],
     [
      -103.286182,
      43.943116
     ],
     [
      -103.286393,
      43.942943
     ],
     [
      -103.286604,
      43.94277
     ],
     [
      -103.286815,
      43.942597
     ],
     [
      -103.287026,
      43.942424
     ],
     [
      -103.287237,
      43.942251
     ],
     [
      -103.287448,
      43.942078
     ],
     [
      -103.28766,
      43.941905
     ],
     [
      -103.287871,
      43.941732
     ],
     [
      -103.288082,
      43.941559
     ],
     [
      -103.288293,
      43.941385
     ],
     [
      -103.288504,
      43.941212
     ],
     [
      -103.288715,
      43.941039
     ],
     [
      -103.288926,
      43.940866
     ],
     [
      -103.289137,
      43.940693
     ],
     [
      -103.289348,
      43.94052
     ],
     [
      -103.289559,
      43.940347
     ],
     [
      -103.28977,
      43.940174
     ],
     [
      -103.289981,
      43.940001
     ],
     [
      -103.290193,
      43.939828
     ],
     [
      -103.290404,
      43.939654
     ],
     [
      -103.290615,
      43.939481
     ],
     [
      -103.290826,
      43.939308
     ],
     [
      -103.291037,
      43.939135
     ],
     [
      -103.291248,
      43.938962
     ],
     [
      -103.291459,
      43.938789
     ],
     [
      -103.29177,
      43.938742
     ],
     [
      -103.29208,
      43.938696
     ],
     [
      -103.292391,
      43.938649
     ],
     [
      -103.292701,
      43.938602
     ],
     [
      -103.293012,
      43.938556
     ],
     [
      -103.293322,
      43.938509
     ],
     [
      -103.293633,
      43.938462
     ],
     [
      -103.293943,
      43.938416
     ],
     [
      -103.294254,
      43.938369
     ],
     [
      -103.294564,
      43.938322
     ],
     [
      -103.294875,
      43.938275
     ],
     [
      -103.295185,
      43.938229
     ],
     [
      -103.295496,
      43.938182
     ],
     [
      -103.295806,
      43.938135
     ],
     [
      -103.296117,
      43.938089
     ],
     [
      -103.296427,
      43.938042
     ],
     [
      -103.296738,
      43.937995
     ],
     [
      -103.297048,
      43.937949
     ],
     [
      -103.297359,
      43.937902
     ],
     [
      -103.297669,
      43.937855
     ],
     [
      -103.29798,
      43.937808
     ],
     [
      -103.29829,
      43.937762
     ],
     [
      -103.298601,
      43.937715
     ],
     [
      -103.298911,
      43.937668
     ],
     [
      -103.299222,
      43.937622
     ],
     [
      -103.299532,
      43.937575
     ],
     [
      -103.299843,
      43.937528
     ],
     [
      -103.300153,
      43.937482
     ],
     [
      -103.300464,
      43.937435
     ]
    ]
   }
  },
  {
   "type": "Feature",
   "properties": {
    "FeatureCategory": "Uncontrolled Fire Edge",
    "Label": "Uncontrolled",
    "IsVisible": "Yes",
    "MapMethod": "Infrared Image",
    "GeometryID": "YE-ED-0005",
    "IncidentName": "Yellow",
    "IRWINID": null,
    "CreateName": "TRAINEE, GISS",
    "CreateDate": "2026-07-30T04:05:00-06:00",
    "DeleteThis": "No",
    "Comments": "Derived from perimeter and held line. OPS MUST CONFIRM before this is published.",
    "LengthMiles": 3.214,
    "DerivedFrom": "perimeter"
   },
   "geometry": {
    "type": "LineString",
    "coordinates": [
     [
      -103.303142,
      43.937721
     ],
     [
      -103.303429,
      43.937816
     ],
     [
      -103.303716,
      43.937911
     ],
     [
      -103.304004,
      43.938005
     ],
     [
      -103.304291,
      43.9381
     ],
     [
      -103.304578,
      43.938195
     ],
     [
      -103.304865,
      43.938289
     ],
     [
      -103.305152,
      43.938384
     ],
     [
      -103.30544,
      43.938478
     ],
     [
      -103.305727,
      43.938573
     ],
     [
      -103.306014,
      43.938668
     ],
     [
      -103.306301,
      43.938762
     ],
     [
      -103.306588,
      43.938857
     ],
     [
      -103.306876,
      43.938952
     ],
     [
      -103.307163,
      43.939046
     ],
     [
      -103.30745,
      43.939141
     ],
     [
      -103.307737,
      43.939236
     ],
     [
      -103.308024,
      43.93933
     ],
     [
      -103.308312,
      43.939425
     ],
     [
      -103.308599,
      43.93952
     ],
     [
      -103.308886,
      43.939614
     ],
     [
      -103.309173,
      43.939709
     ],
     [
      -103.30946,
      43.939803
     ],
     [
      -103.309748,
      43.939898
     ],
     [
      -103.310035,
      43.939993
     ],
     [
      -103.310322,
      43.940087
     ],
     [
      -103.310609,
      43.940182
     ],
     [
      -103.310896,
      43.940277
     ],
     [
      -103.311184,
      43.940371
     ],
     [
      -103.311471,
      43.940466
     ],
     [
      -103.311758,
      43.94056
     ],
     [
      -103.312045,
      43.940655
     ],
     [
      -103.312333,
      43.94075
     ],
     [
      -103.31262,
      43.940844
     ],
     [
      -103.312907,
      43.940939
     ],
     [
      -103.313094,
      43.941121
     ],
     [
      -103.31328,
      43.941304
     ],
     [
      -103.313467,
      43.941486
     ],
     [
      -103.313654,
      43.941669
     ],
     [
      -103.31384,
      43.941851
     ],
     [
      -103.314027,
      43.942034
     ],
     [
      -103.314214,
      43.942216
     ],
     [
      -103.3144,
      43.942399
     ],
     [
      -103.314587,
      43.942581
     ],
     [
      -103.314774,
      43.942764
     ],
     [
      -103.31496,
      43.942946
     ],
     [
      -103.315147,
      43.943128
     ],
     [
      -103.315334,
      43.943311
     ],
     [
      -103.31552,
      43.943493
     ],
     [
      -103.315707,
      43.943676
     ],
     [
      -103.315894,
      43.943858
     ],
     [
      -103.31608,
      43.944041
     ],
     [
      -103.316267,
      43.944223
     ],
     [
      -103.316454,
      43.944406
     ],
     [
      -103.31664,
      43.944588
     ],
     [
      -103.316827,
      43.94477
     ],
     [
      -103.317014,
      43.944953
     ],
     [
      -103.317201,
      43.945135
     ],
     [
      -103.317387,
      43.945318
     ],
     [
      -103.317574,
      43.9455
     ],
     [
      -103.317761,
      43.945683
     ],
     [
      -103.317947,
      43.945865
     ],
     [
      -103.318134,
      43.946048
     ],
     [
      -103.318321,
      43.94623
     ],
     [
      -103.318507,
      43.946412
     ],
     [
      -103.318694,
      43.946595
     ],
     [
      -103.318881,
      43.946777
     ],
     [
      -103.319067,
      43.94696
     ],
     [
      -103.319254,
      43.947142
     ],
     [
      -103.319441,
      43.947325
     ],
     [
      -103.319628,
      43.947507
     ],
     [
      -103.319814,
      43.94769
     ],
     [
      -103.320001,
      43.947872
     ],
     [
      -103.320151,
      43.948069
     ],
     [
      -103.320301,
      43.948267
     ],
     [
      -103.32045,
      43.948464
     ],
     [
      -103.3206,
      43.948662
     ],
     [
      -103.32075,
      43.948859
     ],
     [
      -103.3209,
      43.949056
     ],
     [
      -103.321049,
      43.949254
     ],
     [
      -103.321199,
      43.949451
     ],
     [
      -103.321349,
      43.949649
     ],
     [
      -103.321499,
      43.949846
     ],
     [
      -103.321649,
      43.950044
     ],
     [
      -103.321798,
      43.950241
     ],
     [
      -103.321948,
      43.950438
     ],
     [
      -103.322098,
      43.950636
     ],
     [
      -103.322248,
      43.950833
     ],
     [
      -103.322398,
      43.951031
     ],
     [
      -103.322547,
      43.951228
     ],
     [
      -103.322697,
      43.951425
     ],
     [
      -103.322847,
      43.951623
     ],
     [
      -103.322997,
      43.95182
     ],
     [
      -103.323147,
      43.952018
     ],
     [
      -103.323296,
      43.952215
     ],
     [
      -103.323446,
      43.952412
     ],
     [
      -103.323596,
      43.95261
     ],
     [
      -103.323746,
      43.952807
     ],
     [
      -103.323896,
      43.953005
     ],
     [
      -103.324045,
      43.953202
     ],
     [
      -103.324195,
      43.9534
     ],
     [
      -103.324345,
      43.953597
     ],
     [
      -103.324495,
      43.953794
     ],
     [
      -103.324645,
      43.953992
     ],
     [
      -103.324794,
      43.954189
     ],
     [
      -103.324944,
      43.954387
     ],
     [
      -103.325094,
      43.954584
     ],
     [
      -103.325244,
      43.954781
     ],
     [
      -103.325394,
      43.954979
     ],
     [
      -103.325543,
      43.955176
     ],
     [
      -103.325693,
      43.955374
     ],
     [
      -103.325843,
      43.955571
     ],
     [
      -103.325968,
      43.955781
     ],
     [
      -103.326094,
      43.955992
     ],
     [
      -103.326219,
      43.956202
     ],
     [
      -103.326345,
      43.956413
     ],
     [
      -103.32647,
      43.956623
     ],
     [
      -103.326595,
      43.956833
     ],
     [
      -103.326721,
      43.957044
     ],
     [
      -103.326846,
      43.957254
     ],
     [
      -103.326971,
      43.957465
     ],
     [
      -103.327097,
      43.957675
     ],
     [
      -103.327222,
      43.957885
     ],
     [
      -103.327348,
      43.958096
     ],
     [
      -103.327473,
      43.958306
     ],
     [
      -103.327598,
      43.958517
     ],
     [
      -103.327724,
      43.958727
     ],
     [
      -103.327849,
      43.958937
     ],
     [
      -103.327975,
      43.959148
     ],
     [
      -103.3281,
      43.959358
     ],
     [
      -103.328225,
      43.959569
     ],
     [
      -103.328351,
      43.959779
     ],
     [
      -103.328476,
      43.959989
     ],
     [
      -103.328602,
      43.9602
     ],
     [
      -103.328727,
      43.96041
     ],
     [
      -103.328852,
      43.96062
     ],
     [
      -103.328978,
      43.960831
     ],
     [
      -103.329103,
      43.961041
     ],
     [
      -103.329229,
      43.961252
     ],
     [
      -103.329354,
      43.961462
     ],
     [
      -103.329479,
      43.961672
     ],
     [
      -103.329605,
      43.961883
     ],
     [
      -103.32973,
      43.962093
     ],
     [
      -103.329856,
      43.962304
     ],
     [
      -103.329981,
      43.962514
     ],
     [
      -103.330106,
      43.962724
     ],
     [
      -103.330232,
      43.962935
     ],
     [
      -103.330357,
      43.963145
     ],
     [
      -103.330483,
      43.963356
     ],
     [
      -103.330608,
      43.963566
     ],
     [
      -103.330693,
      43.963784
     ],
     [
      -103.330777,
      43.964003
     ],
     [
      -103.330862,
      43.964221
     ],
     [
      -103.330946,
      43.96444
     ],
     [
      -103.331031,
      43.964658
     ],
     [
      -103.331115,
      43.964877
     ],
     [
      -103.3312,
      43.965095
     ],
     [
      -103.331285,
      43.965314
     ],
     [
      -103.331369,
      43.965532
     ],
     [
      -103.331454,
      43.965751
     ],
     [
      -103.331538,
      43.965969
     ],
     [
      -103.331623,
      43.966187
     ],
     [
      -103.331707,
      43.966406
     ],
     [
      -103.331792,
      43.966624
     ],
     [
      -103.331876,
      43.966843
     ],
     [
      -103.331961,
      43.967061
     ],
     [
      -103.332046,
      43.96728
     ],
     [
      -103.33213,
      43.967498
     ],
     [
      -103.332215,
      43.967717
     ],
     [
      -103.332299,
      43.967935
     ],
     [
      -103.332384,
      43.968154
     ],
     [
      -103.332468,
      43.968372
     ],
     [
      -103.332553,
      43.968591
     ],
     [
      -103.332638,
      43.968809
     ],
     [
      -103.332722,
      43.969027
     ],
     [
      -103.332807,
      43.969246
     ],
     [
      -103.332891,
      43.969464
     ],
     [
      -103.332976,
      43.969683
     ],
     [
      -103.333061,
      43.969901
     ],
     [
      -103.333145,
      43.97012
     ],
     [
      -103.33323,
      43.970338
     ],
     [
      -103.333314,
      43.970557
     ],
     [
      -103.333399,
      43.970775
     ],
     [
      -103.333483,
      43.970994
     ],
     [
      -103.333568,
      43.971212
     ],
     [
      -103.333452,
      43.971423
     ],
     [
      -103.333337,
      43.971633
     ],
     [
      -103.333221,
      43.971844
     ],
     [
      -103.333105,
      43.972054
     ],
     [
      -103.33299,
      43.972265
     ],
     [
      -103.332874,
      43.972476
     ],
     [
      -103.332758,
      43.972686
     ],
     [
      -103.332643,
      43.972897
     ],
     [
      -103.332527,
      43.973108
     ],
     [
      -103.332411,
      43.973318
     ],
     [
      -103.332295,
      43.973529
     ],
     [
      -103.33218,
      43.973739
     ],
     [
      -103.332064,
      43.97395
     ],
     [
      -103.331948,
      43.974161
     ],
     [
      -103.331833,
      43.974371
     ],
     [
      -103.331717,
      43.974582
     ],
     [
      -103.331601,
      43.974792
     ],
     [
      -103.331486,
      43.975003
     ],
     [
      -103.33137,
      43.975214
     ],
     [
      -103.331254,
      43.975424
     ],
     [
      -103.331139,
      43.975635
     ]
    ]
   }
  }
 ],
 "_derived_by": "scripts/derive_tactical.py"
}
