{
 "type": "FeatureCollection",
 "name": "EventPolygon",
 "crs": {
  "type": "name",
  "properties": {
   "name": "urn:ogc:def:crs:OGC:1.3:CRS84"
  }
 },
 "_warning": "TRAINING EXERCISE \u2014 NOT AN ACTUAL INCIDENT. Fabricated data. Never publish, never sync to NIFS or NIFC AGOL.",
 "_fire": "Yellow",
 "_generated_by": "scripts/make_fires.py",
 "features": [
  {
   "type": "Feature",
   "properties": {
    "FeatureCategory": "Wildfire Daily Fire Perimeter",
    "Label": "Yellow 07/28",
    "IsVisible": "Yes",
    "MapMethod": "Infrared Image",
    "GeometryID": "YE-PY-0001",
    "IncidentName": "Yellow",
    "IRWINID": null,
    "CreateName": "TRAINEE, GISS",
    "CreateDate": "2026-07-30T04:05:00-06:00",
    "DeleteThis": "No",
    "Comments": "Operational period 3 perimeter.",
    "GISAcres": 438.7,
    "PolygonDateTime": "2026-07-28T02:14:00-06:00"
   },
   "geometry": {
    "type": "Polygon",
    "coordinates": [
     [
      [
       -103.322587,
       43.972108
      ],
      [
       -103.315567,
       43.972763
      ],
      [
       -103.309601,
       43.970593
      ],
      [
       -103.306494,
       43.965949
      ],
      [
       -103.307347,
       43.961065
      ],
      [
       -103.31236,
       43.958
      ],
      [
       -103.318851,
       43.958757
      ],
      [
       -103.323038,
       43.963106
      ],
      [
       -103.324352,
       43.968411
      ],
      [
       -103.322587,
       43.972108
      ]
     ]
    ]
   }
  },
  {
   "type": "Feature",
   "properties": {
    "FeatureCategory": "Wildfire Daily Fire Perimeter",
    "Label": "Yellow 07/29",
    "IsVisible": "Yes",
    "MapMethod": "Infrared Image",
    "GeometryID": "YE-PY-0002",
    "IncidentName": "Yellow",
    "IRWINID": null,
    "CreateName": "TRAINEE, GISS",
    "CreateDate": "2026-07-30T04:05:00-06:00",
    "DeleteThis": "No",
    "Comments": "Operational period 4 perimeter.",
    "GISAcres": 1412.7,
    "PolygonDateTime": "2026-07-29T02:14:00-06:00"
   },
   "geometry": {
    "type": "Polygon",
    "coordinates": [
     [
      [
       -103.326573,
       43.974398
      ],
      [
       -103.317221,
       43.976115
      ],
      [
       -103.307118,
       43.974655
      ],
      [
       -103.300226,
       43.969779
      ],
      [
       -103.296192,
       43.96243
      ],
      [
       -103.295943,
       43.955312
      ],
      [
       -103.300756,
       43.95019
      ],
      [
       -103.309025,
       43.948768
      ],
      [
       -103.316619,
       43.951759
      ],
      [
       -103.322987,
       43.958046
      ],
      [
       -103.327024,
       43.965395
      ],
      [
       -103.328704,
       43.971277
      ],
      [
       -103.326573,
       43.974398
      ]
     ]
    ]
   }
  },
  {
   "type": "Feature",
   "properties": {
    "FeatureCategory": "Wildfire Daily Fire Perimeter",
    "Label": "Yellow 07/30",
    "IsVisible": "Yes",
    "MapMethod": "Infrared Image",
    "GeometryID": "YE-PY-0003",
    "IncidentName": "Yellow",
    "IRWINID": null,
    "CreateName": "TRAINEE, GISS",
    "CreateDate": "2026-07-30T04:05:00-06:00",
    "DeleteThis": "No",
    "Comments": "Operational period 5 perimeter.",
    "GISAcres": 3217.2,
    "PolygonDateTime": "2026-07-30T02:14:00-06:00"
   },
   "geometry": {
    "type": "Polygon",
    "coordinates": [
     [
      [
       -103.33056,
       43.976688
      ],
      [
       -103.317973,
       43.979291
      ],
      [
       -103.30481,
       43.978246
      ],
      [
       -103.294308,
       43.972666
      ],
      [
       -103.287194,
       43.963202
      ],
      [
       -103.28404,
       43.9535
      ],
      [
       -103.284493,
       43.944501
      ],
      [
       -103.291459,
       43.938789
      ],
      [
       -103.301706,
       43.937248
      ],
      [
       -103.312907,
       43.940939
      ],
      [
       -103.320001,
       43.947872
      ],
      [
       -103.325843,
       43.955571
      ],
      [
       -103.330608,
       43.963566
      ],
      [
       -103.333568,
       43.971212
      ],
      [
       -103.33056,
       43.976688
      ]
     ]
    ]
   }
  },
  {
   "type": "Feature",
   "properties": {
    "FeatureCategory": "Temporary Flight Restriction",
    "Label": "TFR 5 NM",
    "IsVisible": "Yes",
    "MapMethod": "Digitized-Other",
    "GeometryID": "YE-PY-0004",
    "IncidentName": "Yellow",
    "IRWINID": null,
    "CreateName": "TRAINEE, GISS",
    "CreateDate": "2026-07-30T04:05:00-06:00",
    "DeleteThis": "No",
    "Comments": "5 NM radius, surface to 8500 ft MSL. Exercise only \u2014 no real TFR exists. Wider than the AOI, which is why air ops needs a wider extent than ops.",
    "GISAcres": 66481.8,
    "PolygonDateTime": null
   },
   "geometry": {
    "type": "Polygon",
    "coordinates": [
     [
      [
       -103.194634,
       43.958235
      ],
      [
       -103.194853,
       43.965505
      ],
      [
       -103.195949,
       43.972733
      ],
      [
       -103.197913,
       43.979865
      ],
      [
       -103.200731,
       43.986846
      ],
      [
       -103.204382,
       43.993623
      ],
      [
       -103.208837,
       44.000144
      ],
      [
       -103.214064,
       44.00636
      ],
      [
       -103.220023,
       44.012223
      ],
      [
       -103.226669,
       44.017689
      ],
      [
       -103.233951,
       44.022716
      ],
      [
       -103.241813,
       44.027265
      ],
      [
       -103.250196,
       44.031301
      ],
      [
       -103.259036,
       44.034795
      ],
      [
       -103.268265,
       44.037718
      ],
      [
       -103.277813,
       44.04005
      ],
      [
       -103.287607,
       44.041771
      ],
      [
       -103.297572,
       44.042869
      ],
      [
       -103.307632,
       44.043336
      ],
      [
       -103.31771,
       44.043168
      ],
      [
       -103.32773,
       44.042366
      ],
      [
       -103.337614,
       44.040936
      ],
      [
       -103.347287,
       44.038889
      ],
      [
       -103.356675,
       44.036241
      ],
      [
       -103.365706,
       44.033012
      ],
      [
       -103.374312,
       44.029227
      ],
      [
       -103.382427,
       44.024915
      ],
      [
       -103.389989,
       44.020108
      ],
      [
       -103.396941,
       44.014843
      ],
      [
       -103.403228,
       44.009161
      ],
      [
       -103.408805,
       44.003105
      ],
      [
       -103.413628,
       43.99672
      ],
      [
       -103.417661,
       43.990057
      ],
      [
       -103.420873,
       43.983165
      ],
      [
       -103.42324,
       43.976096
      ],
      [
       -103.424745,
       43.968906
      ],
      [
       -103.425376,
       43.961649
      ],
      [
       -103.425129,
       43.954379
      ],
      [
       -103.424006,
       43.947152
      ],
      [
       -103.422015,
       43.940024
      ],
      [
       -103.419173,
       43.933048
      ],
      [
       -103.415502,
       43.926277
      ],
      [
       -103.411028,
       43.919764
      ],
      [
       -103.405788,
       43.913557
      ],
      [
       -103.39982,
       43.907703
      ],
      [
       -103.39317,
       43.902247
      ],
      [
       -103.385889,
       43.897231
      ],
      [
       -103.378032,
       43.892692
      ],
      [
       -103.36966,
       43.888665
      ],
      [
       -103.360834,
       43.88518
      ],
      [
       -103.351624,
       43.882264
      ],
      [
       -103.342098,
       43.879939
      ],
      [
       -103.332329,
       43.878222
      ],
      [
       -103.32239,
       43.877128
      ],
      [
       -103.312358,
       43.876663
      ],
      [
       -103.302308,
       43.876831
      ],
      [
       -103.292316,
       43.877631
      ],
      [
       -103.282458,
       43.879058
      ],
      [
       -103.272809,
       43.8811
      ],
      [
       -103.263442,
       43.883741
      ],
      [
       -103.254428,
       43.886962
      ],
      [
       -103.245835,
       43.890738
      ],
      [
       -103.237729,
       43.895041
      ],
      [
       -103.230172,
       43.899838
      ],
      [
       -103.22322,
       43.905093
      ],
      [
       -103.216926,
       43.910765
      ],
      [
       -103.21134,
       43.916812
      ],
      [
       -103.206502,
       43.923187
      ],
      [
       -103.202451,
       43.929843
      ],
      [
       -103.199217,
       43.936729
      ],
      [
       -103.196825,
       43.943792
      ],
      [
       -103.195293,
       43.950979
      ],
      [
       -103.194634,
       43.958235
      ]
     ]
    ]
   }
  },
  {
   "type": "Feature",
   "properties": {
    "FeatureCategory": "Aerial Hazard Area",
    "Label": "Powerline Corridor",
    "IsVisible": "Yes",
    "MapMethod": "Digitized-Other",
    "GeometryID": "YE-PY-0005",
    "IncidentName": "Yellow",
    "IRWINID": null,
    "CreateName": "TRAINEE, GISS",
    "CreateDate": "2026-07-30T04:05:00-06:00",
    "DeleteThis": "No",
    "Comments": "Distribution line. No low-level flight.",
    "GISAcres": 1861.4,
    "PolygonDateTime": null
   },
   "geometry": {
    "type": "Polygon",
    "coordinates": [
     [
      [
       -103.237309,
       43.979739
      ],
      [
       -103.251414,
       43.962538
      ],
      [
       -103.261737,
       43.944989
      ],
      [
       -103.266774,
       43.92642
      ],
      [
       -103.268345,
       43.906785
      ],
      [
       -103.268345,
       43.906785
      ],
      [
       -103.26859,
       43.905862
      ],
      [
       -103.269156,
       43.905016
      ],
      [
       -103.270006,
       43.904304
      ],
      [
       -103.271082,
       43.903776
      ],
      [
       -103.27231,
       43.903468
      ],
      [
       -103.273606,
       43.903399
      ],
      [
       -103.274883,
       43.903576
      ],
      [
       -103.276053,
       43.903986
      ],
      [
       -103.277037,
       43.9046
      ],
      [
       -103.277767,
       43.905378
      ],
      [
       -103.278194,
       43.906266
      ],
      [
       -103.278289,
       43.907203
      ],
      [
       -103.278289,
       43.907203
      ],
      [
       -103.27666,
       43.927321
      ],
      [
       -103.271265,
       43.947103
      ],
      [
       -103.260309,
       43.96579
      ],
      [
       -103.245892,
       43.983406
      ],
      [
       -103.245892,
       43.983406
      ],
      [
       -103.245088,
       43.984146
      ],
      [
       -103.244047,
       43.98471
      ],
      [
       -103.242839,
       43.985061
      ],
      [
       -103.241547,
       43.985173
      ],
      [
       -103.240258,
       43.985041
      ],
      [
       -103.239061,
       43.984672
      ],
      [
       -103.238036,
       43.984092
      ],
      [
       -103.237255,
       43.98334
      ],
      [
       -103.23677,
       43.982468
      ],
      [
       -103.236614,
       43.981534
      ],
      [
       -103.236798,
       43.980604
      ],
      [
       -103.237309,
       43.979739
      ],
      [
       -103.237309,
       43.979739
      ]
     ]
    ]
   }
  },
  {
   "type": "Feature",
   "properties": {
    "FeatureCategory": "Retardant Avoidance Area",
    "Label": "Spring Creek",
    "IsVisible": "Yes",
    "MapMethod": "Digitized-Other",
    "GeometryID": "YE-PY-0006",
    "IncidentName": "Yellow",
    "IRWINID": null,
    "CreateName": "TRAINEE, GISS",
    "CreateDate": "2026-07-30T04:05:00-06:00",
    "DeleteThis": "No",
    "Comments": "300 m each side of the creek. Exercise buffer.",
    "GISAcres": 816.9,
    "PolygonDateTime": null
   },
   "geometry": {
    "type": "Polygon",
    "coordinates": [
     [
      [
       -103.296268,
       43.905826
      ],
      [
       -103.300751,
       43.914915
      ],
      [
       -103.303461,
       43.923825
      ],
      [
       -103.304863,
       43.933505
      ],
      [
       -103.304395,
       43.942899
      ],
      [
       -103.302098,
       43.951751
      ],
      [
       -103.302098,
       43.951751
      ],
      [
       -103.301794,
       43.952421
      ],
      [
       -103.30126,
       43.953011
      ],
      [
       -103.300533,
       43.953481
      ],
      [
       -103.299662,
       43.953799
      ],
      [
       -103.298707,
       43.953944
      ],
      [
       -103.297733,
       43.953905
      ],
      [
       -103.296806,
       43.953685
      ],
      [
       -103.295989,
       43.953299
      ],
      [
       -103.295338,
       43.952774
      ],
      [
       -103.294898,
       43.952145
      ],
      [
       -103.294698,
       43.951455
      ],
      [
       -103.294752,
       43.950751
      ],
      [
       -103.294752,
       43.950751
      ],
      [
       -103.296965,
       43.942305
      ],
      [
       -103.297395,
       43.933698
      ],
      [
       -103.296083,
       43.924677
      ],
      [
       -103.293575,
       43.916419
      ],
      [
       -103.289232,
       43.907642
      ],
      [
       -103.289232,
       43.907642
      ],
      [
       -103.289027,
       43.906953
      ],
      [
       -103.289076,
       43.906249
      ],
      [
       -103.289375,
       43.905578
      ],
      [
       -103.289903,
       43.904986
      ],
      [
       -103.290626,
       43.904513
      ],
      [
       -103.291494,
       43.904191
      ],
      [
       -103.292447,
       43.904042
      ],
      [
       -103.293421,
       43.904077
      ],
      [
       -103.294349,
       43.904294
      ],
      [
       -103.295168,
       43.904676
      ],
      [
       -103.295823,
       43.905198
      ],
      [
       -103.296268,
       43.905826
      ],
      [
       -103.296268,
       43.905826
      ]
     ]
    ]
   }
  },
  {
   "type": "Feature",
   "properties": {
    "FeatureCategory": "Closure Area",
    "Label": "Yellow Closure",
    "IsVisible": "Yes",
    "MapMethod": "Digitized-Other",
    "GeometryID": "YE-PY-0007",
    "IncidentName": "Yellow",
    "IRWINID": null,
    "CreateName": "TRAINEE, GISS",
    "CreateDate": "2026-07-30T04:05:00-06:00",
    "DeleteThis": "No",
    "Comments": "Public closure. Roads and trails inside are closed.",
    "GISAcres": 24925.7,
    "PolygonDateTime": null
   },
   "geometry": {
    "type": "Polygon",
    "coordinates": [
     [
      [
       -103.239359,
       43.958933
      ],
      [
       -103.239497,
       43.963384
      ],
      [
       -103.240171,
       43.96781
      ],
      [
       -103.241376,
       43.972177
      ],
      [
       -103.243105,
       43.976451
      ],
      [
       -103.245343,
       43.980599
      ],
      [
       -103.248073,
       43.984592
      ],
      [
       -103.251275,
       43.988397
      ],
      [
       -103.254925,
       43.991986
      ],
      [
       -103.258995,
       43.995331
      ],
      [
       -103.263453,
       43.998408
      ],
      [
       -103.268267,
       44.001192
      ],
      [
       -103.273398,
       44.003663
      ],
      [
       -103.278809,
       44.005801
      ],
      [
       -103.284458,
       44.00759
      ],
      [
       -103.290302,
       44.009017
      ],
      [
       -103.296296,
       44.01007
      ],
      [
       -103.302395,
       44.010742
      ],
      [
       -103.308551,
       44.011028
      ],
      [
       -103.314719,
       44.010925
      ],
      [
       -103.320851,
       44.010434
      ],
      [
       -103.3269,
       44.009559
      ],
      [
       -103.33282,
       44.008306
      ],
      [
       -103.338566,
       44.006685
      ],
      [
       -103.344094,
       44.004709
      ],
      [
       -103.349362,
       44.002393
      ],
      [
       -103.354329,
       43.999753
      ],
      [
       -103.358959,
       43.996811
      ],
      [
       -103.363216,
       43.993589
      ],
      [
       -103.367066,
       43.990111
      ],
      [
       -103.370482,
       43.986403
      ],
      [
       -103.373437,
       43.982495
      ],
      [
       -103.375909,
       43.978416
      ],
      [
       -103.377878,
       43.974197
      ],
      [
       -103.37933,
       43.969869
      ],
      [
       -103.380255,
       43.965467
      ],
      [
       -103.380645,
       43.961023
      ],
      [
       -103.380497,
       43.956572
      ],
      [
       -103.379812,
       43.952147
      ],
      [
       -103.378597,
       43.947782
      ],
      [
       -103.376859,
       43.94351
      ],
      [
       -103.374614,
       43.939363
      ],
      [
       -103.371877,
       43.935374
      ],
      [
       -103.368669,
       43.931572
      ],
      [
       -103.365016,
       43.927987
      ],
      [
       -103.360945,
       43.924645
      ],
      [
       -103.356487,
       43.921572
      ],
      [
       -103.351675,
       43.918792
      ],
      [
       -103.346547,
       43.916325
      ],
      [
       -103.341142,
       43.91419
      ],
      [
       -103.3355,
       43.912403
      ],
      [
       -103.329665,
       43.910979
      ],
      [
       -103.32368,
       43.909927
      ],
      [
       -103.317591,
       43.909257
      ],
      [
       -103.311445,
       43.908972
      ],
      [
       -103.305288,
       43.909075
      ],
      [
       -103.299166,
       43.909565
      ],
      [
       -103.293127,
       43.910439
      ],
      [
       -103.287216,
       43.91169
      ],
      [
       -103.281478,
       43.913308
      ],
      [
       -103.275957,
       43.915281
      ],
      [
       -103.270694,
       43.917594
      ],
      [
       -103.265729,
       43.92023
      ],
      [
       -103.261101,
       43.923169
      ],
      [
       -103.256845,
       43.926387
      ],
      [
       -103.252992,
       43.929862
      ],
      [
       -103.249572,
       43.933565
      ],
      [
       -103.246612,
       43.93747
      ],
      [
       -103.244133,
       43.941547
      ],
      [
       -103.242156,
       43.945764
      ],
      [
       -103.240694,
       43.950089
      ],
      [
       -103.239759,
       43.95449
      ],
      [
       -103.239359,
       43.958933
      ]
     ]
    ]
   }
  },
  {
   "type": "Feature",
   "properties": {
    "FeatureCategory": "Safety Zone",
    "Label": "SZ-1 Area",
    "IsVisible": "Yes",
    "MapMethod": "GPS-Walked",
    "GeometryID": "YE-PY-0008",
    "IncidentName": "Yellow",
    "IRWINID": null,
    "CreateName": "TRAINEE, GISS",
    "CreateDate": "2026-07-30T04:05:00-06:00",
    "DeleteThis": "No",
    "Comments": "Meadow. Measured, not eyeballed.",
    "GISAcres": 13.1,
    "PolygonDateTime": null
   },
   "geometry": {
    "type": "Polygon",
    "coordinates": [
     [
      [
       -103.307249,
       43.940332
      ],
      [
       -103.307252,
       43.940434
      ],
      [
       -103.307268,
       43.940536
      ],
      [
       -103.307295,
       43.940636
      ],
      [
       -103.307335,
       43.940734
      ],
      [
       -103.307387,
       43.940829
      ],
      [
       -103.307449,
       43.94092
      ],
      [
       -103.307523,
       43.941007
      ],
      [
       -103.307606,
       43.94109
      ],
      [
       -103.3077,
       43.941166
      ],
      [
       -103.307802,
       43.941237
      ],
      [
       -103.307912,
       43.941301
      ],
      [
       -103.30803,
       43.941357
      ],
      [
       -103.308154,
       43.941406
      ],
      [
       -103.308283,
       43.941447
      ],
      [
       -103.308417,
       43.94148
      ],
      [
       -103.308554,
       43.941504
      ],
      [
       -103.308694,
       43.941519
      ],
      [
       -103.308835,
       43.941526
      ],
      [
       -103.308976,
       43.941524
      ],
      [
       -103.309116,
       43.941512
      ],
      [
       -103.309255,
       43.941492
      ],
      [
       -103.309391,
       43.941464
      ],
      [
       -103.309522,
       43.941426
      ],
      [
       -103.309649,
       43.941381
      ],
      [
       -103.30977,
       43.941328
      ],
      [
       -103.309883,
       43.941268
      ],
      [
       -103.309989,
       43.9412
      ],
      [
       -103.310087,
       43.941126
      ],
      [
       -103.310175,
       43.941047
      ],
      [
       -103.310254,
       43.940962
      ],
      [
       -103.310321,
       43.940872
      ],
      [
       -103.310378,
       43.940779
      ],
      [
       -103.310423,
       43.940682
      ],
      [
       -103.310457,
       43.940583
      ],
      [
       -103.310478,
       43.940482
      ],
      [
       -103.310487,
       43.94038
      ],
      [
       -103.310484,
       43.940278
      ],
      [
       -103.310468,
       43.940176
      ],
      [
       -103.310441,
       43.940076
      ],
      [
       -103.310401,
       43.939978
      ],
      [
       -103.310349,
       43.939883
      ],
      [
       -103.310287,
       43.939792
      ],
      [
       -103.310213,
       43.939705
      ],
      [
       -103.31013,
       43.939622
      ],
      [
       -103.310036,
       43.939546
      ],
      [
       -103.309934,
       43.939475
      ],
      [
       -103.309824,
       43.939411
      ],
      [
       -103.309706,
       43.939355
      ],
      [
       -103.309582,
       43.939306
      ],
      [
       -103.309453,
       43.939265
      ],
      [
       -103.309319,
       43.939232
      ],
      [
       -103.309182,
       43.939208
      ],
      [
       -103.309042,
       43.939193
      ],
      [
       -103.308901,
       43.939186
      ],
      [
       -103.30876,
       43.939188
      ],
      [
       -103.30862,
       43.9392
      ],
      [
       -103.308481,
       43.93922
      ],
      [
       -103.308345,
       43.939248
      ],
      [
       -103.308214,
       43.939286
      ],
      [
       -103.308087,
       43.939331
      ],
      [
       -103.307966,
       43.939384
      ],
      [
       -103.307853,
       43.939444
      ],
      [
       -103.307747,
       43.939512
      ],
      [
       -103.307649,
       43.939586
      ],
      [
       -103.307561,
       43.939665
      ],
      [
       -103.307482,
       43.93975
      ],
      [
       -103.307415,
       43.93984
      ],
      [
       -103.307358,
       43.939933
      ],
      [
       -103.307313,
       43.94003
      ],
      [
       -103.307279,
       43.940129
      ],
      [
       -103.307258,
       43.94023
      ],
      [
       -103.307249,
       43.940332
      ]
     ]
    ]
   }
  },
  {
   "type": "Feature",
   "properties": {
    "FeatureCategory": "Structure Group",
    "Label": "Training Grounds Structures",
    "IsVisible": "Yes",
    "MapMethod": "GPS-Walked",
    "GeometryID": "YE-PY-0009",
    "IncidentName": "Yellow",
    "IRWINID": null,
    "CreateName": "TRAINEE, GISS",
    "CreateDate": "2026-07-30T04:05:00-06:00",
    "DeleteThis": "No",
    "Comments": "Lodge, dining hall, cabin row, tank. Structure protection group assigned.",
    "GISAcres": 95.0,
    "PolygonDateTime": null
   },
   "geometry": {
    "type": "Polygon",
    "coordinates": [
     [
      [
       -103.301309,
       43.930178
      ],
      [
       -103.301317,
       43.930453
      ],
      [
       -103.301359,
       43.930726
      ],
      [
       -103.301434,
       43.930996
      ],
      [
       -103.301541,
       43.93126
      ],
      [
       -103.301679,
       43.931516
      ],
      [
       -103.301848,
       43.931762
      ],
      [
       -103.302045,
       43.931997
      ],
      [
       -103.302271,
       43.932218
      ],
      [
       -103.302522,
       43.932425
      ],
      [
       -103.302797,
       43.932614
      ],
      [
       -103.303094,
       43.932786
      ],
      [
       -103.30341,
       43.932939
      ],
      [
       -103.303744,
       43.93307
      ],
      [
       -103.304092,
       43.933181
      ],
      [
       -103.304452,
       43.933269
      ],
      [
       -103.304822,
       43.933334
      ],
      [
       -103.305198,
       43.933375
      ],
      [
       -103.305578,
       43.933393
      ],
      [
       -103.305958,
       43.933387
      ],
      [
       -103.306336,
       43.933356
      ],
      [
       -103.306709,
       43.933302
      ],
      [
       -103.307074,
       43.933225
      ],
      [
       -103.307428,
       43.933125
      ],
      [
       -103.307769,
       43.933003
      ],
      [
       -103.308094,
       43.93286
      ],
      [
       -103.3084,
       43.932697
      ],
      [
       -103.308686,
       43.932516
      ],
      [
       -103.308948,
       43.932317
      ],
      [
       -103.309186,
       43.932103
      ],
      [
       -103.309397,
       43.931874
      ],
      [
       -103.309579,
       43.931633
      ],
      [
       -103.309732,
       43.931381
      ],
      [
       -103.309854,
       43.931121
      ],
      [
       -103.309944,
       43.930854
      ],
      [
       -103.310001,
       43.930582
      ],
      [
       -103.310025,
       43.930308
      ],
      [
       -103.310017,
       43.930033
      ],
      [
       -103.309975,
       43.92976
      ],
      [
       -103.3099,
       43.92949
      ],
      [
       -103.309793,
       43.929226
      ],
      [
       -103.309655,
       43.92897
      ],
      [
       -103.309486,
       43.928724
      ],
      [
       -103.309288,
       43.928489
      ],
      [
       -103.309063,
       43.928268
      ],
      [
       -103.308812,
       43.928061
      ],
      [
       -103.308537,
       43.927872
      ],
      [
       -103.30824,
       43.9277
      ],
      [
       -103.307924,
       43.927547
      ],
      [
       -103.30759,
       43.927416
      ],
      [
       -103.307242,
       43.927305
      ],
      [
       -103.306881,
       43.927217
      ],
      [
       -103.306512,
       43.927152
      ],
      [
       -103.306136,
       43.927111
      ],
      [
       -103.305756,
       43.927093
      ],
      [
       -103.305376,
       43.927099
      ],
      [
       -103.304998,
       43.92713
      ],
      [
       -103.304625,
       43.927184
      ],
      [
       -103.30426,
       43.927261
      ],
      [
       -103.303906,
       43.927361
      ],
      [
       -103.303565,
       43.927483
      ],
      [
       -103.30324,
       43.927626
      ],
      [
       -103.302934,
       43.927788
      ],
      [
       -103.302648,
       43.92797
      ],
      [
       -103.302386,
       43.928169
      ],
      [
       -103.302148,
       43.928383
      ],
      [
       -103.301937,
       43.928612
      ],
      [
       -103.301755,
       43.928853
      ],
      [
       -103.301602,
       43.929105
      ],
      [
       -103.30148,
       43.929365
      ],
      [
       -103.30139,
       43.929632
      ],
      [
       -103.301333,
       43.929904
      ],
      [
       -103.301309,
       43.930178
      ]
     ]
    ]
   }
  },
  {
   "type": "Feature",
   "properties": {
    "FeatureCategory": "Management Action Point Area",
    "Label": "MAP 1 \u2014 Access Road",
    "IsVisible": "Yes",
    "MapMethod": "Digitized-Topo",
    "GeometryID": "YE-PY-0010",
    "IncidentName": "Yellow",
    "IRWINID": null,
    "CreateName": "TRAINEE, GISS",
    "CreateDate": "2026-07-30T04:05:00-06:00",
    "DeleteThis": "No",
    "Comments": "Trigger: fire crosses the drainage west of DP 3 \u2014 evacuate the training grounds.",
    "GISAcres": 193.8,
    "PolygonDateTime": null
   },
   "geometry": {
    "type": "Polygon",
    "coordinates": [
     [
      [
       -103.30056,
       43.923502
      ],
      [
       -103.300573,
       43.923894
      ],
      [
       -103.300633,
       43.924284
      ],
      [
       -103.300739,
       43.924669
      ],
      [
       -103.300892,
       43.925046
      ],
      [
       -103.301089,
       43.925412
      ],
      [
       -103.30133,
       43.925764
      ],
      [
       -103.301613,
       43.926099
      ],
      [
       -103.301935,
       43.926416
      ],
      [
       -103.302293,
       43.926711
      ],
      [
       -103.302686,
       43.926982
      ],
      [
       -103.30311,
       43.927227
      ],
      [
       -103.303562,
       43.927445
      ],
      [
       -103.304039,
       43.927633
      ],
      [
       -103.304537,
       43.927791
      ],
      [
       -103.305051,
       43.927917
      ],
      [
       -103.305579,
       43.928009
      ],
      [
       -103.306116,
       43.928069
      ],
      [
       -103.306658,
       43.928094
      ],
      [
       -103.307201,
       43.928085
      ],
      [
       -103.307741,
       43.928042
      ],
      [
       -103.308274,
       43.927964
      ],
      [
       -103.308795,
       43.927854
      ],
      [
       -103.309302,
       43.927711
      ],
      [
       -103.309788,
       43.927537
      ],
      [
       -103.310253,
       43.927333
      ],
      [
       -103.31069,
       43.9271
      ],
      [
       -103.311098,
       43.926841
      ],
      [
       -103.311473,
       43.926557
      ],
      [
       -103.311813,
       43.92625
      ],
      [
       -103.312114,
       43.925924
      ],
      [
       -103.312375,
       43.925579
      ],
      [
       -103.312593,
       43.92522
      ],
      [
       -103.312767,
       43.924848
      ],
      [
       -103.312895,
       43.924466
      ],
      [
       -103.312977,
       43.924078
      ],
      [
       -103.313012,
       43.923686
      ],
      [
       -103.312999,
       43.923294
      ],
      [
       -103.312939,
       43.922903
      ],
      [
       -103.312833,
       43.922518
      ],
      [
       -103.31268,
       43.922142
      ],
      [
       -103.312482,
       43.921776
      ],
      [
       -103.312241,
       43.921424
      ],
      [
       -103.311959,
       43.921088
      ],
      [
       -103.311637,
       43.920772
      ],
      [
       -103.311278,
       43.920477
      ],
      [
       -103.310885,
       43.920206
      ],
      [
       -103.310461,
       43.919961
      ],
      [
       -103.310009,
       43.919743
      ],
      [
       -103.309533,
       43.919555
      ],
      [
       -103.309035,
       43.919397
      ],
      [
       -103.308521,
       43.919271
      ],
      [
       -103.307993,
       43.919179
      ],
      [
       -103.307456,
       43.919119
      ],
      [
       -103.306914,
       43.919094
      ],
      [
       -103.306371,
       43.919103
      ],
      [
       -103.305831,
       43.919146
      ],
      [
       -103.305298,
       43.919224
      ],
      [
       -103.304777,
       43.919334
      ],
      [
       -103.304271,
       43.919477
      ],
      [
       -103.303784,
       43.919651
      ],
      [
       -103.30332,
       43.919855
      ],
      [
       -103.302882,
       43.920088
      ],
      [
       -103.302474,
       43.920347
      ],
      [
       -103.302099,
       43.920631
      ],
      [
       -103.30176,
       43.920937
      ],
      [
       -103.301458,
       43.921264
      ],
      [
       -103.301198,
       43.921609
      ],
      [
       -103.30098,
       43.921968
      ],
      [
       -103.300806,
       43.92234
      ],
      [
       -103.300677,
       43.922722
      ],
      [
       -103.300595,
       43.92311
      ],
      [
       -103.30056,
       43.923502
      ]
     ]
    ]
   }
  },
  {
   "type": "Feature",
   "properties": {
    "FeatureCategory": "Evacuation Area",
    "Label": "Zone A \u2014 GO",
    "IsVisible": "Yes",
    "MapMethod": "Digitized-Other",
    "GeometryID": "YE-PY-0011",
    "IncidentName": "Yellow",
    "IRWINID": null,
    "CreateName": "TRAINEE, GISS",
    "CreateDate": "2026-07-30T04:05:00-06:00",
    "DeleteThis": "No",
    "Comments": "Immediate evacuation. Structures inside the Management Action Point trigger.",
    "GISAcres": 1744.5,
    "PolygonDateTime": null
   },
   "geometry": {
    "type": "Polygon",
    "coordinates": [
     [
      [
       -103.281596,
       43.938206
      ],
      [
       -103.281634,
       43.939383
      ],
      [
       -103.281813,
       43.940554
      ],
      [
       -103.282132,
       43.941709
      ],
      [
       -103.28259,
       43.942839
      ],
      [
       -103.283182,
       43.943937
      ],
      [
       -103.283905,
       43.944993
      ],
      [
       -103.284752,
       43.945999
      ],
      [
       -103.285718,
       43.946948
      ],
      [
       -103.286794,
       43.947833
      ],
      [
       -103.287973,
       43.948647
      ],
      [
       -103.289245,
       43.949383
      ],
      [
       -103.290602,
       43.950036
      ],
      [
       -103.292032,
       43.950602
      ],
      [
       -103.293526,
       43.951075
      ],
      [
       -103.29507,
       43.951452
      ],
      [
       -103.296654,
       43.951731
      ],
      [
       -103.298266,
       43.951909
      ],
      [
       -103.299893,
       43.951984
      ],
      [
       -103.301523,
       43.951957
      ],
      [
       -103.303144,
       43.951828
      ],
      [
       -103.304743,
       43.951596
      ],
      [
       -103.306307,
       43.951265
      ],
      [
       -103.307826,
       43.950837
      ],
      [
       -103.309287,
       43.950315
      ],
      [
       -103.31068,
       43.949702
      ],
      [
       -103.311994,
       43.949004
      ],
      [
       -103.313218,
       43.948226
      ],
      [
       -103.314344,
       43.947374
      ],
      [
       -103.315363,
       43.946455
      ],
      [
       -103.316266,
       43.945474
      ],
      [
       -103.317049,
       43.944441
      ],
      [
       -103.317703,
       43.943362
      ],
      [
       -103.318225,
       43.942246
      ],
      [
       -103.31861,
       43.941101
      ],
      [
       -103.318856,
       43.939937
      ],
      [
       -103.31896,
       43.938761
      ],
      [
       -103.318922,
       43.937584
      ],
      [
       -103.318742,
       43.936413
      ],
      [
       -103.318422,
       43.935258
      ],
      [
       -103.317963,
       43.934128
      ],
      [
       -103.31737,
       43.93303
      ],
      [
       -103.316647,
       43.931975
      ],
      [
       -103.3158,
       43.930969
      ],
      [
       -103.314834,
       43.93002
      ],
      [
       -103.313758,
       43.929135
      ],
      [
       -103.312579,
       43.928322
      ],
      [
       -103.311306,
       43.927586
      ],
      [
       -103.30995,
       43.926933
      ],
      [
       -103.30852,
       43.926367
      ],
      [
       -103.307028,
       43.925894
      ],
      [
       -103.305484,
       43.925517
      ],
      [
       -103.3039,
       43.925239
      ],
      [
       -103.302289,
       43.925061
      ],
      [
       -103.300663,
       43.924986
      ],
      [
       -103.299033,
       43.925013
      ],
      [
       -103.297413,
       43.925142
      ],
      [
       -103.295815,
       43.925373
      ],
      [
       -103.294251,
       43.925704
      ],
      [
       -103.292733,
       43.926133
      ],
      [
       -103.291272,
       43.926655
      ],
      [
       -103.28988,
       43.927267
      ],
      [
       -103.288566,
       43.927965
      ],
      [
       -103.287342,
       43.928742
      ],
      [
       -103.286216,
       43.929594
      ],
      [
       -103.285197,
       43.930513
      ],
      [
       -103.284293,
       43.931493
      ],
      [
       -103.283511,
       43.932527
      ],
      [
       -103.282856,
       43.933605
      ],
      [
       -103.282334,
       43.934721
      ],
      [
       -103.281948,
       43.935866
      ],
      [
       -103.281701,
       43.93703
      ],
      [
       -103.281596,
       43.938206
      ]
     ]
    ]
   }
  },
  {
   "type": "Feature",
   "properties": {
    "FeatureCategory": "Evacuation Area",
    "Label": "Zone B \u2014 SET",
    "IsVisible": "Yes",
    "MapMethod": "Digitized-Other",
    "GeometryID": "YE-PY-0012",
    "IncidentName": "Yellow",
    "IRWINID": null,
    "CreateName": "TRAINEE, GISS",
    "CreateDate": "2026-07-30T04:05:00-06:00",
    "DeleteThis": "No",
    "Comments": "Be ready. Sheriff will upgrade if the fire crosses the drainage.",
    "GISAcres": 3752.5,
    "PolygonDateTime": null
   },
   "geometry": {
    "type": "Polygon",
    "coordinates": [
     [
      [
       -103.276184,
       43.908425
      ],
      [
       -103.276238,
       43.910152
      ],
      [
       -103.276501,
       43.911869
      ],
      [
       -103.276969,
       43.913563
      ],
      [
       -103.27764,
       43.915222
      ],
      [
       -103.278509,
       43.916831
      ],
      [
       -103.279568,
       43.91838
      ],
      [
       -103.28081,
       43.919856
      ],
      [
       -103.282225,
       43.921248
      ],
      [
       -103.283803,
       43.922546
      ],
      [
       -103.285531,
       43.923739
      ],
      [
       -103.287397,
       43.924819
      ],
      [
       -103.289386,
       43.925777
      ],
      [
       -103.291483,
       43.926607
      ],
      [
       -103.293672,
       43.927301
      ],
      [
       -103.295936,
       43.927854
      ],
      [
       -103.298259,
       43.928263
      ],
      [
       -103.300622,
       43.928523
      ],
      [
       -103.303007,
       43.928634
      ],
      [
       -103.305397,
       43.928594
      ],
      [
       -103.307773,
       43.928404
      ],
      [
       -103.310117,
       43.928065
      ],
      [
       -103.312411,
       43.927579
      ],
      [
       -103.314637,
       43.926951
      ],
      [
       -103.31678,
       43.926184
      ],
      [
       -103.318822,
       43.925286
      ],
      [
       -103.320747,
       43.924262
      ],
      [
       -103.322542,
       43.923121
      ],
      [
       -103.324192,
       43.921871
      ],
      [
       -103.325685,
       43.920522
      ],
      [
       -103.32701,
       43.919085
      ],
      [
       -103.328156,
       43.917569
      ],
      [
       -103.329115,
       43.915986
      ],
      [
       -103.32988,
       43.914349
      ],
      [
       -103.330444,
       43.91267
      ],
      [
       -103.330804,
       43.910963
      ],
      [
       -103.330957,
       43.909238
      ],
      [
       -103.330901,
       43.907511
      ],
      [
       -103.330637,
       43.905794
      ],
      [
       -103.330167,
       43.9041
      ],
      [
       -103.329494,
       43.902442
      ],
      [
       -103.328625,
       43.900833
      ],
      [
       -103.327565,
       43.899285
      ],
      [
       -103.326322,
       43.897809
      ],
      [
       -103.324906,
       43.896418
      ],
      [
       -103.323328,
       43.895121
      ],
      [
       -103.3216,
       43.893928
      ],
      [
       -103.319735,
       43.892848
      ],
      [
       -103.317746,
       43.891891
      ],
      [
       -103.31565,
       43.891062
      ],
      [
       -103.313462,
       43.890368
      ],
      [
       -103.311199,
       43.889815
      ],
      [
       -103.308878,
       43.889407
      ],
      [
       -103.306516,
       43.889146
      ],
      [
       -103.304132,
       43.889036
      ],
      [
       -103.301744,
       43.889076
      ],
      [
       -103.29937,
       43.889266
      ],
      [
       -103.297027,
       43.889605
      ],
      [
       -103.294735,
       43.89009
      ],
      [
       -103.292509,
       43.890718
      ],
      [
       -103.290368,
       43.891484
      ],
      [
       -103.288327,
       43.892382
      ],
      [
       -103.286402,
       43.893405
      ],
      [
       -103.284607,
       43.894546
      ],
      [
       -103.282957,
       43.895795
      ],
      [
       -103.281463,
       43.897143
      ],
      [
       -103.280138,
       43.898581
      ],
      [
       -103.278991,
       43.900096
      ],
      [
       -103.278031,
       43.901678
      ],
      [
       -103.277265,
       43.903315
      ],
      [
       -103.276699,
       43.904993
      ],
      [
       -103.276338,
       43.906701
      ],
      [
       -103.276184,
       43.908425
      ]
     ]
    ]
   }
  },
  {
   "type": "Feature",
   "properties": {
    "FeatureCategory": "Evacuation Area",
    "Label": "Zone C \u2014 READY",
    "IsVisible": "Yes",
    "MapMethod": "Digitized-Other",
    "GeometryID": "YE-PY-0013",
    "IncidentName": "Yellow",
    "IRWINID": null,
    "CreateName": "TRAINEE, GISS",
    "CreateDate": "2026-07-30T04:05:00-06:00",
    "DeleteThis": "No",
    "Comments": "Stay informed.",
    "GISAcres": 5241.1,
    "PolygonDateTime": null
   },
   "geometry": {
    "type": "Polygon",
    "coordinates": [
     [
      [
       -103.273094,
       43.882469
      ],
      [
       -103.273158,
       43.88451
      ],
      [
       -103.273468,
       43.886539
      ],
      [
       -103.274021,
       43.888541
      ],
      [
       -103.274814,
       43.890501
      ],
      [
       -103.275839,
       43.892403
      ],
      [
       -103.277091,
       43.894233
      ],
      [
       -103.278558,
       43.895978
      ],
      [
       -103.28023,
       43.897623
      ],
      [
       -103.282093,
       43.899157
      ],
      [
       -103.284135,
       43.900567
      ],
      [
       -103.286339,
       43.901844
      ],
      [
       -103.288689,
       43.902976
      ],
      [
       -103.291166,
       43.903956
      ],
      [
       -103.293752,
       43.904776
      ],
      [
       -103.296427,
       43.90543
      ],
      [
       -103.299171,
       43.905913
      ],
      [
       -103.301963,
       43.906221
      ],
      [
       -103.304781,
       43.906352
      ],
      [
       -103.307604,
       43.906305
      ],
      [
       -103.310411,
       43.90608
      ],
      [
       -103.31318,
       43.905679
      ],
      [
       -103.31589,
       43.905105
      ],
      [
       -103.318521,
       43.904362
      ],
      [
       -103.321052,
       43.903456
      ],
      [
       -103.323464,
       43.902395
      ],
      [
       -103.325738,
       43.901185
      ],
      [
       -103.327858,
       43.899836
      ],
      [
       -103.329808,
       43.898359
      ],
      [
       -103.331571,
       43.896764
      ],
      [
       -103.333136,
       43.895065
      ],
      [
       -103.33449,
       43.893273
      ],
      [
       -103.335623,
       43.891403
      ],
      [
       -103.336526,
       43.889469
      ],
      [
       -103.337193,
       43.887484
      ],
      [
       -103.337617,
       43.885466
      ],
      [
       -103.337797,
       43.883428
      ],
      [
       -103.337731,
       43.881387
      ],
      [
       -103.337419,
       43.879358
      ],
      [
       -103.336863,
       43.877356
      ],
      [
       -103.336069,
       43.875397
      ],
      [
       -103.335041,
       43.873495
      ],
      [
       -103.333789,
       43.871665
      ],
      [
       -103.332321,
       43.869921
      ],
      [
       -103.330648,
       43.868277
      ],
      [
       -103.328784,
       43.866744
      ],
      [
       -103.326742,
       43.865334
      ],
      [
       -103.324539,
       43.864059
      ],
      [
       -103.32219,
       43.862927
      ],
      [
       -103.319714,
       43.861948
      ],
      [
       -103.317129,
       43.861128
      ],
      [
       -103.314456,
       43.860475
      ],
      [
       -103.311714,
       43.859992
      ],
      [
       -103.308924,
       43.859684
      ],
      [
       -103.306108,
       43.859554
      ],
      [
       -103.303287,
       43.859601
      ],
      [
       -103.300482,
       43.859826
      ],
      [
       -103.297715,
       43.860227
      ],
      [
       -103.295007,
       43.8608
      ],
      [
       -103.292378,
       43.861542
      ],
      [
       -103.289849,
       43.862448
      ],
      [
       -103.287438,
       43.863509
      ],
      [
       -103.285164,
       43.864718
      ],
      [
       -103.283044,
       43.866066
      ],
      [
       -103.281095,
       43.867542
      ],
      [
       -103.279331,
       43.869136
      ],
      [
       -103.277765,
       43.870834
      ],
      [
       -103.27641,
       43.872625
      ],
      [
       -103.275276,
       43.874495
      ],
      [
       -103.274371,
       43.876429
      ],
      [
       -103.273703,
       43.878413
      ],
      [
       -103.273276,
       43.880431
      ],
      [
       -103.273094,
       43.882469
      ]
     ]
    ]
   }
  },
  {
   "type": "Feature",
   "properties": {
    "FeatureCategory": "Repair Area",
    "Label": "Div Z Dozer Repair",
    "IsVisible": "Yes",
    "MapMethod": "GPS-Walked",
    "GeometryID": "YE-PY-0014",
    "IncidentName": "Yellow",
    "IRWINID": null,
    "CreateName": "TRAINEE, GISS",
    "CreateDate": "2026-07-30T04:05:00-06:00",
    "DeleteThis": "No",
    "Comments": "Waterbar, pull berm back, scatter slash. Two blades wide.",
    "GISAcres": 154.5,
    "PolygonDateTime": null
   },
   "geometry": {
    "type": "Polygon",
    "coordinates": [
     [
      [
       -103.301384,
       43.979544
      ],
      [
       -103.314885,
       43.981697
      ],
      [
       -103.3275,
       43.978226
      ],
      [
       -103.337202,
       43.972376
      ],
      [
       -103.334753,
       43.963651
      ],
      [
       -103.330185,
       43.955231
      ],
      [
       -103.330185,
       43.955231
      ],
      [
       -103.330138,
       43.955094
      ],
      [
       -103.330142,
       43.954953
      ],
      [
       -103.330196,
       43.954818
      ],
      [
       -103.330297,
       43.954697
      ],
      [
       -103.330438,
       43.954599
      ],
      [
       -103.330608,
       43.954531
      ],
      [
       -103.330798,
       43.954497
      ],
      [
       -103.330993,
       43.9545
      ],
      [
       -103.331181,
       43.954539
      ],
      [
       -103.331348,
       43.954612
      ],
      [
       -103.331483,
       43.954714
      ],
      [
       -103.331577,
       43.954837
      ],
      [
       -103.331577,
       43.954837
      ],
      [
       -103.336189,
       43.963351
      ],
      [
       -103.338608,
       43.972742
      ],
      [
       -103.328254,
       43.979158
      ],
      [
       -103.314991,
       43.982775
      ],
      [
       -103.301064,
       43.9806
      ],
      [
       -103.301064,
       43.9806
      ],
      [
       -103.300881,
       43.980552
      ],
      [
       -103.30072,
       43.980471
      ],
      [
       -103.300594,
       43.980364
      ],
      [
       -103.300511,
       43.980236
      ],
      [
       -103.300477,
       43.980097
      ],
      [
       -103.300493,
       43.979957
      ],
      [
       -103.30056,
       43.979824
      ],
      [
       -103.300671,
       43.979708
      ],
      [
       -103.30082,
       43.979617
      ],
      [
       -103.300997,
       43.979557
      ],
      [
       -103.301189,
       43.979532
      ],
      [
       -103.301384,
       43.979544
      ],
      [
       -103.301384,
       43.979544
      ]
     ]
    ]
   }
  },
  {
   "type": "Feature",
   "properties": {
    "FeatureCategory": "Repair Area",
    "Label": "Div Z Road Repair",
    "IsVisible": "Yes",
    "MapMethod": "GPS-Walked",
    "GeometryID": "YE-PY-0015",
    "IncidentName": "Yellow",
    "IRWINID": null,
    "CreateName": "TRAINEE, GISS",
    "CreateDate": "2026-07-30T04:05:00-06:00",
    "DeleteThis": "No",
    "Comments": "Blade back to template, reinstall drainage.",
    "GISAcres": 39.4,
    "PolygonDateTime": null
   },
   "geometry": {
    "type": "Polygon",
    "coordinates": [
     [
      [
       -103.330444,
       43.955207
      ],
      [
       -103.324618,
       43.947529
      ],
      [
       -103.317542,
       43.940617
      ],
      [
       -103.317542,
       43.940617
      ],
      [
       -103.317479,
       43.940535
      ],
      [
       -103.317448,
       43.940444
      ],
      [
       -103.31745,
       43.94035
      ],
      [
       -103.317486,
       43.940259
      ],
      [
       -103.317553,
       43.940179
      ],
      [
       -103.317647,
       43.940113
      ],
      [
       -103.317761,
       43.940068
      ],
      [
       -103.317887,
       43.940045
      ],
      [
       -103.318017,
       43.940047
      ],
      [
       -103.318142,
       43.940073
      ],
      [
       -103.318253,
       43.940121
      ],
      [
       -103.318344,
       43.940189
      ],
      [
       -103.318344,
       43.940189
      ],
      [
       -103.325458,
       43.947141
      ],
      [
       -103.331318,
       43.954861
      ],
      [
       -103.331318,
       43.954861
      ],
      [
       -103.331365,
       43.954948
      ],
      [
       -103.331379,
       43.955042
      ],
      [
       -103.331359,
       43.955135
      ],
      [
       -103.331307,
       43.955221
      ],
      [
       -103.331226,
       43.955294
      ],
      [
       -103.331121,
       43.95535
      ],
      [
       -103.330999,
       43.955384
      ],
      [
       -103.33087,
       43.955394
      ],
      [
       -103.330741,
       43.95538
      ],
      [
       -103.330622,
       43.955342
      ],
      [
       -103.330521,
       43.955283
      ],
      [
       -103.330444,
       43.955207
      ],
      [
       -103.330444,
       43.955207
      ]
     ]
    ]
   }
  }
 ]
}
