{
 "type": "FeatureCollection",
 "name": "EventPolygon",
 "crs": {
  "type": "name",
  "properties": {
   "name": "urn:ogc:def:crs:OGC:1.3:CRS84"
  }
 },
 "_warning": "TRAINING EXERCISE \u2014 NOT AN ACTUAL INCIDENT. Fabricated data. Never publish, never sync to NIFS or NIFC AGOL.",
 "_fire": "Orange",
 "_generated_by": "scripts/make_fires.py",
 "features": [
  {
   "type": "Feature",
   "properties": {
    "FeatureCategory": "Wildfire Daily Fire Perimeter",
    "Label": "Orange 07/27",
    "IsVisible": "Yes",
    "MapMethod": "Infrared Image",
    "GeometryID": "OR-PY-0001",
    "IncidentName": "Orange",
    "IRWINID": null,
    "CreateName": "TRAINEE, GISS",
    "CreateDate": "2026-07-29T04:15:00-06:00",
    "DeleteThis": "No",
    "Comments": "Earlier perimeter.",
    "GISAcres": 118.0,
    "PolygonDateTime": "2026-07-27T02:14:00-06:00"
   },
   "geometry": {
    "type": "Polygon",
    "coordinates": [
     [
      [
       -103.364685,
       43.926444
      ],
      [
       -103.364518,
       43.929092
      ],
      [
       -103.36245,
       43.931098
      ],
      [
       -103.358889,
       43.931827
      ],
      [
       -103.355515,
       43.931074
      ],
      [
       -103.353799,
       43.92895
      ],
      [
       -103.354916,
       43.926623
      ],
      [
       -103.358364,
       43.925469
      ],
      [
       -103.362231,
       43.925461
      ],
      [
       -103.364685,
       43.926444
      ]
     ]
    ]
   }
  },
  {
   "type": "Feature",
   "properties": {
    "FeatureCategory": "Wildfire Daily Fire Perimeter",
    "Label": "Orange 07/28",
    "IsVisible": "Yes",
    "MapMethod": "Infrared Image",
    "GeometryID": "OR-PY-0002",
    "IncidentName": "Orange",
    "IRWINID": null,
    "CreateName": "TRAINEE, GISS",
    "CreateDate": "2026-07-29T04:15:00-06:00",
    "DeleteThis": "No",
    "Comments": "Operational period 1 perimeter.",
    "GISAcres": 379.8,
    "PolygonDateTime": "2026-07-28T02:14:00-06:00"
   },
   "geometry": {
    "type": "Polygon",
    "coordinates": [
     [
      [
       -103.366661,
       43.925179
      ],
      [
       -103.367035,
       43.928783
      ],
      [
       -103.365098,
       43.932378
      ],
      [
       -103.361034,
       43.934483
      ],
      [
       -103.355479,
       43.935312
      ],
      [
       -103.350427,
       43.934765
      ],
      [
       -103.347238,
       43.93253
      ],
      [
       -103.346976,
       43.929351
      ],
      [
       -103.349771,
       43.926818
      ],
      [
       -103.354785,
       43.925034
      ],
      [
       -103.36034,
       43.924205
      ],
      [
       -103.364646,
       43.924113
      ],
      [
       -103.366661,
       43.925179
      ]
     ]
    ]
   }
  },
  {
   "type": "Feature",
   "properties": {
    "FeatureCategory": "Wildfire Daily Fire Perimeter",
    "Label": "Orange 07/29",
    "IsVisible": "Yes",
    "MapMethod": "GPS-Flight",
    "GeometryID": "OR-PY-0003",
    "IncidentName": "Orange",
    "IRWINID": null,
    "CreateName": "TRAINEE, GISS",
    "CreateDate": "2026-07-29T04:15:00-06:00",
    "DeleteThis": "No",
    "Comments": "Operational period 2 perimeter.",
    "GISAcres": 865.0,
    "PolygonDateTime": "2026-07-29T02:14:00-06:00"
   },
   "geometry": {
    "type": "Polygon",
    "coordinates": [
     [
      [
       -103.368636,
       43.923915
      ],
      [
       -103.369347,
       43.92879
      ],
      [
       -103.367429,
       43.933551
      ],
      [
       -103.362545,
       43.936924
      ],
      [
       -103.355219,
       43.9387
      ],
      [
       -103.348079,
       43.938994
      ],
      [
       -103.341759,
       43.93802
      ],
      [
       -103.338347,
       43.934937
      ],
      [
       -103.338178,
       43.931017
      ],
      [
       -103.341792,
       43.927216
      ],
      [
       -103.347328,
       43.925221
      ],
      [
       -103.353293,
       43.923758
      ],
      [
       -103.35937,
       43.922718
      ],
      [
       -103.365037,
       43.922314
      ],
      [
       -103.368636,
       43.923915
      ]
     ]
    ]
   }
  },
  {
   "type": "Feature",
   "properties": {
    "FeatureCategory": "Temporary Flight Restriction",
    "Label": "TFR 5 NM",
    "IsVisible": "Yes",
    "MapMethod": "Digitized-Other",
    "GeometryID": "OR-PY-0004",
    "IncidentName": "Orange",
    "IRWINID": null,
    "CreateName": "TRAINEE, GISS",
    "CreateDate": "2026-07-29T04:15:00-06:00",
    "DeleteThis": "No",
    "Comments": "5 NM radius, surface to 8500 ft MSL. Exercise only \u2014 no real TFR exists. Wider than the AOI, which is why air ops needs a wider extent than ops.",
    "GISAcres": 66481.8,
    "PolygonDateTime": null
   },
   "geometry": {
    "type": "Polygon",
    "coordinates": [
     [
      [
       -103.23969,
       43.928281
      ],
      [
       -103.239914,
       43.935551
      ],
      [
       -103.241015,
       43.942779
      ],
      [
       -103.242983,
       43.94991
      ],
      [
       -103.245805,
       43.95689
      ],
      [
       -103.249459,
       43.963666
      ],
      [
       -103.253918,
       43.970186
      ],
      [
       -103.259147,
       43.9764
      ],
      [
       -103.265108,
       43.982261
      ],
      [
       -103.271755,
       43.987724
      ],
      [
       -103.279036,
       43.992747
      ],
      [
       -103.286898,
       43.997293
      ],
      [
       -103.29528,
       44.001326
      ],
      [
       -103.304118,
       44.004816
      ],
      [
       -103.313345,
       44.007736
      ],
      [
       -103.32289,
       44.010064
      ],
      [
       -103.332681,
       44.011781
      ],
      [
       -103.342642,
       44.012876
      ],
      [
       -103.352697,
       44.013338
      ],
      [
       -103.362771,
       44.013166
      ],
      [
       -103.372785,
       44.01236
      ],
      [
       -103.382663,
       44.010926
      ],
      [
       -103.392329,
       44.008875
      ],
      [
       -103.401711,
       44.006224
      ],
      [
       -103.410735,
       44.002991
      ],
      [
       -103.419334,
       43.999202
      ],
      [
       -103.427442,
       43.994887
      ],
      [
       -103.434996,
       43.990077
      ],
      [
       -103.44194,
       43.984809
      ],
      [
       -103.44822,
       43.979124
      ],
      [
       -103.453789,
       43.973066
      ],
      [
       -103.458605,
       43.966679
      ],
      [
       -103.462631,
       43.960014
      ],
      [
       -103.465836,
       43.95312
      ],
      [
       -103.468197,
       43.946051
      ],
      [
       -103.469695,
       43.93886
      ],
      [
       -103.47032,
       43.931602
      ],
      [
       -103.470068,
       43.924333
      ],
      [
       -103.46894,
       43.917106
      ],
      [
       -103.466945,
       43.909979
      ],
      [
       -103.464099,
       43.903004
      ],
      [
       -103.460424,
       43.896235
      ],
      [
       -103.455948,
       43.889723
      ],
      [
       -103.450705,
       43.883517
      ],
      [
       -103.444735,
       43.877666
      ],
      [
       -103.438085,
       43.872213
      ],
      [
       -103.430803,
       43.867199
      ],
      [
       -103.422947,
       43.862663
      ],
      [
       -103.414575,
       43.858639
      ],
      [
       -103.405752,
       43.855158
      ],
      [
       -103.396544,
       43.852246
      ],
      [
       -103.387021,
       43.849925
      ],
      [
       -103.377255,
       43.848212
      ],
      [
       -103.36732,
       43.847121
      ],
      [
       -103.357293,
       43.84666
      ],
      [
       -103.347248,
       43.846833
      ],
      [
       -103.337261,
       43.847637
      ],
      [
       -103.327409,
       43.849068
      ],
      [
       -103.317767,
       43.851113
      ],
      [
       -103.308406,
       43.853758
      ],
      [
       -103.299399,
       43.856983
      ],
      [
       -103.290814,
       43.860763
      ],
      [
       -103.282715,
       43.865069
      ],
      [
       -103.275165,
       43.869869
      ],
      [
       -103.26822,
       43.875127
      ],
      [
       -103.261934,
       43.880802
      ],
      [
       -103.256355,
       43.886851
      ],
      [
       -103.251525,
       43.893228
      ],
      [
       -103.24748,
       43.899886
      ],
      [
       -103.244253,
       43.906773
      ],
      [
       -103.241868,
       43.913837
      ],
      [
       -103.240343,
       43.921025
      ],
      [
       -103.23969,
       43.928281
      ]
     ]
    ]
   }
  },
  {
   "type": "Feature",
   "properties": {
    "FeatureCategory": "Aerial Hazard Area",
    "Label": "Powerline Corridor",
    "IsVisible": "Yes",
    "MapMethod": "Digitized-Other",
    "GeometryID": "OR-PY-0005",
    "IncidentName": "Orange",
    "IRWINID": null,
    "CreateName": "TRAINEE, GISS",
    "CreateDate": "2026-07-29T04:15:00-06:00",
    "DeleteThis": "No",
    "Comments": "Distribution line. No low-level flight.",
    "GISAcres": 1024.4,
    "PolygonDateTime": null
   },
   "geometry": {
    "type": "Polygon",
    "coordinates": [
     [
      [
       -103.36089,
       43.959899
      ],
      [
       -103.35011,
       43.953229
      ],
      [
       -103.338974,
       43.948006
      ],
      [
       -103.326682,
       43.944595
      ],
      [
       -103.3131,
       43.942283
      ],
      [
       -103.3131,
       43.942283
      ],
      [
       -103.311884,
       43.941949
      ],
      [
       -103.310829,
       43.941399
      ],
      [
       -103.310007,
       43.940671
      ],
      [
       -103.309474,
       43.939813
      ],
      [
       -103.309266,
       43.938885
      ],
      [
       -103.309398,
       43.93795
      ],
      [
       -103.30986,
       43.937072
      ],
      [
       -103.310621,
       43.936309
      ],
      [
       -103.311629,
       43.935715
      ],
      [
       -103.312816,
       43.93533
      ],
      [
       -103.3141,
       43.93518
      ],
      [
       -103.315394,
       43.935275
      ],
      [
       -103.315394,
       43.935275
      ],
      [
       -103.329621,
       43.937713
      ],
      [
       -103.343502,
       43.94159
      ],
      [
       -103.356078,
       43.947461
      ],
      [
       -103.367368,
       43.954425
      ],
      [
       -103.367368,
       43.954425
      ],
      [
       -103.368238,
       43.955124
      ],
      [
       -103.368828,
       43.955962
      ],
      [
       -103.369098,
       43.956881
      ],
      [
       -103.36903,
       43.95782
      ],
      [
       -103.368627,
       43.958714
      ],
      [
       -103.367918,
       43.959502
      ],
      [
       -103.36695,
       43.96013
      ],
      [
       -103.36579,
       43.960557
      ],
      [
       -103.364517,
       43.960752
      ],
      [
       -103.363218,
       43.960702
      ],
      [
       -103.361981,
       43.960411
      ],
      [
       -103.36089,
       43.959899
      ],
      [
       -103.36089,
       43.959899
      ]
     ]
    ]
   }
  },
  {
   "type": "Feature",
   "properties": {
    "FeatureCategory": "Retardant Avoidance Area",
    "Label": "Spring Creek",
    "IsVisible": "Yes",
    "MapMethod": "Digitized-Other",
    "GeometryID": "OR-PY-0006",
    "IncidentName": "Orange",
    "IRWINID": null,
    "CreateName": "TRAINEE, GISS",
    "CreateDate": "2026-07-29T04:15:00-06:00",
    "DeleteThis": "No",
    "Comments": "300 m each side of the creek. Exercise buffer.",
    "GISAcres": 456.8,
    "PolygonDateTime": null
   },
   "geometry": {
    "type": "Polygon",
    "coordinates": [
     [
      [
       -103.315184,
       43.928919
      ],
      [
       -103.322118,
       43.92807
      ],
      [
       -103.328879,
       43.927863
      ],
      [
       -103.336065,
       43.928228
      ],
      [
       -103.342917,
       43.929285
      ],
      [
       -103.349095,
       43.930958
      ],
      [
       -103.349095,
       43.930958
      ],
      [
       -103.349956,
       43.93129
      ],
      [
       -103.350668,
       43.931772
      ],
      [
       -103.351183,
       43.932371
      ],
      [
       -103.351466,
       43.933045
      ],
      [
       -103.351498,
       43.93375
      ],
      [
       -103.351276,
       43.934436
      ],
      [
       -103.350816,
       43.935058
      ],
      [
       -103.35015,
       43.935573
      ],
      [
       -103.349321,
       43.935945
      ],
      [
       -103.348387,
       43.936149
      ],
      [
       -103.347412,
       43.936172
      ],
      [
       -103.346462,
       43.936012
      ],
      [
       -103.346462,
       43.936012
      ],
      [
       -103.340821,
       43.934469
      ],
      [
       -103.335033,
       43.933578
      ],
      [
       -103.328761,
       43.933263
      ],
      [
       -103.322922,
       43.93344
      ],
      [
       -103.316438,
       43.934243
      ],
      [
       -103.316438,
       43.934243
      ],
      [
       -103.315464,
       43.93427
      ],
      [
       -103.314512,
       43.934113
      ],
      [
       -103.31365,
       43.933784
      ],
      [
       -103.312934,
       43.933305
      ],
      [
       -103.312415,
       43.932708
      ],
      [
       -103.312127,
       43.932034
      ],
      [
       -103.31209,
       43.93133
      ],
      [
       -103.312307,
       43.930643
      ],
      [
       -103.312763,
       43.930019
      ],
      [
       -103.313426,
       43.929502
      ],
      [
       -103.314252,
       43.929127
      ],
      [
       -103.315184,
       43.928919
      ],
      [
       -103.315184,
       43.928919
      ]
     ]
    ]
   }
  },
  {
   "type": "Feature",
   "properties": {
    "FeatureCategory": "Closure Area",
    "Label": "Orange Closure",
    "IsVisible": "Yes",
    "MapMethod": "Digitized-Other",
    "GeometryID": "OR-PY-0007",
    "IncidentName": "Orange",
    "IRWINID": null,
    "CreateName": "TRAINEE, GISS",
    "CreateDate": "2026-07-29T04:15:00-06:00",
    "DeleteThis": "No",
    "Comments": "Public closure. Roads and trails inside are closed.",
    "GISAcres": 6701.6,
    "PolygonDateTime": null
   },
   "geometry": {
    "type": "Polygon",
    "coordinates": [
     [
      [
       -103.318388,
       43.929467
      ],
      [
       -103.318463,
       43.931775
      ],
      [
       -103.318815,
       43.93407
      ],
      [
       -103.319443,
       43.936333
      ],
      [
       -103.320342,
       43.938549
      ],
      [
       -103.321504,
       43.9407
      ],
      [
       -103.322922,
       43.942769
      ],
      [
       -103.324583,
       43.944741
      ],
      [
       -103.326477,
       43.9466
      ],
      [
       -103.328587,
       43.948334
      ],
      [
       -103.330899,
       43.949928
      ],
      [
       -103.333395,
       43.95137
      ],
      [
       -103.336055,
       43.952649
      ],
      [
       -103.338859,
       43.953757
      ],
      [
       -103.341787,
       43.954683
      ],
      [
       -103.344815,
       43.955421
      ],
      [
       -103.347921,
       43.955966
      ],
      [
       -103.35108,
       43.956313
      ],
      [
       -103.35427,
       43.95646
      ],
      [
       -103.357465,
       43.956405
      ],
      [
       -103.360642,
       43.956149
      ],
      [
       -103.363775,
       43.955694
      ],
      [
       -103.366841,
       43.955044
      ],
      [
       -103.369818,
       43.954203
      ],
      [
       -103.372681,
       43.953177
      ],
      [
       -103.37541,
       43.951975
      ],
      [
       -103.377983,
       43.950606
      ],
      [
       -103.380381,
       43.94908
      ],
      [
       -103.382586,
       43.947409
      ],
      [
       -103.38458,
       43.945605
      ],
      [
       -103.386349,
       43.943682
      ],
      [
       -103.38788,
       43.941656
      ],
      [
       -103.38916,
       43.93954
      ],
      [
       -103.39018,
       43.937352
      ],
      [
       -103.390932,
       43.935108
      ],
      [
       -103.391411,
       43.932826
      ],
      [
       -103.391613,
       43.930521
      ],
      [
       -103.391535,
       43.928213
      ],
      [
       -103.39118,
       43.925919
      ],
      [
       -103.39055,
       43.923655
      ],
      [
       -103.389649,
       43.92144
      ],
      [
       -103.388484,
       43.91929
      ],
      [
       -103.387065,
       43.917222
      ],
      [
       -103.385402,
       43.915251
      ],
      [
       -103.383507,
       43.913392
      ],
      [
       -103.381396,
       43.91166
      ],
      [
       -103.379085,
       43.910067
      ],
      [
       -103.37659,
       43.908626
      ],
      [
       -103.37393,
       43.907347
      ],
      [
       -103.371128,
       43.906241
      ],
      [
       -103.368202,
       43.905315
      ],
      [
       -103.365176,
       43.904578
      ],
      [
       -103.362073,
       43.904033
      ],
      [
       -103.358916,
       43.903687
      ],
      [
       -103.355729,
       43.90354
      ],
      [
       -103.352537,
       43.903595
      ],
      [
       -103.349363,
       43.903851
      ],
      [
       -103.346232,
       43.904305
      ],
      [
       -103.343168,
       43.904955
      ],
      [
       -103.340194,
       43.905796
      ],
      [
       -103.337332,
       43.90682
      ],
      [
       -103.334605,
       43.908021
      ],
      [
       -103.332033,
       43.90939
      ],
      [
       -103.329635,
       43.910915
      ],
      [
       -103.327431,
       43.912585
      ],
      [
       -103.325435,
       43.914388
      ],
      [
       -103.323665,
       43.916309
      ],
      [
       -103.322133,
       43.918335
      ],
      [
       -103.320851,
       43.92045
      ],
      [
       -103.319829,
       43.922637
      ],
      [
       -103.319074,
       43.924881
      ],
      [
       -103.318593,
       43.927163
      ],
      [
       -103.318388,
       43.929467
      ]
     ]
    ]
   }
  },
  {
   "type": "Feature",
   "properties": {
    "FeatureCategory": "Safety Zone",
    "Label": "SZ-1 Area",
    "IsVisible": "Yes",
    "MapMethod": "GPS-Walked",
    "GeometryID": "OR-PY-0008",
    "IncidentName": "Orange",
    "IRWINID": null,
    "CreateName": "TRAINEE, GISS",
    "CreateDate": "2026-07-29T04:15:00-06:00",
    "DeleteThis": "No",
    "Comments": "Meadow. Measured, not eyeballed.",
    "GISAcres": 13.1,
    "PolygonDateTime": null
   },
   "geometry": {
    "type": "Polygon",
    "coordinates": [
     [
      [
       -103.339399,
       43.92863
      ],
      [
       -103.339402,
       43.928733
      ],
      [
       -103.339418,
       43.928834
      ],
      [
       -103.339446,
       43.928934
      ],
      [
       -103.339486,
       43.929032
      ],
      [
       -103.339537,
       43.929127
      ],
      [
       -103.3396,
       43.929219
      ],
      [
       -103.339673,
       43.929306
      ],
      [
       -103.339757,
       43.929388
      ],
      [
       -103.33985,
       43.929465
      ],
      [
       -103.339952,
       43.929535
      ],
      [
       -103.340063,
       43.929599
      ],
      [
       -103.34018,
       43.929655
      ],
      [
       -103.340304,
       43.929704
      ],
      [
       -103.340434,
       43.929745
      ],
      [
       -103.340568,
       43.929778
      ],
      [
       -103.340705,
       43.929802
      ],
      [
       -103.340844,
       43.929817
      ],
      [
       -103.340985,
       43.929824
      ],
      [
       -103.341127,
       43.929822
      ],
      [
       -103.341267,
       43.92981
      ],
      [
       -103.341406,
       43.92979
      ],
      [
       -103.341541,
       43.929761
      ],
      [
       -103.341673,
       43.929724
      ],
      [
       -103.341799,
       43.929679
      ],
      [
       -103.34192,
       43.929626
      ],
      [
       -103.342034,
       43.929565
      ],
      [
       -103.34214,
       43.929498
      ],
      [
       -103.342237,
       43.929424
      ],
      [
       -103.342325,
       43.929344
      ],
      [
       -103.342404,
       43.929259
      ],
      [
       -103.342471,
       43.92917
      ],
      [
       -103.342528,
       43.929076
      ],
      [
       -103.342573,
       43.92898
      ],
      [
       -103.342607,
       43.92888
      ],
      [
       -103.342628,
       43.928779
      ],
      [
       -103.342637,
       43.928677
      ],
      [
       -103.342634,
       43.928575
      ],
      [
       -103.342618,
       43.928474
      ],
      [
       -103.34259,
       43.928374
      ],
      [
       -103.34255,
       43.928276
      ],
      [
       -103.342499,
       43.928181
      ],
      [
       -103.342436,
       43.928089
      ],
      [
       -103.342363,
       43.928002
      ],
      [
       -103.342279,
       43.92792
      ],
      [
       -103.342186,
       43.927843
      ],
      [
       -103.342083,
       43.927773
      ],
      [
       -103.341973,
       43.927709
      ],
      [
       -103.341856,
       43.927653
      ],
      [
       -103.341732,
       43.927604
      ],
      [
       -103.341602,
       43.927563
      ],
      [
       -103.341468,
       43.92753
      ],
      [
       -103.341331,
       43.927506
      ],
      [
       -103.341191,
       43.927491
      ],
      [
       -103.341051,
       43.927484
      ],
      [
       -103.340909,
       43.927486
      ],
      [
       -103.340769,
       43.927498
      ],
      [
       -103.34063,
       43.927518
      ],
      [
       -103.340495,
       43.927547
      ],
      [
       -103.340363,
       43.927584
      ],
      [
       -103.340237,
       43.927629
      ],
      [
       -103.340116,
       43.927682
      ],
      [
       -103.340002,
       43.927743
      ],
      [
       -103.339896,
       43.92781
      ],
      [
       -103.339799,
       43.927884
      ],
      [
       -103.339711,
       43.927964
      ],
      [
       -103.339632,
       43.928049
      ],
      [
       -103.339565,
       43.928138
      ],
      [
       -103.339508,
       43.928232
      ],
      [
       -103.339463,
       43.928328
      ],
      [
       -103.339429,
       43.928428
      ],
      [
       -103.339408,
       43.928529
      ],
      [
       -103.339399,
       43.92863
      ]
     ]
    ]
   }
  },
  {
   "type": "Feature",
   "properties": {
    "FeatureCategory": "Structure Group",
    "Label": "Training Grounds Structures",
    "IsVisible": "Yes",
    "MapMethod": "GPS-Walked",
    "GeometryID": "OR-PY-0009",
    "IncidentName": "Orange",
    "IRWINID": null,
    "CreateName": "TRAINEE, GISS",
    "CreateDate": "2026-07-29T04:15:00-06:00",
    "DeleteThis": "No",
    "Comments": "Lodge, dining hall, cabin row, tank. Structure protection group assigned.",
    "GISAcres": 95.0,
    "PolygonDateTime": null
   },
   "geometry": {
    "type": "Polygon",
    "coordinates": [
     [
      [
       -103.329226,
       43.928862
      ],
      [
       -103.329234,
       43.929137
      ],
      [
       -103.329276,
       43.92941
      ],
      [
       -103.329351,
       43.92968
      ],
      [
       -103.329458,
       43.929944
      ],
      [
       -103.329597,
       43.9302
      ],
      [
       -103.329765,
       43.930446
      ],
      [
       -103.329963,
       43.930681
      ],
      [
       -103.330189,
       43.930902
      ],
      [
       -103.33044,
       43.931108
      ],
      [
       -103.330715,
       43.931298
      ],
      [
       -103.331012,
       43.93147
      ],
      [
       -103.331328,
       43.931622
      ],
      [
       -103.331662,
       43.931754
      ],
      [
       -103.332011,
       43.931864
      ],
      [
       -103.332371,
       43.931952
      ],
      [
       -103.33274,
       43.932017
      ],
      [
       -103.333116,
       43.932058
      ],
      [
       -103.333496,
       43.932076
      ],
      [
       -103.333876,
       43.932069
      ],
      [
       -103.334254,
       43.932039
      ],
      [
       -103.334627,
       43.931985
      ],
      [
       -103.334992,
       43.931908
      ],
      [
       -103.335346,
       43.931808
      ],
      [
       -103.335687,
       43.931686
      ],
      [
       -103.336012,
       43.931543
      ],
      [
       -103.336318,
       43.93138
      ],
      [
       -103.336604,
       43.931198
      ],
      [
       -103.336866,
       43.930999
      ],
      [
       -103.337104,
       43.930785
      ],
      [
       -103.337315,
       43.930556
      ],
      [
       -103.337497,
       43.930315
      ],
      [
       -103.33765,
       43.930063
      ],
      [
       -103.337771,
       43.929803
      ],
      [
       -103.337861,
       43.929536
      ],
      [
       -103.337918,
       43.929264
      ],
      [
       -103.337942,
       43.928989
      ],
      [
       -103.337934,
       43.928715
      ],
      [
       -103.337891,
       43.928442
      ],
      [
       -103.337817,
       43.928172
      ],
      [
       -103.33771,
       43.927908
      ],
      [
       -103.337571,
       43.927652
      ],
      [
       -103.337402,
       43.927406
      ],
      [
       -103.337205,
       43.927171
      ],
      [
       -103.336979,
       43.92695
      ],
      [
       -103.336728,
       43.926744
      ],
      [
       -103.336453,
       43.926554
      ],
      [
       -103.336156,
       43.926382
      ],
      [
       -103.335839,
       43.92623
      ],
      [
       -103.335506,
       43.926098
      ],
      [
       -103.335157,
       43.925988
      ],
      [
       -103.334797,
       43.9259
      ],
      [
       -103.334427,
       43.925835
      ],
      [
       -103.334051,
       43.925794
      ],
      [
       -103.333672,
       43.925776
      ],
      [
       -103.333292,
       43.925783
      ],
      [
       -103.332914,
       43.925813
      ],
      [
       -103.332541,
       43.925867
      ],
      [
       -103.332176,
       43.925944
      ],
      [
       -103.331822,
       43.926044
      ],
      [
       -103.331481,
       43.926166
      ],
      [
       -103.331156,
       43.926309
      ],
      [
       -103.33085,
       43.926472
      ],
      [
       -103.330564,
       43.926654
      ],
      [
       -103.330302,
       43.926853
      ],
      [
       -103.330064,
       43.927067
      ],
      [
       -103.329854,
       43.927296
      ],
      [
       -103.329671,
       43.927537
      ],
      [
       -103.329519,
       43.927789
      ],
      [
       -103.329397,
       43.928049
      ],
      [
       -103.329307,
       43.928316
      ],
      [
       -103.32925,
       43.928588
      ],
      [
       -103.329226,
       43.928862
      ]
     ]
    ]
   }
  },
  {
   "type": "Feature",
   "properties": {
    "FeatureCategory": "Management Action Point Area",
    "Label": "MAP 1 \u2014 Access Road",
    "IsVisible": "Yes",
    "MapMethod": "Digitized-Topo",
    "GeometryID": "OR-PY-0010",
    "IncidentName": "Orange",
    "IRWINID": null,
    "CreateName": "TRAINEE, GISS",
    "CreateDate": "2026-07-29T04:15:00-06:00",
    "DeleteThis": "No",
    "Comments": "Trigger: fire crosses the drainage west of DP 3 \u2014 evacuate the training grounds.",
    "GISAcres": 193.8,
    "PolygonDateTime": null
   },
   "geometry": {
    "type": "Polygon",
    "coordinates": [
     [
      [
       -103.322761,
       43.927825
      ],
      [
       -103.322773,
       43.928217
      ],
      [
       -103.322833,
       43.928608
      ],
      [
       -103.32294,
       43.928993
      ],
      [
       -103.323093,
       43.929369
      ],
      [
       -103.323291,
       43.929735
      ],
      [
       -103.323532,
       43.930087
      ],
      [
       -103.323814,
       43.930422
      ],
      [
       -103.324136,
       43.930739
      ],
      [
       -103.324495,
       43.931033
      ],
      [
       -103.324888,
       43.931305
      ],
      [
       -103.325312,
       43.93155
      ],
      [
       -103.325765,
       43.931767
      ],
      [
       -103.326241,
       43.931956
      ],
      [
       -103.326739,
       43.932113
      ],
      [
       -103.327254,
       43.932239
      ],
      [
       -103.327782,
       43.932332
      ],
      [
       -103.328319,
       43.932391
      ],
      [
       -103.328861,
       43.932416
      ],
      [
       -103.329404,
       43.932407
      ],
      [
       -103.329944,
       43.932363
      ],
      [
       -103.330477,
       43.932286
      ],
      [
       -103.330998,
       43.932176
      ],
      [
       -103.331504,
       43.932033
      ],
      [
       -103.331991,
       43.931859
      ],
      [
       -103.332455,
       43.931654
      ],
      [
       -103.332893,
       43.931422
      ],
      [
       -103.333301,
       43.931162
      ],
      [
       -103.333676,
       43.930878
      ],
      [
       -103.334015,
       43.930572
      ],
      [
       -103.334316,
       43.930245
      ],
      [
       -103.334577,
       43.9299
      ],
      [
       -103.334795,
       43.92954
      ],
      [
       -103.334969,
       43.929168
      ],
      [
       -103.335097,
       43.928787
      ],
      [
       -103.335179,
       43.928399
      ],
      [
       -103.335213,
       43.928007
      ],
      [
       -103.335201,
       43.927614
      ],
      [
       -103.33514,
       43.927224
      ],
      [
       -103.335034,
       43.926839
      ],
      [
       -103.334881,
       43.926462
      ],
      [
       -103.334683,
       43.926097
      ],
      [
       -103.334442,
       43.925745
      ],
      [
       -103.334159,
       43.925409
      ],
      [
       -103.333837,
       43.925093
      ],
      [
       -103.333478,
       43.924798
      ],
      [
       -103.333085,
       43.924527
      ],
      [
       -103.332661,
       43.924282
      ],
      [
       -103.332209,
       43.924064
      ],
      [
       -103.331732,
       43.923876
      ],
      [
       -103.331235,
       43.923719
      ],
      [
       -103.33072,
       43.923593
      ],
      [
       -103.330192,
       43.9235
      ],
      [
       -103.329655,
       43.923441
      ],
      [
       -103.329113,
       43.923416
      ],
      [
       -103.32857,
       43.923425
      ],
      [
       -103.32803,
       43.923469
      ],
      [
       -103.327497,
       43.923546
      ],
      [
       -103.326976,
       43.923656
      ],
      [
       -103.32647,
       43.923799
      ],
      [
       -103.325983,
       43.923973
      ],
      [
       -103.325519,
       43.924178
      ],
      [
       -103.325082,
       43.92441
      ],
      [
       -103.324674,
       43.92467
      ],
      [
       -103.324299,
       43.924954
      ],
      [
       -103.323959,
       43.92526
      ],
      [
       -103.323658,
       43.925587
      ],
      [
       -103.323398,
       43.925932
      ],
      [
       -103.32318,
       43.926291
      ],
      [
       -103.323006,
       43.926663
      ],
      [
       -103.322877,
       43.927045
      ],
      [
       -103.322795,
       43.927433
      ],
      [
       -103.322761,
       43.927825
      ]
     ]
    ]
   }
  },
  {
   "type": "Feature",
   "properties": {
    "FeatureCategory": "Evacuation Area",
    "Label": "Zone A \u2014 GO",
    "IsVisible": "Yes",
    "MapMethod": "Digitized-Other",
    "GeometryID": "OR-PY-0011",
    "IncidentName": "Orange",
    "IRWINID": null,
    "CreateName": "TRAINEE, GISS",
    "CreateDate": "2026-07-29T04:15:00-06:00",
    "DeleteThis": "No",
    "Comments": "Immediate evacuation. Structures inside the Management Action Point trigger.",
    "GISAcres": 1744.5,
    "PolygonDateTime": null
   },
   "geometry": {
    "type": "Polygon",
    "coordinates": [
     [
      [
       -103.320244,
       43.931382
      ],
      [
       -103.320282,
       43.932559
      ],
      [
       -103.320462,
       43.93373
      ],
      [
       -103.320782,
       43.934885
      ],
      [
       -103.321241,
       43.936016
      ],
      [
       -103.321834,
       43.937113
      ],
      [
       -103.322557,
       43.938168
      ],
      [
       -103.323405,
       43.939175
      ],
      [
       -103.324371,
       43.940123
      ],
      [
       -103.325447,
       43.941008
      ],
      [
       -103.326627,
       43.941821
      ],
      [
       -103.3279,
       43.942557
      ],
      [
       -103.329257,
       43.94321
      ],
      [
       -103.330687,
       43.943775
      ],
      [
       -103.33218,
       43.944247
      ],
      [
       -103.333725,
       43.944624
      ],
      [
       -103.335309,
       43.944902
      ],
      [
       -103.336921,
       43.94508
      ],
      [
       -103.338548,
       43.945155
      ],
      [
       -103.340178,
       43.945127
      ],
      [
       -103.341798,
       43.944997
      ],
      [
       -103.343397,
       43.944765
      ],
      [
       -103.344961,
       43.944433
      ],
      [
       -103.346479,
       43.944004
      ],
      [
       -103.34794,
       43.943482
      ],
      [
       -103.349332,
       43.942869
      ],
      [
       -103.350645,
       43.94217
      ],
      [
       -103.351869,
       43.941392
      ],
      [
       -103.352994,
       43.94054
      ],
      [
       -103.354012,
       43.93962
      ],
      [
       -103.354915,
       43.938639
      ],
      [
       -103.355697,
       43.937605
      ],
      [
       -103.35635,
       43.936526
      ],
      [
       -103.356871,
       43.93541
      ],
      [
       -103.357256,
       43.934265
      ],
      [
       -103.357501,
       43.933101
      ],
      [
       -103.357604,
       43.931925
      ],
      [
       -103.357565,
       43.930747
      ],
      [
       -103.357385,
       43.929577
      ],
      [
       -103.357064,
       43.928422
      ],
      [
       -103.356605,
       43.927292
      ],
      [
       -103.356011,
       43.926195
      ],
      [
       -103.355287,
       43.925139
      ],
      [
       -103.354439,
       43.924133
      ],
      [
       -103.353473,
       43.923185
      ],
      [
       -103.352396,
       43.9223
      ],
      [
       -103.351217,
       43.921487
      ],
      [
       -103.349944,
       43.920752
      ],
      [
       -103.348588,
       43.920099
      ],
      [
       -103.347157,
       43.919535
      ],
      [
       -103.345665,
       43.919062
      ],
      [
       -103.344121,
       43.918685
      ],
      [
       -103.342537,
       43.918407
      ],
      [
       -103.340926,
       43.91823
      ],
      [
       -103.3393,
       43.918155
      ],
      [
       -103.337671,
       43.918183
      ],
      [
       -103.336051,
       43.918313
      ],
      [
       -103.334453,
       43.918545
      ],
      [
       -103.332889,
       43.918876
      ],
      [
       -103.331372,
       43.919305
      ],
      [
       -103.329911,
       43.919828
      ],
      [
       -103.328519,
       43.92044
      ],
      [
       -103.327207,
       43.921138
      ],
      [
       -103.325983,
       43.921916
      ],
      [
       -103.324858,
       43.922769
      ],
      [
       -103.32384,
       43.923688
      ],
      [
       -103.322936,
       43.924669
      ],
      [
       -103.322155,
       43.925702
      ],
      [
       -103.321501,
       43.926781
      ],
      [
       -103.320979,
       43.927897
      ],
      [
       -103.320594,
       43.929042
      ],
      [
       -103.320348,
       43.930206
      ],
      [
       -103.320244,
       43.931382
      ]
     ]
    ]
   }
  },
  {
   "type": "Feature",
   "properties": {
    "FeatureCategory": "Evacuation Area",
    "Label": "Zone B \u2014 SET",
    "IsVisible": "Yes",
    "MapMethod": "Digitized-Other",
    "GeometryID": "OR-PY-0012",
    "IncidentName": "Orange",
    "IRWINID": null,
    "CreateName": "TRAINEE, GISS",
    "CreateDate": "2026-07-29T04:15:00-06:00",
    "DeleteThis": "No",
    "Comments": "Be ready. Sheriff will upgrade if the fire crosses the drainage.",
    "GISAcres": 3752.5,
    "PolygonDateTime": null
   },
   "geometry": {
    "type": "Polygon",
    "coordinates": [
     [
      [
       -103.290874,
       43.927369
      ],
      [
       -103.290929,
       43.929097
      ],
      [
       -103.291192,
       43.930814
      ],
      [
       -103.291661,
       43.932508
      ],
      [
       -103.292332,
       43.934166
      ],
      [
       -103.293201,
       43.935775
      ],
      [
       -103.294261,
       43.937324
      ],
      [
       -103.295504,
       43.9388
      ],
      [
       -103.29692,
       43.940192
      ],
      [
       -103.298499,
       43.941489
      ],
      [
       -103.300228,
       43.942682
      ],
      [
       -103.302094,
       43.943762
      ],
      [
       -103.304084,
       43.94472
      ],
      [
       -103.306182,
       43.945549
      ],
      [
       -103.308372,
       43.946243
      ],
      [
       -103.310637,
       43.946796
      ],
      [
       -103.312961,
       43.947204
      ],
      [
       -103.315324,
       43.947465
      ],
      [
       -103.317711,
       43.947575
      ],
      [
       -103.320101,
       43.947535
      ],
      [
       -103.322478,
       43.947345
      ],
      [
       -103.324822,
       43.947005
      ],
      [
       -103.327117,
       43.946519
      ],
      [
       -103.329344,
       43.94589
      ],
      [
       -103.331487,
       43.945124
      ],
      [
       -103.333529,
       43.944225
      ],
      [
       -103.335455,
       43.943201
      ],
      [
       -103.33725,
       43.94206
      ],
      [
       -103.338901,
       43.94081
      ],
      [
       -103.340394,
       43.939461
      ],
      [
       -103.341719,
       43.938023
      ],
      [
       -103.342865,
       43.936507
      ],
      [
       -103.343824,
       43.934924
      ],
      [
       -103.344589,
       43.933287
      ],
      [
       -103.345153,
       43.931608
      ],
      [
       -103.345512,
       43.9299
      ],
      [
       -103.345665,
       43.928176
      ],
      [
       -103.345608,
       43.926449
      ],
      [
       -103.345344,
       43.924732
      ],
      [
       -103.344873,
       43.923038
      ],
      [
       -103.3442,
       43.92138
      ],
      [
       -103.34333,
       43.919771
      ],
      [
       -103.342269,
       43.918223
      ],
      [
       -103.341026,
       43.916748
      ],
      [
       -103.339609,
       43.915356
      ],
      [
       -103.33803,
       43.914059
      ],
      [
       -103.336301,
       43.912866
      ],
      [
       -103.334435,
       43.911787
      ],
      [
       -103.332446,
       43.91083
      ],
      [
       -103.330349,
       43.910001
      ],
      [
       -103.32816,
       43.909308
      ],
      [
       -103.325896,
       43.908755
      ],
      [
       -103.323574,
       43.908347
      ],
      [
       -103.321211,
       43.908087
      ],
      [
       -103.318827,
       43.907977
      ],
      [
       -103.316438,
       43.908017
      ],
      [
       -103.314063,
       43.908207
      ],
      [
       -103.31172,
       43.908547
      ],
      [
       -103.309426,
       43.909032
      ],
      [
       -103.3072,
       43.909661
      ],
      [
       -103.305058,
       43.910427
      ],
      [
       -103.303017,
       43.911325
      ],
      [
       -103.301092,
       43.912348
      ],
      [
       -103.299297,
       43.913489
      ],
      [
       -103.297646,
       43.914738
      ],
      [
       -103.296153,
       43.916087
      ],
      [
       -103.294827,
       43.917525
      ],
      [
       -103.29368,
       43.91904
      ],
      [
       -103.29272,
       43.920622
      ],
      [
       -103.291954,
       43.922259
      ],
      [
       -103.291389,
       43.923938
      ],
      [
       -103.291028,
       43.925645
      ],
      [
       -103.290874,
       43.927369
      ]
     ]
    ]
   }
  },
  {
   "type": "Feature",
   "properties": {
    "FeatureCategory": "Evacuation Area",
    "Label": "Zone C \u2014 READY",
    "IsVisible": "Yes",
    "MapMethod": "Digitized-Other",
    "GeometryID": "OR-PY-0013",
    "IncidentName": "Orange",
    "IRWINID": null,
    "CreateName": "TRAINEE, GISS",
    "CreateDate": "2026-07-29T04:15:00-06:00",
    "DeleteThis": "No",
    "Comments": "Stay informed.",
    "GISAcres": 5241.1,
    "PolygonDateTime": null
   },
   "geometry": {
    "type": "Polygon",
    "coordinates": [
     [
      [
       -103.267777,
       43.924267
      ],
      [
       -103.267841,
       43.926308
      ],
      [
       -103.268151,
       43.928337
      ],
      [
       -103.268705,
       43.930339
      ],
      [
       -103.269497,
       43.932299
      ],
      [
       -103.270524,
       43.934201
      ],
      [
       -103.271776,
       43.936032
      ],
      [
       -103.273243,
       43.937776
      ],
      [
       -103.274916,
       43.939422
      ],
      [
       -103.276781,
       43.940956
      ],
      [
       -103.278824,
       43.942366
      ],
      [
       -103.28103,
       43.943642
      ],
      [
       -103.283381,
       43.944775
      ],
      [
       -103.28586,
       43.945755
      ],
      [
       -103.288448,
       43.946576
      ],
      [
       -103.291125,
       43.94723
      ],
      [
       -103.29387,
       43.947713
      ],
      [
       -103.296664,
       43.948021
      ],
      [
       -103.299484,
       43.948152
      ],
      [
       -103.302309,
       43.948105
      ],
      [
       -103.305118,
       43.94788
      ],
      [
       -103.307889,
       43.947479
      ],
      [
       -103.310601,
       43.946905
      ],
      [
       -103.313233,
       43.946163
      ],
      [
       -103.315766,
       43.945257
      ],
      [
       -103.31818,
       43.944195
      ],
      [
       -103.320456,
       43.942986
      ],
      [
       -103.322578,
       43.941637
      ],
      [
       -103.324529,
       43.94016
      ],
      [
       -103.326294,
       43.938566
      ],
      [
       -103.32786,
       43.936866
      ],
      [
       -103.329215,
       43.935075
      ],
      [
       -103.330349,
       43.933205
      ],
      [
       -103.331253,
       43.93127
      ],
      [
       -103.33192,
       43.929286
      ],
      [
       -103.332345,
       43.927268
      ],
      [
       -103.332526,
       43.92523
      ],
      [
       -103.332459,
       43.923189
      ],
      [
       -103.332147,
       43.92116
      ],
      [
       -103.331592,
       43.919158
      ],
      [
       -103.330797,
       43.917199
      ],
      [
       -103.329769,
       43.915297
      ],
      [
       -103.328516,
       43.913467
      ],
      [
       -103.327047,
       43.911723
      ],
      [
       -103.325373,
       43.910078
      ],
      [
       -103.323508,
       43.908545
      ],
      [
       -103.321465,
       43.907136
      ],
      [
       -103.31926,
       43.90586
      ],
      [
       -103.31691,
       43.904728
      ],
      [
       -103.314432,
       43.903749
      ],
      [
       -103.311846,
       43.902929
      ],
      [
       -103.30917,
       43.902275
      ],
      [
       -103.306427,
       43.901793
      ],
      [
       -103.303635,
       43.901485
      ],
      [
       -103.300817,
       43.901354
      ],
      [
       -103.297994,
       43.901401
      ],
      [
       -103.295187,
       43.901626
      ],
      [
       -103.292419,
       43.902026
      ],
      [
       -103.289708,
       43.9026
      ],
      [
       -103.287078,
       43.903342
      ],
      [
       -103.284546,
       43.904247
      ],
      [
       -103.282134,
       43.905308
      ],
      [
       -103.279858,
       43.906517
      ],
      [
       -103.277737,
       43.907865
      ],
      [
       -103.275786,
       43.909341
      ],
      [
       -103.27402,
       43.910934
      ],
      [
       -103.272453,
       43.912633
      ],
      [
       -103.271097,
       43.914424
      ],
      [
       -103.269962,
       43.916293
      ],
      [
       -103.269056,
       43.918227
      ],
      [
       -103.268387,
       43.920211
      ],
      [
       -103.26796,
       43.922229
      ],
      [
       -103.267777,
       43.924267
      ]
     ]
    ]
   }
  },
  {
   "type": "Feature",
   "properties": {
    "FeatureCategory": "Repair Area",
    "Label": "Div Z Dozer Repair",
    "IsVisible": "Yes",
    "MapMethod": "GPS-Walked",
    "GeometryID": "OR-PY-0014",
    "IncidentName": "Orange",
    "IRWINID": null,
    "CreateName": "TRAINEE, GISS",
    "CreateDate": "2026-07-29T04:15:00-06:00",
    "DeleteThis": "No",
    "Comments": "Waterbar, pull berm back, scatter slash. Two blades wide.",
    "GISAcres": 81.4,
    "PolygonDateTime": null
   },
   "geometry": {
    "type": "Polygon",
    "coordinates": [
     [
      [
       -103.367707,
       43.934832
      ],
      [
       -103.370413,
       43.930119
      ],
      [
       -103.36911,
       43.925271
      ],
      [
       -103.366006,
       43.921304
      ],
      [
       -103.35984,
       43.921456
      ],
      [
       -103.353514,
       43.92238
      ],
      [
       -103.353514,
       43.92238
      ],
      [
       -103.353319,
       43.92239
      ],
      [
       -103.353128,
       43.922363
      ],
      [
       -103.352952,
       43.922301
      ],
      [
       -103.352805,
       43.922208
      ],
      [
       -103.352697,
       43.922091
      ],
      [
       -103.352634,
       43.921958
      ],
      [
       -103.35262,
       43.921817
      ],
      [
       -103.352658,
       43.921679
      ],
      [
       -103.352744,
       43.921552
      ],
      [
       -103.352872,
       43.921446
      ],
      [
       -103.353034,
       43.921367
      ],
      [
       -103.353218,
       43.921322
      ],
      [
       -103.353218,
       43.921322
      ],
      [
       -103.35968,
       43.920382
      ],
      [
       -103.36675,
       43.920366
      ],
      [
       -103.370512,
       43.924897
      ],
      [
       -103.371899,
       43.930229
      ],
      [
       -103.369091,
       43.935242
      ],
      [
       -103.369091,
       43.935242
      ],
      [
       -103.368994,
       43.935364
      ],
      [
       -103.368856,
       43.935464
      ],
      [
       -103.368688,
       43.935535
      ],
      [
       -103.368499,
       43.935572
      ],
      [
       -103.368304,
       43.935573
      ],
      [
       -103.368116,
       43.935537
      ],
      [
       -103.367946,
       43.935467
      ],
      [
       -103.367808,
       43.935367
      ],
      [
       -103.36771,
       43.935246
      ],
      [
       -103.367658,
       43.93511
      ],
      [
       -103.367658,
       43.934969
      ],
      [
       -103.367707,
       43.934832
      ],
      [
       -103.367707,
       43.934832
      ]
     ]
    ]
   }
  },
  {
   "type": "Feature",
   "properties": {
    "FeatureCategory": "Repair Area",
    "Label": "Div Z Road Repair",
    "IsVisible": "Yes",
    "MapMethod": "GPS-Walked",
    "GeometryID": "OR-PY-0015",
    "IncidentName": "Orange",
    "IRWINID": null,
    "CreateName": "TRAINEE, GISS",
    "CreateDate": "2026-07-29T04:15:00-06:00",
    "DeleteThis": "No",
    "Comments": "Blade back to template, reinstall drainage.",
    "GISAcres": 21.0,
    "PolygonDateTime": null
   },
   "geometry": {
    "type": "Polygon",
    "coordinates": [
     [
      [
       -103.353526,
       43.922192
      ],
      [
       -103.347592,
       43.923646
      ],
      [
       -103.342088,
       43.925631
      ],
      [
       -103.342088,
       43.925631
      ],
      [
       -103.341965,
       43.925662
      ],
      [
       -103.341836,
       43.925668
      ],
      [
       -103.341708,
       43.92565
      ],
      [
       -103.341591,
       43.925609
      ],
      [
       -103.341493,
       43.925548
      ],
      [
       -103.34142,
       43.92547
      ],
      [
       -103.341378,
       43.925381
      ],
      [
       -103.341369,
       43.925287
      ],
      [
       -103.341394,
       43.925195
      ],
      [
       -103.341451,
       43.92511
      ],
      [
       -103.341536,
       43.925039
      ],
      [
       -103.341644,
       43.924987
      ],
      [
       -103.341644,
       43.924987
      ],
      [
       -103.34721,
       43.922982
      ],
      [
       -103.353206,
       43.92151
      ],
      [
       -103.353206,
       43.92151
      ],
      [
       -103.353333,
       43.921492
      ],
      [
       -103.353463,
       43.921498
      ],
      [
       -103.353586,
       43.921528
      ],
      [
       -103.353694,
       43.92158
      ],
      [
       -103.35378,
       43.921651
      ],
      [
       -103.353838,
       43.921735
      ],
      [
       -103.353863,
       43.921827
      ],
      [
       -103.353855,
       43.921921
      ],
      [
       -103.353813,
       43.92201
      ],
      [
       -103.353741,
       43.922088
      ],
      [
       -103.353643,
       43.92215
      ],
      [
       -103.353526,
       43.922192
      ],
      [
       -103.353526,
       43.922192
      ]
     ]
    ]
   }
  }
 ]
}
