{
 "type": "FeatureCollection",
 "name": "roads",
 "crs": {
  "type": "name",
  "properties": {
   "name": "urn:ogc:def:crs:OGC:1.3:CRS84"
  }
 },
 "_warning": "TRAINING EXERCISE \u2014 NOT AN ACTUAL INCIDENT. Fabricated data. Never publish, never sync to NIFS or NIFC AGOL.",
 "_fire": "Orange",
 "_generated_by": "scripts/make_fires.py",
 "features": [
  {
   "type": "Feature",
   "properties": {
    "NAME": "Storm Mountain Rd",
    "LINE_STATUS": ""
   },
   "geometry": {
    "type": "LineString",
    "coordinates": [
     [
      -103.302853,
      43.922961
     ],
     [
      -103.309805,
      43.924148
     ],
     [
      -103.317372,
      43.924383
     ],
     [
      -103.323896,
      43.925039
     ],
     [
      -103.329273,
      43.927472
     ],
     [
      -103.333424,
      43.929413
     ],
     [
      -103.334525,
      43.932488
     ]
    ]
   }
  },
  {
   "type": "Feature",
   "properties": {
    "NAME": "South Fork Rd",
    "LINE_STATUS": ""
   },
   "geometry": {
    "type": "LineString",
    "coordinates": [
     [
      -103.353366,
      43.921851
     ],
     [
      -103.347401,
      43.923314
     ],
     [
      -103.341866,
      43.925309
     ]
    ]
   }
  },
  {
   "type": "Feature",
   "properties": {
    "NAME": "FS 231",
    "LINE_STATUS": ""
   },
   "geometry": {
    "type": "LineString",
    "coordinates": [
     [
      -103.371156,
      43.930174
     ],
     [
      -103.369811,
      43.925084
     ],
     [
      -103.366378,
      43.920835
     ]
    ]
   }
  },
  {
   "type": "Feature",
   "properties": {
    "NAME": "US-16",
    "LINE_STATUS": ""
   },
   "geometry": {
    "type": "LineString",
    "coordinates": [
     [
      -103.291356,
      43.926421
     ],
     [
      -103.302853,
      43.922961
     ],
     [
      -103.31513,
      43.915901
     ]
    ]
   }
  }
 ]
}
