{
 "type": "FeatureCollection",
 "name": "trails",
 "crs": {
  "type": "name",
  "properties": {
   "name": "urn:ogc:def:crs:OGC:1.3:CRS84"
  }
 },
 "_warning": "TRAINING EXERCISE \u2014 NOT AN ACTUAL INCIDENT. Fabricated data. Never publish, never sync to NIFS or NIFC AGOL.",
 "_fire": "Orange",
 "_generated_by": "scripts/make_fires.py",
 "features": [
  {
   "type": "Feature",
   "properties": {
    "TRAIL_NAME": "Storm Mountain Loop",
    "TRAIL_NO": "9082",
    "LINE_STATUS": ""
   },
   "geometry": {
    "type": "LineString",
    "coordinates": [
     [
      -103.368399,
      43.935037
     ],
     [
      -103.362993,
      43.938621
     ],
     [
      -103.355461,
      43.940714
     ],
     [
      -103.348322,
      43.941008
     ],
     [
      -103.341491,
      43.93963
     ]
    ]
   }
  },
  {
   "type": "Feature",
   "properties": {
    "TRAIL_NAME": "Coon Hollow",
    "TRAIL_NO": "9083",
    "LINE_STATUS": ""
   },
   "geometry": {
    "type": "LineString",
    "coordinates": [
     [
      -103.338178,
      43.931017
     ],
     [
      -103.336555,
      43.928152
     ],
     [
      -103.33294,
      43.931954
     ],
     [
      -103.332066,
      43.936294
     ]
    ]
   }
  },
  {
   "type": "Feature",
   "properties": {
    "TRAIL_NAME": "Rockerville Flume",
    "TRAIL_NO": "9084",
    "LINE_STATUS": ""
   },
   "geometry": {
    "type": "LineString",
    "coordinates": [
     [
      -103.315811,
      43.931581
     ],
     [
      -103.32252,
      43.930755
     ],
     [
      -103.32882,
      43.930563
     ],
     [
      -103.335549,
      43.930903
     ]
    ]
   }
  },
  {
   "type": "Feature",
   "properties": {
    "TRAIL_NAME": "Spring Creek Spur",
    "TRAIL_NO": "9085",
    "LINE_STATUS": ""
   },
   "geometry": {
    "type": "LineString",
    "coordinates": [
     [
      -103.312224,
      43.918011
     ],
     [
      -103.310692,
      43.914405
     ],
     [
      -103.309161,
      43.910798
     ]
    ]
   }
  },
  {
   "type": "Feature",
   "properties": {
    "TRAIL_NAME": "Old Mine Trail",
    "TRAIL_NO": "9086",
    "LINE_STATUS": "none"
   },
   "geometry": {
    "type": "LineString",
    "coordinates": [
     [
      -103.36327,
      43.929829
     ],
     [
      -103.35887,
      43.930662
     ],
     [
      -103.354471,
      43.931495
     ]
    ]
   }
  }
 ]
}
