{
 "type": "FeatureCollection",
 "name": "EventPoint",
 "crs": {
  "type": "name",
  "properties": {
   "name": "urn:ogc:def:crs:OGC:1.3:CRS84"
  }
 },
 "_warning": "TRAINING EXERCISE \u2014 NOT AN ACTUAL INCIDENT. Fabricated data. Never publish, never sync to NIFS or NIFC AGOL.",
 "_generated_by": "scripts/make_mock_incident.py",
 "features": [
  {
   "type": "Feature",
   "properties": {
    "FeatureCategory": "Incident Command Post",
    "Label": "ICP",
    "IsVisible": "Yes",
    "MapMethod": "GPS-Driven",
    "GeometryID": "SMTG-PT-0001",
    "IncidentName": "Storm Mountain",
    "IRWINID": null,
    "CreateName": "TRAINEE, GISS",
    "CreateDate": "2026-07-28T04:30:00-06:00",
    "DeleteThis": "No",
    "Comments": "Rockerville staging field. Exercise ICP."
   },
   "geometry": {
    "type": "Point",
    "coordinates": [
     -103.3405,
     43.9748
    ]
   }
  },
  {
   "type": "Feature",
   "properties": {
    "FeatureCategory": "Camp",
    "Label": "Camp 1",
    "IsVisible": "Yes",
    "MapMethod": "GPS-Driven",
    "GeometryID": "SMTG-PT-0002",
    "IncidentName": "Storm Mountain",
    "IRWINID": null,
    "CreateName": "TRAINEE, GISS",
    "CreateDate": "2026-07-28T04:30:00-06:00",
    "DeleteThis": "No",
    "Comments": "Spike camp, 120 person capacity."
   },
   "geometry": {
    "type": "Point",
    "coordinates": [
     -103.3372,
     43.9762
    ]
   }
  },
  {
   "type": "Feature",
   "properties": {
    "FeatureCategory": "Staging Area",
    "Label": "Staging 1",
    "IsVisible": "Yes",
    "MapMethod": "GPS-Driven",
    "GeometryID": "SMTG-PT-0003",
    "IncidentName": "Storm Mountain",
    "IRWINID": null,
    "CreateName": "TRAINEE, GISS",
    "CreateDate": "2026-07-28T04:30:00-06:00",
    "DeleteThis": "No",
    "Comments": "Engine staging off US-16."
   },
   "geometry": {
    "type": "Point",
    "coordinates": [
     -103.3455,
     43.9712
    ]
   }
  },
  {
   "type": "Feature",
   "properties": {
    "FeatureCategory": "Helibase",
    "Label": "Helibase",
    "IsVisible": "Yes",
    "MapMethod": "GPS-Driven",
    "GeometryID": "SMTG-PT-0004",
    "IncidentName": "Storm Mountain",
    "IRWINID": null,
    "CreateName": "TRAINEE, GISS",
    "CreateDate": "2026-07-28T04:30:00-06:00",
    "DeleteThis": "No",
    "Comments": "Exercise helibase."
   },
   "geometry": {
    "type": "Point",
    "coordinates": [
     -103.3348,
     43.9548
    ]
   }
  },
  {
   "type": "Feature",
   "properties": {
    "FeatureCategory": "Helispot",
    "Label": "H-1",
    "IsVisible": "Yes",
    "MapMethod": "GPS-Flight",
    "GeometryID": "SMTG-PT-0005",
    "IncidentName": "Storm Mountain",
    "IRWINID": null,
    "CreateName": "TRAINEE, GISS",
    "CreateDate": "2026-07-28T04:30:00-06:00",
    "DeleteThis": "No",
    "Comments": "Ridgetop. One ship at a time."
   },
   "geometry": {
    "type": "Point",
    "coordinates": [
     -103.4062,
     43.9762
    ]
   }
  },
  {
   "type": "Feature",
   "properties": {
    "FeatureCategory": "Helispot",
    "Label": "H-2",
    "IsVisible": "Yes",
    "MapMethod": "GPS-Flight",
    "GeometryID": "SMTG-PT-0006",
    "IncidentName": "Storm Mountain",
    "IRWINID": null,
    "CreateName": "TRAINEE, GISS",
    "CreateDate": "2026-07-28T04:30:00-06:00",
    "DeleteThis": "No",
    "Comments": "Old landing. Dusty, needs water."
   },
   "geometry": {
    "type": "Point",
    "coordinates": [
     -103.3802,
     43.9452
    ]
   }
  },
  {
   "type": "Feature",
   "properties": {
    "FeatureCategory": "Helispot",
    "Label": "H-3",
    "IsVisible": "Yes",
    "MapMethod": "GPS-Flight",
    "GeometryID": "SMTG-PT-0007",
    "IncidentName": "Storm Mountain",
    "IRWINID": null,
    "CreateName": "TRAINEE, GISS",
    "CreateDate": "2026-07-28T04:30:00-06:00",
    "DeleteThis": "No",
    "Comments": "Saddle. Short-haul capable."
   },
   "geometry": {
    "type": "Point",
    "coordinates": [
     -103.3688,
     43.9622
    ]
   }
  },
  {
   "type": "Feature",
   "properties": {
    "FeatureCategory": "Drop Point",
    "Label": "DP 1",
    "IsVisible": "Yes",
    "MapMethod": "GPS-Driven",
    "GeometryID": "SMTG-PT-0008",
    "IncidentName": "Storm Mountain",
    "IRWINID": null,
    "CreateName": "TRAINEE, GISS",
    "CreateDate": "2026-07-28T04:30:00-06:00",
    "DeleteThis": "No",
    "Comments": "US-16 turnout."
   },
   "geometry": {
    "type": "Point",
    "coordinates": [
     -103.3462,
     43.9698
    ]
   }
  },
  {
   "type": "Feature",
   "properties": {
    "FeatureCategory": "Drop Point",
    "Label": "DP 2",
    "IsVisible": "Yes",
    "MapMethod": "GPS-Driven",
    "GeometryID": "SMTG-PT-0009",
    "IncidentName": "Storm Mountain",
    "IRWINID": null,
    "CreateName": "TRAINEE, GISS",
    "CreateDate": "2026-07-28T04:30:00-06:00",
    "DeleteThis": "No",
    "Comments": "Storm Mountain Rd junction."
   },
   "geometry": {
    "type": "Point",
    "coordinates": [
     -103.3585,
     43.9655
    ]
   }
  },
  {
   "type": "Feature",
   "properties": {
    "FeatureCategory": "Drop Point",
    "Label": "DP 3",
    "IsVisible": "Yes",
    "MapMethod": "GPS-Driven",
    "GeometryID": "SMTG-PT-0010",
    "IncidentName": "Storm Mountain",
    "IRWINID": null,
    "CreateName": "TRAINEE, GISS",
    "CreateDate": "2026-07-28T04:30:00-06:00",
    "DeleteThis": "No",
    "Comments": "Turnaround, type 6 and smaller past here."
   },
   "geometry": {
    "type": "Point",
    "coordinates": [
     -103.3702,
     43.965
    ]
   }
  },
  {
   "type": "Feature",
   "properties": {
    "FeatureCategory": "Drop Point",
    "Label": "DP 4",
    "IsVisible": "Yes",
    "MapMethod": "GPS-Driven",
    "GeometryID": "SMTG-PT-0011",
    "IncidentName": "Storm Mountain",
    "IRWINID": null,
    "CreateName": "TRAINEE, GISS",
    "CreateDate": "2026-07-28T04:30:00-06:00",
    "DeleteThis": "No",
    "Comments": "Div A anchor."
   },
   "geometry": {
    "type": "Point",
    "coordinates": [
     -103.3808,
     43.9688
    ]
   }
  },
  {
   "type": "Feature",
   "properties": {
    "FeatureCategory": "Drop Point",
    "Label": "DP 5",
    "IsVisible": "Yes",
    "MapMethod": "GPS-Driven",
    "GeometryID": "SMTG-PT-0012",
    "IncidentName": "Storm Mountain",
    "IRWINID": null,
    "CreateName": "TRAINEE, GISS",
    "CreateDate": "2026-07-28T04:30:00-06:00",
    "DeleteThis": "No",
    "Comments": "Div Z anchor, south road."
   },
   "geometry": {
    "type": "Point",
    "coordinates": [
     -103.3948,
     43.9468
    ]
   }
  },
  {
   "type": "Feature",
   "properties": {
    "FeatureCategory": "Drop Point",
    "Label": "DP 6",
    "IsVisible": "Yes",
    "MapMethod": "GPS-Driven",
    "GeometryID": "SMTG-PT-0013",
    "IncidentName": "Storm Mountain",
    "IRWINID": null,
    "CreateName": "TRAINEE, GISS",
    "CreateDate": "2026-07-28T04:30:00-06:00",
    "DeleteThis": "No",
    "Comments": "Dozer line tie-in, south flank."
   },
   "geometry": {
    "type": "Point",
    "coordinates": [
     -103.4128,
     43.9402
    ]
   }
  },
  {
   "type": "Feature",
   "properties": {
    "FeatureCategory": "Drop Point",
    "Label": "DP 7",
    "IsVisible": "Yes",
    "MapMethod": "GPS-Walked",
    "GeometryID": "SMTG-PT-0014",
    "IncidentName": "Storm Mountain",
    "IRWINID": null,
    "CreateName": "TRAINEE, GISS",
    "CreateDate": "2026-07-28T04:30:00-06:00",
    "DeleteThis": "No",
    "Comments": "West end of completed line. Foot access only."
   },
   "geometry": {
    "type": "Point",
    "coordinates": [
     -103.4268,
     43.9578
    ]
   }
  },
  {
   "type": "Feature",
   "properties": {
    "FeatureCategory": "Drop Point",
    "Label": "DP 8",
    "IsVisible": "Yes",
    "MapMethod": "GPS-Driven",
    "GeometryID": "SMTG-PT-0015",
    "IncidentName": "Storm Mountain",
    "IRWINID": null,
    "CreateName": "TRAINEE, GISS",
    "CreateDate": "2026-07-28T04:30:00-06:00",
    "DeleteThis": "No",
    "Comments": "Contingency line, north."
   },
   "geometry": {
    "type": "Point",
    "coordinates": [
     -103.4055,
     43.9788
    ]
   }
  },
  {
   "type": "Feature",
   "properties": {
    "FeatureCategory": "Dip Site",
    "Label": "Dip 1",
    "IsVisible": "Yes",
    "MapMethod": "GPS-Flight",
    "GeometryID": "SMTG-PT-0016",
    "IncidentName": "Storm Mountain",
    "IRWINID": null,
    "CreateName": "TRAINEE, GISS",
    "CreateDate": "2026-07-28T04:30:00-06:00",
    "DeleteThis": "No",
    "Comments": "Stock pond. Verify depth each morning."
   },
   "geometry": {
    "type": "Point",
    "coordinates": [
     -103.4302,
     43.9842
    ]
   }
  },
  {
   "type": "Feature",
   "properties": {
    "FeatureCategory": "Dip Site",
    "Label": "Dip 2",
    "IsVisible": "Yes",
    "MapMethod": "GPS-Flight",
    "GeometryID": "SMTG-PT-0017",
    "IncidentName": "Storm Mountain",
    "IRWINID": null,
    "CreateName": "TRAINEE, GISS",
    "CreateDate": "2026-07-28T04:30:00-06:00",
    "DeleteThis": "No",
    "Comments": "Adjacent to helibase."
   },
   "geometry": {
    "type": "Point",
    "coordinates": [
     -103.3355,
     43.96
    ]
   }
  },
  {
   "type": "Feature",
   "properties": {
    "FeatureCategory": "Draft Site",
    "Label": "Draft 1",
    "IsVisible": "Yes",
    "MapMethod": "GPS-Driven",
    "GeometryID": "SMTG-PT-0018",
    "IncidentName": "Storm Mountain",
    "IRWINID": null,
    "CreateName": "TRAINEE, GISS",
    "CreateDate": "2026-07-28T04:30:00-06:00",
    "DeleteThis": "No",
    "Comments": "Spring Creek. Screened intake required."
   },
   "geometry": {
    "type": "Point",
    "coordinates": [
     -103.3608,
     43.9702
    ]
   }
  },
  {
   "type": "Feature",
   "properties": {
    "FeatureCategory": "Hydrant",
    "Label": "Hydrant 1",
    "IsVisible": "Yes",
    "MapMethod": "GPS-Driven",
    "GeometryID": "SMTG-PT-0019",
    "IncidentName": "Storm Mountain",
    "IRWINID": null,
    "CreateName": "TRAINEE, GISS",
    "CreateDate": "2026-07-28T04:30:00-06:00",
    "DeleteThis": "No",
    "Comments": "Camp supply."
   },
   "geometry": {
    "type": "Point",
    "coordinates": [
     -103.338,
     43.9755
    ]
   }
  },
  {
   "type": "Feature",
   "properties": {
    "FeatureCategory": "Water Tank",
    "Label": "Tank 1",
    "IsVisible": "Yes",
    "MapMethod": "GPS-Walked",
    "GeometryID": "SMTG-PT-0020",
    "IncidentName": "Storm Mountain",
    "IRWINID": null,
    "CreateName": "TRAINEE, GISS",
    "CreateDate": "2026-07-28T04:30:00-06:00",
    "DeleteThis": "No",
    "Comments": "Training grounds 10,000 gal tank."
   },
   "geometry": {
    "type": "Point",
    "coordinates": [
     -103.3772,
     43.9642
    ]
   }
  },
  {
   "type": "Feature",
   "properties": {
    "FeatureCategory": "Safety Zone",
    "Label": "SZ-1",
    "IsVisible": "Yes",
    "MapMethod": "GPS-Walked",
    "GeometryID": "SMTG-PT-0021",
    "IncidentName": "Storm Mountain",
    "IRWINID": null,
    "CreateName": "TRAINEE, GISS",
    "CreateDate": "2026-07-28T04:30:00-06:00",
    "DeleteThis": "No",
    "Comments": "Meadow, 4 acres. Div A."
   },
   "geometry": {
    "type": "Point",
    "coordinates": [
     -103.3862,
     43.9612
    ]
   }
  },
  {
   "type": "Feature",
   "properties": {
    "FeatureCategory": "Safety Zone",
    "Label": "SZ-2",
    "IsVisible": "Yes",
    "MapMethod": "GPS-Walked",
    "GeometryID": "SMTG-PT-0022",
    "IncidentName": "Storm Mountain",
    "IRWINID": null,
    "CreateName": "TRAINEE, GISS",
    "CreateDate": "2026-07-28T04:30:00-06:00",
    "DeleteThis": "No",
    "Comments": "Old burn scar. Div Z."
   },
   "geometry": {
    "type": "Point",
    "coordinates": [
     -103.4048,
     43.9418
    ]
   }
  },
  {
   "type": "Feature",
   "properties": {
    "FeatureCategory": "Lookout",
    "Label": "LO-1",
    "IsVisible": "Yes",
    "MapMethod": "GPS-Walked",
    "GeometryID": "SMTG-PT-0023",
    "IncidentName": "Storm Mountain",
    "IRWINID": null,
    "CreateName": "TRAINEE, GISS",
    "CreateDate": "2026-07-28T04:30:00-06:00",
    "DeleteThis": "No",
    "Comments": "North rim. Sees the head."
   },
   "geometry": {
    "type": "Point",
    "coordinates": [
     -103.3925,
     43.9782
    ]
   }
  },
  {
   "type": "Feature",
   "properties": {
    "FeatureCategory": "Lookout",
    "Label": "LO-2",
    "IsVisible": "Yes",
    "MapMethod": "GPS-Walked",
    "GeometryID": "SMTG-PT-0024",
    "IncidentName": "Storm Mountain",
    "IRWINID": null,
    "CreateName": "TRAINEE, GISS",
    "CreateDate": "2026-07-28T04:30:00-06:00",
    "DeleteThis": "No",
    "Comments": "South, covers the dozer line."
   },
   "geometry": {
    "type": "Point",
    "coordinates": [
     -103.4212,
     43.9382
    ]
   }
  },
  {
   "type": "Feature",
   "properties": {
    "FeatureCategory": "Repeater",
    "Label": "RPT Storm",
    "IsVisible": "Yes",
    "MapMethod": "GPS-Walked",
    "GeometryID": "SMTG-PT-0025",
    "IncidentName": "Storm Mountain",
    "IRWINID": null,
    "CreateName": "TRAINEE, GISS",
    "CreateDate": "2026-07-28T04:30:00-06:00",
    "DeleteThis": "No",
    "Comments": "Sited to cover the Coon Hollow dead zone."
   },
   "geometry": {
    "type": "Point",
    "coordinates": [
     -103.3648,
     43.9808
    ]
   }
  },
  {
   "type": "Feature",
   "properties": {
    "FeatureCategory": "Mobile Weather Unit",
    "Label": "IRAWS 1",
    "IsVisible": "Yes",
    "MapMethod": "GPS-Driven",
    "GeometryID": "SMTG-PT-0026",
    "IncidentName": "Storm Mountain",
    "IRWINID": null,
    "CreateName": "TRAINEE, GISS",
    "CreateDate": "2026-07-28T04:30:00-06:00",
    "DeleteThis": "No",
    "Comments": "Exercise IRAWS."
   },
   "geometry": {
    "type": "Point",
    "coordinates": [
     -103.3888,
     43.9752
    ]
   }
  },
  {
   "type": "Feature",
   "properties": {
    "FeatureCategory": "Access Point",
    "Label": "AP-1",
    "IsVisible": "Yes",
    "MapMethod": "GPS-Driven",
    "GeometryID": "SMTG-PT-0027",
    "IncidentName": "Storm Mountain",
    "IRWINID": null,
    "CreateName": "TRAINEE, GISS",
    "CreateDate": "2026-07-28T04:30:00-06:00",
    "DeleteThis": "No",
    "Comments": "US-16 at Storm Mountain Rd."
   },
   "geometry": {
    "type": "Point",
    "coordinates": [
     -103.3318,
     43.9708
    ]
   }
  },
  {
   "type": "Feature",
   "properties": {
    "FeatureCategory": "Gate",
    "Label": "Gate 1",
    "IsVisible": "Yes",
    "MapMethod": "GPS-Driven",
    "GeometryID": "SMTG-PT-0028",
    "IncidentName": "Storm Mountain",
    "IRWINID": null,
    "CreateName": "TRAINEE, GISS",
    "CreateDate": "2026-07-28T04:30:00-06:00",
    "DeleteThis": "No",
    "Comments": "FS gate. Combination with Div A."
   },
   "geometry": {
    "type": "Point",
    "coordinates": [
     -103.3562,
     43.9662
    ]
   }
  },
  {
   "type": "Feature",
   "properties": {
    "FeatureCategory": "Gate",
    "Label": "Gate 2",
    "IsVisible": "Yes",
    "MapMethod": "GPS-Driven",
    "GeometryID": "SMTG-PT-0029",
    "IncidentName": "Storm Mountain",
    "IRWINID": null,
    "CreateName": "TRAINEE, GISS",
    "CreateDate": "2026-07-28T04:30:00-06:00",
    "DeleteThis": "No",
    "Comments": "Locked, south road."
   },
   "geometry": {
    "type": "Point",
    "coordinates": [
     -103.3925,
     43.9452
    ]
   }
  },
  {
   "type": "Feature",
   "properties": {
    "FeatureCategory": "Closure",
    "Label": "Closure 1",
    "IsVisible": "Yes",
    "MapMethod": "GPS-Driven",
    "GeometryID": "SMTG-PT-0030",
    "IncidentName": "Storm Mountain",
    "IRWINID": null,
    "CreateName": "TRAINEE, GISS",
    "CreateDate": "2026-07-28T04:30:00-06:00",
    "DeleteThis": "No",
    "Comments": "Storm Mountain Rd closed to public."
   },
   "geometry": {
    "type": "Point",
    "coordinates": [
     -103.3492,
     43.9682
    ]
   }
  },
  {
   "type": "Feature",
   "properties": {
    "FeatureCategory": "Closure",
    "Label": "Closure 2",
    "IsVisible": "Yes",
    "MapMethod": "GPS-Driven",
    "GeometryID": "SMTG-PT-0031",
    "IncidentName": "Storm Mountain",
    "IRWINID": null,
    "CreateName": "TRAINEE, GISS",
    "CreateDate": "2026-07-28T04:30:00-06:00",
    "DeleteThis": "No",
    "Comments": "South road closed."
   },
   "geometry": {
    "type": "Point",
    "coordinates": [
     -103.368,
     43.9432
    ]
   }
  },
  {
   "type": "Feature",
   "properties": {
    "FeatureCategory": "Hazard",
    "Label": "Mine 1",
    "IsVisible": "Yes",
    "MapMethod": "GPS-Walked",
    "GeometryID": "SMTG-PT-0032",
    "IncidentName": "Storm Mountain",
    "IRWINID": null,
    "CreateName": "TRAINEE, GISS",
    "CreateDate": "2026-07-28T04:30:00-06:00",
    "DeleteThis": "No",
    "Comments": "Abandoned shaft, open. Uncovered, do not anchor line here."
   },
   "geometry": {
    "type": "Point",
    "coordinates": [
     -103.4108,
     43.9598
    ]
   }
  },
  {
   "type": "Feature",
   "properties": {
    "FeatureCategory": "Hazard",
    "Label": "Mine 2",
    "IsVisible": "Yes",
    "MapMethod": "GPS-Walked",
    "GeometryID": "SMTG-PT-0033",
    "IncidentName": "Storm Mountain",
    "IRWINID": null,
    "CreateName": "TRAINEE, GISS",
    "CreateDate": "2026-07-28T04:30:00-06:00",
    "DeleteThis": "No",
    "Comments": "Abandoned adit and tailings."
   },
   "geometry": {
    "type": "Point",
    "coordinates": [
     -103.4162,
     43.9532
    ]
   }
  },
  {
   "type": "Feature",
   "properties": {
    "FeatureCategory": "Hazard",
    "Label": "Powerline",
    "IsVisible": "Yes",
    "MapMethod": "Digitized-Other",
    "GeometryID": "SMTG-PT-0034",
    "IncidentName": "Storm Mountain",
    "IRWINID": null,
    "CreateName": "TRAINEE, GISS",
    "CreateDate": "2026-07-28T04:30:00-06:00",
    "DeleteThis": "No",
    "Comments": "Distribution line crossing."
   },
   "geometry": {
    "type": "Point",
    "coordinates": [
     -103.4002,
     43.982
    ]
   }
  },
  {
   "type": "Feature",
   "properties": {
    "FeatureCategory": "Hazard",
    "Label": "Snags",
    "IsVisible": "Yes",
    "MapMethod": "GPS-Walked",
    "GeometryID": "SMTG-PT-0035",
    "IncidentName": "Storm Mountain",
    "IRWINID": null,
    "CreateName": "TRAINEE, GISS",
    "CreateDate": "2026-07-28T04:30:00-06:00",
    "DeleteThis": "No",
    "Comments": "Heavy beetle-kill, standing dead."
   },
   "geometry": {
    "type": "Point",
    "coordinates": [
     -103.3968,
     43.9678
    ]
   }
  },
  {
   "type": "Feature",
   "properties": {
    "FeatureCategory": "Medical Site",
    "Label": "MED 1",
    "IsVisible": "Yes",
    "MapMethod": "GPS-Driven",
    "GeometryID": "SMTG-PT-0036",
    "IncidentName": "Storm Mountain",
    "IRWINID": null,
    "CreateName": "TRAINEE, GISS",
    "CreateDate": "2026-07-28T04:30:00-06:00",
    "DeleteThis": "No",
    "Comments": "Line medic at DP 3. Ambulance interception point."
   },
   "geometry": {
    "type": "Point",
    "coordinates": [
     -103.3712,
     43.9645
    ]
   }
  },
  {
   "type": "Feature",
   "properties": {
    "FeatureCategory": "Medivac Site",
    "Label": "MEDIVAC 1",
    "IsVisible": "Yes",
    "MapMethod": "GPS-Flight",
    "GeometryID": "SMTG-PT-0037",
    "IncidentName": "Storm Mountain",
    "IRWINID": null,
    "CreateName": "TRAINEE, GISS",
    "CreateDate": "2026-07-28T04:30:00-06:00",
    "DeleteThis": "No",
    "Comments": "Co-located with H-3."
   },
   "geometry": {
    "type": "Point",
    "coordinates": [
     -103.3688,
     43.9622
    ]
   }
  },
  {
   "type": "Feature",
   "properties": {
    "FeatureCategory": "Value at Risk",
    "Label": "Training Grounds",
    "IsVisible": "Yes",
    "MapMethod": "GPS-Walked",
    "GeometryID": "SMTG-PT-0038",
    "IncidentName": "Storm Mountain",
    "IRWINID": null,
    "CreateName": "TRAINEE, GISS",
    "CreateDate": "2026-07-28T04:30:00-06:00",
    "DeleteThis": "No",
    "Comments": "Storm Mountain Training Grounds \u2014 lodge, cabins, dining hall."
   },
   "geometry": {
    "type": "Point",
    "coordinates": [
     -103.3768,
     43.9648
    ]
   }
  },
  {
   "type": "Feature",
   "properties": {
    "FeatureCategory": "Structure",
    "Label": "Lodge",
    "IsVisible": "Yes",
    "MapMethod": "GPS-Walked",
    "GeometryID": "SMTG-PT-0039",
    "IncidentName": "Storm Mountain",
    "IRWINID": null,
    "CreateName": "TRAINEE, GISS",
    "CreateDate": "2026-07-28T04:30:00-06:00",
    "DeleteThis": "No",
    "Comments": "Main lodge."
   },
   "geometry": {
    "type": "Point",
    "coordinates": [
     -103.3766,
     43.9651
    ]
   }
  },
  {
   "type": "Feature",
   "properties": {
    "FeatureCategory": "Structure",
    "Label": "Dining Hall",
    "IsVisible": "Yes",
    "MapMethod": "GPS-Walked",
    "GeometryID": "SMTG-PT-0040",
    "IncidentName": "Storm Mountain",
    "IRWINID": null,
    "CreateName": "TRAINEE, GISS",
    "CreateDate": "2026-07-28T04:30:00-06:00",
    "DeleteThis": "No",
    "Comments": ""
   },
   "geometry": {
    "type": "Point",
    "coordinates": [
     -103.3774,
     43.9645
    ]
   }
  },
  {
   "type": "Feature",
   "properties": {
    "FeatureCategory": "Structure",
    "Label": "Cabin Row",
    "IsVisible": "Yes",
    "MapMethod": "GPS-Walked",
    "GeometryID": "SMTG-PT-0041",
    "IncidentName": "Storm Mountain",
    "IRWINID": null,
    "CreateName": "TRAINEE, GISS",
    "CreateDate": "2026-07-28T04:30:00-06:00",
    "DeleteThis": "No",
    "Comments": "Six cabins."
   },
   "geometry": {
    "type": "Point",
    "coordinates": [
     -103.3758,
     43.9643
    ]
   }
  },
  {
   "type": "Feature",
   "properties": {
    "FeatureCategory": "Spot Fire",
    "Label": "Spot 1",
    "IsVisible": "Yes",
    "MapMethod": "GPS-Walked",
    "GeometryID": "SMTG-PT-0042",
    "IncidentName": "Storm Mountain",
    "IRWINID": null,
    "CreateName": "TRAINEE, GISS",
    "CreateDate": "2026-07-28T04:30:00-06:00",
    "DeleteThis": "No",
    "Comments": "Quarter acre, north of the head. Held."
   },
   "geometry": {
    "type": "Point",
    "coordinates": [
     -103.3822,
     43.9742
    ]
   }
  },
  {
   "type": "Feature",
   "properties": {
    "FeatureCategory": "Point of Origin",
    "Label": "Origin",
    "IsVisible": "Yes",
    "MapMethod": "GPS-Walked",
    "GeometryID": "SMTG-PT-0043",
    "IncidentName": "Storm Mountain",
    "IRWINID": null,
    "CreateName": "TRAINEE, GISS",
    "CreateDate": "2026-07-28T04:30:00-06:00",
    "DeleteThis": "No",
    "Comments": "Exercise origin. Secured."
   },
   "geometry": {
    "type": "Point",
    "coordinates": [
     -103.4118,
     43.9518
    ]
   }
  },
  {
   "type": "Feature",
   "properties": {
    "FeatureCategory": "Sign",
    "Label": "Sign 1",
    "IsVisible": "Yes",
    "MapMethod": "GPS-Driven",
    "GeometryID": "SMTG-PT-0044",
    "IncidentName": "Storm Mountain",
    "IRWINID": null,
    "CreateName": "TRAINEE, GISS",
    "CreateDate": "2026-07-28T04:30:00-06:00",
    "DeleteThis": "No",
    "Comments": "Fire traffic sign, US-16."
   },
   "geometry": {
    "type": "Point",
    "coordinates": [
     -103.3465,
     43.97
    ]
   }
  },
  {
   "type": "Feature",
   "properties": {
    "FeatureCategory": "Internet Access",
    "Label": "Starlink 1",
    "IsVisible": "Yes",
    "MapMethod": "GPS-Driven",
    "GeometryID": "SMTG-PT-0045",
    "IncidentName": "Storm Mountain",
    "IRWINID": null,
    "CreateName": "TRAINEE, GISS",
    "CreateDate": "2026-07-28T04:30:00-06:00",
    "DeleteThis": "No",
    "Comments": "ICP."
   },
   "geometry": {
    "type": "Point",
    "coordinates": [
     -103.3402,
     43.975
    ]
   }
  }
 ]
}
