{
 "type": "FeatureCollection",
 "name": "EventPolygon",
 "crs": {
  "type": "name",
  "properties": {
   "name": "urn:ogc:def:crs:OGC:1.3:CRS84"
  }
 },
 "_warning": "TRAINING EXERCISE \u2014 NOT AN ACTUAL INCIDENT. Fabricated data. Never publish, never sync to NIFS or NIFC AGOL.",
 "_generated_by": "scripts/make_mock_incident.py",
 "features": [
  {
   "type": "Feature",
   "properties": {
    "FeatureCategory": "Wildfire Daily Fire Perimeter",
    "Label": "Storm Mountain 07/28",
    "IsVisible": "Yes",
    "MapMethod": "Infrared Image",
    "GeometryID": "SMTG-PY-0001",
    "IncidentName": "Storm Mountain",
    "IRWINID": null,
    "CreateName": "TRAINEE, GISS",
    "CreateDate": "2026-07-28T04:30:00-06:00",
    "DeleteThis": "No",
    "Comments": "Operational period 3 perimeter.",
    "GISAcres": 1765.3,
    "PolygonDateTime": "2026-07-28T02:14:00-06:00"
   },
   "geometry": {
    "type": "Polygon",
    "coordinates": [
     [
      [
       -103.418,
       43.943
      ],
      [
       -103.423,
       43.949
      ],
      [
       -103.4245,
       43.956
      ],
      [
       -103.421,
       43.9625
      ],
      [
       -103.413,
       43.968
      ],
      [
       -103.404,
       43.9715
      ],
      [
       -103.395,
       43.973
      ],
      [
       -103.388,
       43.9705
      ],
      [
       -103.3845,
       43.9655
      ],
      [
       -103.386,
       43.959
      ],
      [
       -103.3915,
       43.954
      ],
      [
       -103.398,
       43.9495
      ],
      [
       -103.405,
       43.9455
      ],
      [
       -103.412,
       43.9425
      ],
      [
       -103.418,
       43.943
      ]
     ]
    ]
   }
  },
  {
   "type": "Feature",
   "properties": {
    "FeatureCategory": "Wildfire Daily Fire Perimeter",
    "Label": "Storm Mountain 07/27",
    "IsVisible": "Yes",
    "MapMethod": "Infrared Image",
    "GeometryID": "SMTG-PY-0002",
    "IncidentName": "Storm Mountain",
    "IRWINID": null,
    "CreateName": "TRAINEE, GISS",
    "CreateDate": "2026-07-28T04:30:00-06:00",
    "DeleteThis": "No",
    "Comments": "Operational period 2 perimeter.",
    "GISAcres": 775.2,
    "PolygonDateTime": "2026-07-27T02:20:00-06:00"
   },
   "geometry": {
    "type": "Polygon",
    "coordinates": [
     [
      [
       -103.4165,
       43.9455
      ],
      [
       -103.42,
       43.95
      ],
      [
       -103.4205,
       43.9555
      ],
      [
       -103.417,
       43.96
      ],
      [
       -103.4105,
       43.9635
      ],
      [
       -103.4035,
       43.965
      ],
      [
       -103.3975,
       43.9635
      ],
      [
       -103.3945,
       43.9595
      ],
      [
       -103.396,
       43.955
      ],
      [
       -103.401,
       43.9505
      ],
      [
       -103.4075,
       43.947
      ],
      [
       -103.413,
       43.945
      ],
      [
       -103.4165,
       43.9455
      ]
     ]
    ]
   }
  },
  {
   "type": "Feature",
   "properties": {
    "FeatureCategory": "Wildfire Daily Fire Perimeter",
    "Label": "Storm Mountain 07/26",
    "IsVisible": "Yes",
    "MapMethod": "GPS-Flight",
    "GeometryID": "SMTG-PY-0003",
    "IncidentName": "Storm Mountain",
    "IRWINID": null,
    "CreateName": "TRAINEE, GISS",
    "CreateDate": "2026-07-28T04:30:00-06:00",
    "DeleteThis": "No",
    "Comments": "Operational period 1 perimeter.",
    "GISAcres": 240.7,
    "PolygonDateTime": "2026-07-26T03:05:00-06:00"
   },
   "geometry": {
    "type": "Polygon",
    "coordinates": [
     [
      [
       -103.415,
       43.948
      ],
      [
       -103.417,
       43.9515
      ],
      [
       -103.416,
       43.955
      ],
      [
       -103.412,
       43.9575
      ],
      [
       -103.407,
       43.958
      ],
      [
       -103.403,
       43.956
      ],
      [
       -103.4025,
       43.9525
      ],
      [
       -103.406,
       43.9495
      ],
      [
       -103.411,
       43.9478
      ],
      [
       -103.415,
       43.948
      ]
     ]
    ]
   }
  },
  {
   "type": "Feature",
   "properties": {
    "FeatureCategory": "Temporary Flight Restriction",
    "Label": "TFR 5 NM",
    "IsVisible": "Yes",
    "MapMethod": "Digitized-Other",
    "GeometryID": "SMTG-PY-0004",
    "IncidentName": "Storm Mountain",
    "IRWINID": null,
    "CreateName": "TRAINEE, GISS",
    "CreateDate": "2026-07-28T04:30:00-06:00",
    "DeleteThis": "No",
    "Comments": "5 NM radius, surface to 8500 ft MSL. Exercise only \u2014 no real TFR exists. Extends past the AOI, which is why the air ops layout needs a wider extent than ops.",
    "GISAcres": 66481.8,
    "PolygonDateTime": null
   },
   "geometry": {
    "type": "Polygon",
    "coordinates": [
     [
      [
       -103.289132,
       43.95633
      ],
      [
       -103.289363,
       43.9636
      ],
      [
       -103.29047,
       43.970828
      ],
      [
       -103.292445,
       43.977958
      ],
      [
       -103.295274,
       43.984937
      ],
      [
       -103.298936,
       43.991711
      ],
      [
       -103.303402,
       43.998229
      ],
      [
       -103.308639,
       44.004441
      ],
      [
       -103.314607,
       44.010299
      ],
      [
       -103.321261,
       44.01576
      ],
      [
       -103.328551,
       44.02078
      ],
      [
       -103.33642,
       44.025323
      ],
      [
       -103.34481,
       44.029352
      ],
      [
       -103.353655,
       44.032839
      ],
      [
       -103.362889,
       44.035755
      ],
      [
       -103.37244,
       44.038078
      ],
      [
       -103.382237,
       44.039792
      ],
      [
       -103.392204,
       44.040882
      ],
      [
       -103.402265,
       44.04134
      ],
      [
       -103.412342,
       44.041163
      ],
      [
       -103.422361,
       44.040353
      ],
      [
       -103.432242,
       44.038915
      ],
      [
       -103.441912,
       44.03686
      ],
      [
       -103.451296,
       44.034204
      ],
      [
       -103.460322,
       44.030968
      ],
      [
       -103.468922,
       44.027176
      ],
      [
       -103.47703,
       44.022856
      ],
      [
       -103.484584,
       44.018043
      ],
      [
       -103.491527,
       44.012773
      ],
      [
       -103.497805,
       44.007085
      ],
      [
       -103.503372,
       44.001024
      ],
      [
       -103.508185,
       43.994635
      ],
      [
       -103.512207,
       43.987968
      ],
      [
       -103.515408,
       43.981073
      ],
      [
       -103.517764,
       43.974003
      ],
      [
       -103.519258,
       43.966811
      ],
      [
       -103.519877,
       43.959553
      ],
      [
       -103.519618,
       43.952283
      ],
      [
       -103.518484,
       43.945058
      ],
      [
       -103.516482,
       43.937931
      ],
      [
       -103.513629,
       43.930957
      ],
      [
       -103.509947,
       43.924189
      ],
      [
       -103.505463,
       43.917679
      ],
      [
       -103.500213,
       43.911476
      ],
      [
       -103.494236,
       43.905627
      ],
      [
       -103.487577,
       43.900177
      ],
      [
       -103.480289,
       43.895166
      ],
      [
       -103.472425,
       43.890634
      ],
      [
       -103.464046,
       43.886613
      ],
      [
       -103.455215,
       43.883136
      ],
      [
       -103.446,
       43.880228
      ],
      [
       -103.436471,
       43.87791
      ],
      [
       -103.426699,
       43.876202
      ],
      [
       -103.416759,
       43.875115
      ],
      [
       -103.406726,
       43.874659
      ],
      [
       -103.396676,
       43.874835
      ],
      [
       -103.386686,
       43.875644
      ],
      [
       -103.37683,
       43.877079
      ],
      [
       -103.367184,
       43.879128
      ],
      [
       -103.357822,
       43.881778
      ],
      [
       -103.348813,
       43.885006
      ],
      [
       -103.340226,
       43.88879
      ],
      [
       -103.332127,
       43.893099
      ],
      [
       -103.324577,
       43.897903
      ],
      [
       -103.317634,
       43.903163
      ],
      [
       -103.311349,
       43.908841
      ],
      [
       -103.305772,
       43.914892
      ],
      [
       -103.300945,
       43.921272
      ],
      [
       -103.296904,
       43.927932
      ],
      [
       -103.293681,
       43.93482
      ],
      [
       -103.2913,
       43.941886
      ],
      [
       -103.28978,
       43.949074
      ],
      [
       -103.289132,
       43.95633
      ]
     ]
    ]
   }
  },
  {
   "type": "Feature",
   "properties": {
    "FeatureCategory": "Aerial Hazard Area",
    "Label": "Powerline Corridor",
    "IsVisible": "Yes",
    "MapMethod": "Digitized-Other",
    "GeometryID": "SMTG-PY-0005",
    "IncidentName": "Storm Mountain",
    "IRWINID": null,
    "CreateName": "TRAINEE, GISS",
    "CreateDate": "2026-07-28T04:30:00-06:00",
    "DeleteThis": "No",
    "Comments": "Distribution line. No low-level flight.",
    "GISAcres": 1410.7,
    "PolygonDateTime": null
   },
   "geometry": {
    "type": "Polygon",
    "coordinates": [
     [
      [
       -103.438669,
       43.99147
      ],
      [
       -103.418986,
       43.987525
      ],
      [
       -103.399827,
       43.985599
      ],
      [
       -103.380684,
       43.986567
      ],
      [
       -103.361014,
       43.989525
      ],
      [
       -103.361014,
       43.989525
      ],
      [
       -103.359715,
       43.989595
      ],
      [
       -103.358436,
       43.989419
      ],
      [
       -103.357264,
       43.98901
      ],
      [
       -103.356278,
       43.988397
      ],
      [
       -103.355546,
       43.987619
      ],
      [
       -103.355117,
       43.986732
      ],
      [
       -103.355021,
       43.985794
      ],
      [
       -103.355265,
       43.984871
      ],
      [
       -103.355831,
       43.984025
      ],
      [
       -103.356681,
       43.983313
      ],
      [
       -103.357757,
       43.982784
      ],
      [
       -103.358986,
       43.982475
      ],
      [
       -103.358986,
       43.982475
      ],
      [
       -103.379316,
       43.979433
      ],
      [
       -103.400173,
       43.978401
      ],
      [
       -103.421014,
       43.980475
      ],
      [
       -103.441331,
       43.98453
      ],
      [
       -103.441331,
       43.98453
      ],
      [
       -103.442529,
       43.984897
      ],
      [
       -103.443555,
       43.985475
      ],
      [
       -103.444339,
       43.986226
      ],
      [
       -103.444828,
       43.987097
      ],
      [
       -103.444987,
       43.98803
      ],
      [
       -103.444806,
       43.988961
      ],
      [
       -103.444298,
       43.989826
      ],
      [
       -103.443497,
       43.990567
      ],
      [
       -103.442458,
       43.991133
      ],
      [
       -103.441251,
       43.991486
      ],
      [
       -103.439959,
       43.991601
      ],
      [
       -103.438669,
       43.99147
      ],
      [
       -103.438669,
       43.99147
      ]
     ]
    ]
   }
  },
  {
   "type": "Feature",
   "properties": {
    "FeatureCategory": "Retardant Avoidance Area",
    "Label": "Spring Creek",
    "IsVisible": "Yes",
    "MapMethod": "Digitized-Other",
    "GeometryID": "SMTG-PY-0006",
    "IncidentName": "Storm Mountain",
    "IRWINID": null,
    "CreateName": "TRAINEE, GISS",
    "CreateDate": "2026-07-28T04:30:00-06:00",
    "DeleteThis": "No",
    "Comments": "300 m each side of the creek. Exercise buffer.",
    "GISAcres": 623.1,
    "PolygonDateTime": null
   },
   "geometry": {
    "type": "Polygon",
    "coordinates": [
     [
      [
       -103.353872,
       43.97378
      ],
      [
       -103.362063,
       43.96969
      ],
      [
       -103.370471,
       43.966535
      ],
      [
       -103.379901,
       43.963919
      ],
      [
       -103.389432,
       43.962331
      ],
      [
       -103.398713,
       43.961807
      ],
      [
       -103.398713,
       43.961807
      ],
      [
       -103.399688,
       43.961846
      ],
      [
       -103.400615,
       43.962065
      ],
      [
       -103.401433,
       43.962449
      ],
      [
       -103.402085,
       43.962974
      ],
      [
       -103.402527,
       43.963603
      ],
      [
       -103.402728,
       43.964293
      ],
      [
       -103.402675,
       43.964997
      ],
      [
       -103.402372,
       43.965667
      ],
      [
       -103.401839,
       43.966257
      ],
      [
       -103.401112,
       43.966728
      ],
      [
       -103.400242,
       43.967047
      ],
      [
       -103.399287,
       43.967193
      ],
      [
       -103.399287,
       43.967193
      ],
      [
       -103.390569,
       43.967669
      ],
      [
       -103.3821,
       43.969081
      ],
      [
       -103.373529,
       43.971465
      ],
      [
       -103.365938,
       43.97431
      ],
      [
       -103.358129,
       43.97822
      ],
      [
       -103.358129,
       43.97822
      ],
      [
       -103.35726,
       43.978543
      ],
      [
       -103.356306,
       43.978691
      ],
      [
       -103.355331,
       43.978657
      ],
      [
       -103.354401,
       43.978441
      ],
      [
       -103.353581,
       43.978059
      ],
      [
       -103.352925,
       43.977537
      ],
      [
       -103.352479,
       43.97691
      ],
      [
       -103.352273,
       43.976221
      ],
      [
       -103.352321,
       43.975517
      ],
      [
       -103.352619,
       43.974846
      ],
      [
       -103.353148,
       43.974253
      ],
      [
       -103.353872,
       43.97378
      ],
      [
       -103.353872,
       43.97378
      ]
     ]
    ]
   }
  },
  {
   "type": "Feature",
   "properties": {
    "FeatureCategory": "Closure Area",
    "Label": "Storm Mountain Closure",
    "IsVisible": "Yes",
    "MapMethod": "Digitized-Other",
    "GeometryID": "SMTG-PY-0007",
    "IncidentName": "Storm Mountain",
    "IRWINID": null,
    "CreateName": "TRAINEE, GISS",
    "CreateDate": "2026-07-28T04:30:00-06:00",
    "DeleteThis": "No",
    "Comments": "Public closure. Roads and trails inside are closed.",
    "GISAcres": 13676.6,
    "PolygonDateTime": null
   },
   "geometry": {
    "type": "Polygon",
    "coordinates": [
     [
      [
       -103.337667,
       43.96325
      ],
      [
       -103.337775,
       43.966548
      ],
      [
       -103.338279,
       43.969826
      ],
      [
       -103.339178,
       43.97306
      ],
      [
       -103.340463,
       43.976224
      ],
      [
       -103.342126,
       43.979296
      ],
      [
       -103.344153,
       43.982252
      ],
      [
       -103.34653,
       43.985068
      ],
      [
       -103.349238,
       43.987725
      ],
      [
       -103.352256,
       43.990201
      ],
      [
       -103.355562,
       43.992477
      ],
      [
       -103.35913,
       43.994536
      ],
      [
       -103.362934,
       43.996363
      ],
      [
       -103.366944,
       43.997944
      ],
      [
       -103.37113,
       43.999266
      ],
      [
       -103.37546,
       44.00032
      ],
      [
       -103.3799,
       44.001097
      ],
      [
       -103.384418,
       44.001592
      ],
      [
       -103.388978,
       44.0018
      ],
      [
       -103.393546,
       44.00172
      ],
      [
       -103.398087,
       44.001354
      ],
      [
       -103.402566,
       44.000702
      ],
      [
       -103.406949,
       43.999771
      ],
      [
       -103.411204,
       43.998568
      ],
      [
       -103.415296,
       43.997102
      ],
      [
       -103.419196,
       43.995383
      ],
      [
       -103.422873,
       43.993426
      ],
      [
       -103.4263,
       43.991245
      ],
      [
       -103.42945,
       43.988856
      ],
      [
       -103.432299,
       43.986278
      ],
      [
       -103.434827,
       43.98353
      ],
      [
       -103.437012,
       43.980634
      ],
      [
       -103.43884,
       43.977611
      ],
      [
       -103.440295,
       43.974485
      ],
      [
       -103.441368,
       43.971279
      ],
      [
       -103.442049,
       43.968017
      ],
      [
       -103.442335,
       43.964726
      ],
      [
       -103.442222,
       43.961428
      ],
      [
       -103.441711,
       43.958151
      ],
      [
       -103.440807,
       43.954918
      ],
      [
       -103.439517,
       43.951754
      ],
      [
       -103.43785,
       43.948683
      ],
      [
       -103.435819,
       43.945729
      ],
      [
       -103.43344,
       43.942914
      ],
      [
       -103.43073,
       43.94026
      ],
      [
       -103.427711,
       43.937786
      ],
      [
       -103.424405,
       43.935512
      ],
      [
       -103.420838,
       43.933455
      ],
      [
       -103.417036,
       43.931629
      ],
      [
       -103.413029,
       43.930051
      ],
      [
       -103.408847,
       43.92873
      ],
      [
       -103.404522,
       43.927678
      ],
      [
       -103.400087,
       43.926902
      ],
      [
       -103.395575,
       43.926408
      ],
      [
       -103.39102,
       43.9262
      ],
      [
       -103.386458,
       43.926279
      ],
      [
       -103.381923,
       43.926646
      ],
      [
       -103.377449,
       43.927296
      ],
      [
       -103.37307,
       43.928226
      ],
      [
       -103.36882,
       43.929428
      ],
      [
       -103.364731,
       43.930893
      ],
      [
       -103.360834,
       43.932609
      ],
      [
       -103.357159,
       43.934565
      ],
      [
       -103.353733,
       43.936744
      ],
      [
       -103.350583,
       43.939131
      ],
      [
       -103.347732,
       43.941707
      ],
      [
       -103.345203,
       43.944453
      ],
      [
       -103.343015,
       43.947347
      ],
      [
       -103.341183,
       43.950368
      ],
      [
       -103.339723,
       43.953493
      ],
      [
       -103.338645,
       43.956698
      ],
      [
       -103.337958,
       43.959959
      ],
      [
       -103.337667,
       43.96325
      ]
     ]
    ]
   }
  },
  {
   "type": "Feature",
   "properties": {
    "FeatureCategory": "Safety Zone",
    "Label": "SZ-1 Area",
    "IsVisible": "Yes",
    "MapMethod": "GPS-Walked",
    "GeometryID": "SMTG-PY-0008",
    "IncidentName": "Storm Mountain",
    "IRWINID": null,
    "CreateName": "TRAINEE, GISS",
    "CreateDate": "2026-07-28T04:30:00-06:00",
    "DeleteThis": "No",
    "Comments": "Approximately 13 acres of meadow.",
    "GISAcres": 13.1,
    "PolygonDateTime": null
   },
   "geometry": {
    "type": "Polygon",
    "coordinates": [
     [
      [
       -103.38458,
       43.961177
      ],
      [
       -103.384584,
       43.961279
      ],
      [
       -103.384599,
       43.961381
      ],
      [
       -103.384627,
       43.961481
      ],
      [
       -103.384667,
       43.961579
      ],
      [
       -103.384719,
       43.961674
      ],
      [
       -103.384781,
       43.961765
      ],
      [
       -103.384855,
       43.961852
      ],
      [
       -103.384939,
       43.961935
      ],
      [
       -103.385032,
       43.962011
      ],
      [
       -103.385135,
       43.962082
      ],
      [
       -103.385245,
       43.962145
      ],
      [
       -103.385363,
       43.962202
      ],
      [
       -103.385487,
       43.962251
      ],
      [
       -103.385616,
       43.962292
      ],
      [
       -103.38575,
       43.962324
      ],
      [
       -103.385888,
       43.962348
      ],
      [
       -103.386027,
       43.962364
      ],
      [
       -103.386168,
       43.96237
      ],
      [
       -103.38631,
       43.962368
      ],
      [
       -103.38645,
       43.962356
      ],
      [
       -103.386589,
       43.962336
      ],
      [
       -103.386724,
       43.962307
      ],
      [
       -103.386856,
       43.96227
      ],
      [
       -103.386982,
       43.962225
      ],
      [
       -103.387103,
       43.962172
      ],
      [
       -103.387217,
       43.962111
      ],
      [
       -103.387323,
       43.962043
      ],
      [
       -103.38742,
       43.96197
      ],
      [
       -103.387509,
       43.96189
      ],
      [
       -103.387587,
       43.961805
      ],
      [
       -103.387655,
       43.961715
      ],
      [
       -103.387711,
       43.961622
      ],
      [
       -103.387756,
       43.961525
      ],
      [
       -103.38779,
       43.961426
      ],
      [
       -103.387811,
       43.961325
      ],
      [
       -103.38782,
       43.961223
      ],
      [
       -103.387816,
       43.961121
      ],
      [
       -103.387801,
       43.961019
      ],
      [
       -103.387773,
       43.960919
      ],
      [
       -103.387733,
       43.960821
      ],
      [
       -103.387681,
       43.960726
      ],
      [
       -103.387619,
       43.960635
      ],
      [
       -103.387545,
       43.960548
      ],
      [
       -103.387461,
       43.960465
      ],
      [
       -103.387368,
       43.960389
      ],
      [
       -103.387265,
       43.960318
      ],
      [
       -103.387155,
       43.960255
      ],
      [
       -103.387037,
       43.960198
      ],
      [
       -103.386913,
       43.960149
      ],
      [
       -103.386784,
       43.960108
      ],
      [
       -103.38665,
       43.960076
      ],
      [
       -103.386512,
       43.960052
      ],
      [
       -103.386373,
       43.960036
      ],
      [
       -103.386232,
       43.96003
      ],
      [
       -103.38609,
       43.960032
      ],
      [
       -103.38595,
       43.960044
      ],
      [
       -103.385811,
       43.960064
      ],
      [
       -103.385676,
       43.960093
      ],
      [
       -103.385544,
       43.96013
      ],
      [
       -103.385418,
       43.960175
      ],
      [
       -103.385297,
       43.960228
      ],
      [
       -103.385183,
       43.960289
      ],
      [
       -103.385077,
       43.960357
      ],
      [
       -103.38498,
       43.96043
      ],
      [
       -103.384891,
       43.96051
      ],
      [
       -103.384813,
       43.960595
      ],
      [
       -103.384745,
       43.960685
      ],
      [
       -103.384689,
       43.960778
      ],
      [
       -103.384644,
       43.960875
      ],
      [
       -103.38461,
       43.960974
      ],
      [
       -103.384589,
       43.961075
      ],
      [
       -103.38458,
       43.961177
      ]
     ]
    ]
   }
  },
  {
   "type": "Feature",
   "properties": {
    "FeatureCategory": "Structure Group",
    "Label": "Training Grounds Structures",
    "IsVisible": "Yes",
    "MapMethod": "GPS-Walked",
    "GeometryID": "SMTG-PY-0009",
    "IncidentName": "Storm Mountain",
    "IRWINID": null,
    "CreateName": "TRAINEE, GISS",
    "CreateDate": "2026-07-28T04:30:00-06:00",
    "DeleteThis": "No",
    "Comments": "Lodge, dining hall, cabin row, tank. Structure protection group assigned.",
    "GISAcres": 95.0,
    "PolygonDateTime": null
   },
   "geometry": {
    "type": "Polygon",
    "coordinates": [
     [
      [
       -103.372439,
       43.964738
      ],
      [
       -103.372448,
       43.965013
      ],
      [
       -103.37249,
       43.965286
      ],
      [
       -103.372565,
       43.965555
      ],
      [
       -103.372672,
       43.965819
      ],
      [
       -103.372811,
       43.966075
      ],
      [
       -103.37298,
       43.966321
      ],
      [
       -103.373178,
       43.966556
      ],
      [
       -103.373404,
       43.966777
      ],
      [
       -103.373655,
       43.966984
      ],
      [
       -103.373931,
       43.967173
      ],
      [
       -103.374228,
       43.967345
      ],
      [
       -103.374545,
       43.967497
      ],
      [
       -103.374879,
       43.967629
      ],
      [
       -103.375228,
       43.967739
      ],
      [
       -103.375588,
       43.967827
      ],
      [
       -103.375958,
       43.967891
      ],
      [
       -103.376334,
       43.967933
      ],
      [
       -103.376714,
       43.96795
      ],
      [
       -103.377095,
       43.967943
      ],
      [
       -103.377473,
       43.967913
      ],
      [
       -103.377846,
       43.967859
      ],
      [
       -103.378211,
       43.967781
      ],
      [
       -103.378565,
       43.967681
      ],
      [
       -103.378906,
       43.967559
      ],
      [
       -103.379231,
       43.967416
      ],
      [
       -103.379538,
       43.967253
      ],
      [
       -103.379823,
       43.967071
      ],
      [
       -103.380086,
       43.966872
      ],
      [
       -103.380323,
       43.966657
      ],
      [
       -103.380534,
       43.966429
      ],
      [
       -103.380716,
       43.966187
      ],
      [
       -103.380869,
       43.965936
      ],
      [
       -103.38099,
       43.965675
      ],
      [
       -103.38108,
       43.965408
      ],
      [
       -103.381137,
       43.965136
      ],
      [
       -103.381161,
       43.964862
      ],
      [
       -103.381152,
       43.964587
      ],
      [
       -103.38111,
       43.964314
      ],
      [
       -103.381035,
       43.964045
      ],
      [
       -103.380927,
       43.963781
      ],
      [
       -103.380789,
       43.963525
      ],
      [
       -103.38062,
       43.963279
      ],
      [
       -103.380422,
       43.963044
      ],
      [
       -103.380196,
       43.962823
      ],
      [
       -103.379944,
       43.962616
      ],
      [
       -103.379669,
       43.962427
      ],
      [
       -103.379372,
       43.962255
      ],
      [
       -103.379055,
       43.962103
      ],
      [
       -103.378721,
       43.961971
      ],
      [
       -103.378372,
       43.961861
      ],
      [
       -103.378012,
       43.961773
      ],
      [
       -103.377642,
       43.961709
      ],
      [
       -103.377266,
       43.961667
      ],
      [
       -103.376886,
       43.96165
      ],
      [
       -103.376505,
       43.961657
      ],
      [
       -103.376127,
       43.961687
      ],
      [
       -103.375754,
       43.961741
      ],
      [
       -103.375389,
       43.961819
      ],
      [
       -103.375035,
       43.961919
      ],
      [
       -103.374694,
       43.962041
      ],
      [
       -103.374369,
       43.962184
      ],
      [
       -103.374063,
       43.962347
      ],
      [
       -103.373777,
       43.962529
      ],
      [
       -103.373514,
       43.962728
      ],
      [
       -103.373277,
       43.962942
      ],
      [
       -103.373066,
       43.963171
      ],
      [
       -103.372884,
       43.963413
      ],
      [
       -103.372731,
       43.963664
      ],
      [
       -103.37261,
       43.963925
      ],
      [
       -103.37252,
       43.964192
      ],
      [
       -103.372463,
       43.964464
      ],
      [
       -103.372439,
       43.964738
      ]
     ]
    ]
   }
  },
  {
   "type": "Feature",
   "properties": {
    "FeatureCategory": "Management Action Point Area",
    "Label": "MAP 1 \u2014 Storm Mountain Rd",
    "IsVisible": "Yes",
    "MapMethod": "Digitized-Topo",
    "GeometryID": "SMTG-PY-0010",
    "IncidentName": "Storm Mountain",
    "IRWINID": null,
    "CreateName": "TRAINEE, GISS",
    "CreateDate": "2026-07-28T04:30:00-06:00",
    "DeleteThis": "No",
    "Comments": "Trigger: fire crosses the drainage west of DP 3 \u2014 evacuate the training grounds.",
    "GISAcres": 193.8,
    "PolygonDateTime": null
   },
   "geometry": {
    "type": "Polygon",
    "coordinates": [
     [
      [
       -103.36377,
       43.965411
      ],
      [
       -103.363783,
       43.965803
      ],
      [
       -103.363843,
       43.966194
      ],
      [
       -103.36395,
       43.966579
      ],
      [
       -103.364103,
       43.966955
      ],
      [
       -103.364301,
       43.967321
      ],
      [
       -103.364543,
       43.967673
      ],
      [
       -103.364826,
       43.968008
      ],
      [
       -103.365148,
       43.968324
      ],
      [
       -103.365507,
       43.968619
      ],
      [
       -103.365901,
       43.96889
      ],
      [
       -103.366325,
       43.969135
      ],
      [
       -103.366778,
       43.969353
      ],
      [
       -103.367255,
       43.969541
      ],
      [
       -103.367753,
       43.969698
      ],
      [
       -103.368268,
       43.969824
      ],
      [
       -103.368797,
       43.969916
      ],
      [
       -103.369334,
       43.969975
      ],
      [
       -103.369877,
       43.97
      ],
      [
       -103.37042,
       43.969991
      ],
      [
       -103.370961,
       43.969947
      ],
      [
       -103.371494,
       43.96987
      ],
      [
       -103.372015,
       43.969759
      ],
      [
       -103.372522,
       43.969616
      ],
      [
       -103.373009,
       43.969441
      ],
      [
       -103.373473,
       43.969237
      ],
      [
       -103.373911,
       43.969004
      ],
      [
       -103.374319,
       43.968745
      ],
      [
       -103.374694,
       43.968461
      ],
      [
       -103.375033,
       43.968154
      ],
      [
       -103.375334,
       43.967827
      ],
      [
       -103.375595,
       43.967482
      ],
      [
       -103.375813,
       43.967122
      ],
      [
       -103.375986,
       43.96675
      ],
      [
       -103.376114,
       43.966369
      ],
      [
       -103.376196,
       43.965981
      ],
      [
       -103.37623,
       43.965589
      ],
      [
       -103.376217,
       43.965196
      ],
      [
       -103.376157,
       43.964806
      ],
      [
       -103.37605,
       43.964421
      ],
      [
       -103.375897,
       43.964044
      ],
      [
       -103.375698,
       43.963679
      ],
      [
       -103.375457,
       43.963327
      ],
      [
       -103.375174,
       43.962992
      ],
      [
       -103.374852,
       43.962675
      ],
      [
       -103.374492,
       43.962381
      ],
      [
       -103.374099,
       43.96211
      ],
      [
       -103.373674,
       43.961865
      ],
      [
       -103.373222,
       43.961647
      ],
      [
       -103.372744,
       43.961459
      ],
      [
       -103.372246,
       43.961302
      ],
      [
       -103.371731,
       43.961176
      ],
      [
       -103.371203,
       43.961084
      ],
      [
       -103.370666,
       43.961025
      ],
      [
       -103.370123,
       43.961
      ],
      [
       -103.36958,
       43.961009
      ],
      [
       -103.369039,
       43.961053
      ],
      [
       -103.368506,
       43.96113
      ],
      [
       -103.367985,
       43.961241
      ],
      [
       -103.367479,
       43.961384
      ],
      [
       -103.366992,
       43.961558
      ],
      [
       -103.366527,
       43.961763
      ],
      [
       -103.36609,
       43.961996
      ],
      [
       -103.365682,
       43.962255
      ],
      [
       -103.365307,
       43.962539
      ],
      [
       -103.364967,
       43.962846
      ],
      [
       -103.364666,
       43.963173
      ],
      [
       -103.364406,
       43.963518
      ],
      [
       -103.364188,
       43.963877
      ],
      [
       -103.364014,
       43.964249
      ],
      [
       -103.363886,
       43.964631
      ],
      [
       -103.363804,
       43.965019
      ],
      [
       -103.36377,
       43.965411
      ]
     ]
    ]
   }
  }
 ]
}
