{
 "type": "FeatureCollection",
 "name": "EventLine",
 "crs": {
  "type": "name",
  "properties": {
   "name": "urn:ogc:def:crs:OGC:1.3:CRS84"
  }
 },
 "_warning": "TRAINING EXERCISE \u2014 NOT AN ACTUAL INCIDENT. Fabricated data. Never publish, never sync to NIFS or NIFC AGOL.",
 "_fire": "Indigo",
 "_generated_by": "scripts/make_fires.py",
 "features": [
  {
   "type": "Feature",
   "properties": {
    "FeatureCategory": "Completed Dozer Line",
    "Label": "Div Z Dozer",
    "IsVisible": "Yes",
    "MapMethod": "GPS-Driven",
    "GeometryID": "IN-LN-0001",
    "IncidentName": "Indigo",
    "IRWINID": null,
    "CreateName": "TRAINEE, GISS",
    "CreateDate": "2026-08-02T04:20:00-06:00",
    "DeleteThis": "No",
    "Comments": "Completed 0730 op 2. Two blades.",
    "LengthMiles": 1.961
   },
   "geometry": {
    "type": "LineString",
    "coordinates": [
     [
      -103.437757,
      43.924472
     ],
     [
      -103.438158,
      43.930472
     ],
     [
      -103.442958,
      43.935271
     ],
     [
      -103.449359,
      43.93847
     ],
     [
      -103.456157,
      43.936067
     ],
     [
      -103.462153,
      43.932864
     ]
    ]
   }
  },
  {
   "type": "Feature",
   "properties": {
    "FeatureCategory": "Completed Hand Line",
    "Label": "Div A Hand",
    "IsVisible": "Yes",
    "MapMethod": "GPS-Walked",
    "GeometryID": "IN-LN-0002",
    "IncidentName": "Indigo",
    "IRWINID": null,
    "CreateName": "TRAINEE, GISS",
    "CreateDate": "2026-08-02T04:20:00-06:00",
    "DeleteThis": "No",
    "Comments": "Completed op 2. Type 1 crew.",
    "LengthMiles": 0.878
   },
   "geometry": {
    "type": "LineString",
    "coordinates": [
     [
      -103.437757,
      43.924472
     ],
     [
      -103.440953,
      43.918872
     ],
     [
      -103.447345,
      43.91407
     ]
    ]
   }
  },
  {
   "type": "Feature",
   "properties": {
    "FeatureCategory": "Completed Road as Line",
    "Label": "Div Z Road",
    "IsVisible": "Yes",
    "MapMethod": "GPS-Driven",
    "GeometryID": "IN-LN-0003",
    "IncidentName": "Indigo",
    "IRWINID": null,
    "CreateName": "TRAINEE, GISS",
    "CreateDate": "2026-08-02T04:20:00-06:00",
    "DeleteThis": "No",
    "Comments": "Existing road brushed and used as line.",
    "LengthMiles": 0.712
   },
   "geometry": {
    "type": "LineString",
    "coordinates": [
     [
      -103.462153,
      43.932864
     ],
     [
      -103.467347,
      43.92926
     ],
     [
      -103.471739,
      43.925257
     ]
    ]
   }
  },
  {
   "type": "Feature",
   "properties": {
    "FeatureCategory": "Proposed Dozer Line",
    "Label": "Div A Proposed Dozer",
    "IsVisible": "Yes",
    "MapMethod": "Digitized-Topo",
    "GeometryID": "IN-LN-0004",
    "IncidentName": "Indigo",
    "IRWINID": null,
    "CreateName": "TRAINEE, GISS",
    "CreateDate": "2026-08-02T04:20:00-06:00",
    "DeleteThis": "No",
    "Comments": "Op 3 objective. Tie DP 4 to the north contingency.",
    "LengthMiles": 1.087
   },
   "geometry": {
    "type": "LineString",
    "coordinates": [
     [
      -103.471739,
      43.925257
     ],
     [
      -103.47533,
      43.920454
     ],
     [
      -103.47652,
      43.915253
     ],
     [
      -103.474514,
      43.910455
     ]
    ]
   }
  },
  {
   "type": "Feature",
   "properties": {
    "FeatureCategory": "Proposed Hand Line",
    "Label": "North Contingency Hand",
    "IsVisible": "Yes",
    "MapMethod": "Digitized-Topo",
    "GeometryID": "IN-LN-0005",
    "IncidentName": "Indigo",
    "IRWINID": null,
    "CreateName": "TRAINEE, GISS",
    "CreateDate": "2026-08-02T04:20:00-06:00",
    "DeleteThis": "No",
    "Comments": "Contingency only. Do not construct without Ops approval.",
    "LengthMiles": 1.054
   },
   "geometry": {
    "type": "LineString",
    "coordinates": [
     [
      -103.474514,
      43.910455
     ],
     [
      -103.468916,
      43.907259
     ],
     [
      -103.462522,
      43.906063
     ],
     [
      -103.455332,
      43.907267
     ]
    ]
   }
  },
  {
   "type": "Feature",
   "properties": {
    "FeatureCategory": "Proposed Road as Line",
    "Label": "North Contingency Road",
    "IsVisible": "Yes",
    "MapMethod": "Digitized-Topo",
    "GeometryID": "IN-LN-0006",
    "IncidentName": "Indigo",
    "IRWINID": null,
    "CreateName": "TRAINEE, GISS",
    "CreateDate": "2026-08-02T04:20:00-06:00",
    "DeleteThis": "No",
    "Comments": "Contingency.",
    "LengthMiles": 0.892
   },
   "geometry": {
    "type": "LineString",
    "coordinates": [
     [
      -103.455332,
      43.907267
     ],
     [
      -103.447343,
      43.90967
     ],
     [
      -103.440952,
      43.914471
     ]
    ]
   }
  },
  {
   "type": "Feature",
   "properties": {
    "FeatureCategory": "Uncontrolled Fire Edge",
    "Label": "Active Edge",
    "IsVisible": "Yes",
    "MapMethod": "Infrared Image",
    "GeometryID": "IN-LN-0007",
    "IncidentName": "Indigo",
    "IRWINID": null,
    "CreateName": "TRAINEE, GISS",
    "CreateDate": "2026-08-02T04:20:00-06:00",
    "DeleteThis": "No",
    "Comments": "Active at 0214 MDT 7/28.",
    "LengthMiles": 1.761
   },
   "geometry": {
    "type": "LineString",
    "coordinates": [
     [
      -103.448945,
      43.91607
     ],
     [
      -103.456136,
      43.913267
     ],
     [
      -103.463328,
      43.912063
     ],
     [
      -103.468925,
      43.914059
     ],
     [
      -103.471729,
      43.918057
     ],
     [
      -103.470537,
      43.923258
     ]
    ]
   }
  },
  {
   "type": "Feature",
   "properties": {
    "FeatureCategory": "Contained Fire Edge",
    "Label": "Held Edge",
    "IsVisible": "Yes",
    "MapMethod": "Infrared Image",
    "GeometryID": "IN-LN-0008",
    "IncidentName": "Indigo",
    "IRWINID": null,
    "CreateName": "TRAINEE, GISS",
    "CreateDate": "2026-08-02T04:20:00-06:00",
    "DeleteThis": "No",
    "Comments": "Held at 0214 MDT 7/28.",
    "LengthMiles": 3.237
   },
   "geometry": {
    "type": "LineString",
    "coordinates": [
     [
      -103.470537,
      43.923258
     ],
     [
      -103.466145,
      43.927261
     ],
     [
      -103.460951,
      43.930864
     ],
     [
      -103.455355,
      43.934067
     ],
     [
      -103.449758,
      43.93647
     ],
     [
      -103.444958,
      43.936071
     ],
     [
      -103.440957,
      43.931272
     ],
     [
      -103.439756,
      43.925672
     ],
     [
      -103.442552,
      43.920471
     ],
     [
      -103.448945,
      43.91607
     ]
    ]
   }
  },
  {
   "type": "Feature",
   "properties": {
    "FeatureCategory": "Access Route",
    "Label": "Storm Mountain Rd",
    "IsVisible": "Yes",
    "MapMethod": "GPS-Driven",
    "GeometryID": "IN-LN-0009",
    "IncidentName": "Indigo",
    "IRWINID": null,
    "CreateName": "TRAINEE, GISS",
    "CreateDate": "2026-08-02T04:20:00-06:00",
    "DeleteThis": "No",
    "Comments": "1.7 mi of winding FS road. Single lane with turnouts. THE access constraint \u2014 brief every resource on it.",
    "LengthMiles": 2.109
   },
   "geometry": {
    "type": "LineString",
    "coordinates": [
     [
      -103.513684,
      43.914007
     ],
     [
      -103.505695,
      43.915219
     ],
     [
      -103.497708,
      43.91763
     ],
     [
      -103.490517,
      43.919239
     ],
     [
      -103.483321,
      43.918607
     ],
     [
      -103.477724,
      43.918052
     ],
     [
      -103.474522,
      43.915255
     ]
    ]
   }
  },
  {
   "type": "Feature",
   "properties": {
    "FeatureCategory": "Access Route",
    "Label": "South Access",
    "IsVisible": "Yes",
    "MapMethod": "GPS-Driven",
    "GeometryID": "IN-LN-0010",
    "IncidentName": "Indigo",
    "IRWINID": null,
    "CreateName": "TRAINEE, GISS",
    "CreateDate": "2026-08-02T04:20:00-06:00",
    "DeleteThis": "No",
    "Comments": "Longer, wider, slower.",
    "LengthMiles": 3.259
   },
   "geometry": {
    "type": "LineString",
    "coordinates": [
     [
      -103.513684,
      43.914007
     ],
     [
      -103.507323,
      43.925617
     ],
     [
      -103.497745,
      43.932831
     ],
     [
      -103.484952,
      43.935246
     ],
     [
      -103.472953,
      43.934456
     ],
     [
      -103.464153,
      43.933263
     ]
    ]
   }
  },
  {
   "type": "Feature",
   "properties": {
    "FeatureCategory": "Escape Route",
    "Label": "ER North",
    "IsVisible": "Yes",
    "MapMethod": "GPS-Walked",
    "GeometryID": "IN-LN-0011",
    "IncidentName": "Indigo",
    "IRWINID": null,
    "CreateName": "TRAINEE, GISS",
    "CreateDate": "2026-08-02T04:20:00-06:00",
    "DeleteThis": "No",
    "Comments": "DP 4 to the north ridge.",
    "LengthMiles": 0.844
   },
   "geometry": {
    "type": "LineString",
    "coordinates": [
     [
      -103.474522,
      43.915255
     ],
     [
      -103.478509,
      43.909651
     ],
     [
      -103.483294,
      43.904846
     ]
    ]
   }
  },
  {
   "type": "Feature",
   "properties": {
    "FeatureCategory": "Escape Route",
    "Label": "ER South",
    "IsVisible": "Yes",
    "MapMethod": "GPS-Walked",
    "GeometryID": "IN-LN-0012",
    "IncidentName": "Indigo",
    "IRWINID": null,
    "CreateName": "TRAINEE, GISS",
    "CreateDate": "2026-08-02T04:20:00-06:00",
    "DeleteThis": "No",
    "Comments": "DP 5 to SZ-2.",
    "LengthMiles": 0.752
   },
   "geometry": {
    "type": "LineString",
    "coordinates": [
     [
      -103.462153,
      43.932864
     ],
     [
      -103.467357,
      43.936861
     ],
     [
      -103.473761,
      43.939656
     ]
    ]
   }
  },
  {
   "type": "Feature",
   "properties": {
    "FeatureCategory": "Division Break",
    "Label": "Div A / Div Z",
    "IsVisible": "Yes",
    "MapMethod": "Digitized-Topo",
    "GeometryID": "IN-LN-0013",
    "IncidentName": "Indigo",
    "IRWINID": null,
    "CreateName": "TRAINEE, GISS",
    "CreateDate": "2026-08-02T04:20:00-06:00",
    "DeleteThis": "No",
    "Comments": "",
    "LengthMiles": 1.906
   },
   "geometry": {
    "type": "LineString",
    "coordinates": [
     [
      -103.436157,
      43.922472
     ],
     [
      -103.444953,
      43.924471
     ],
     [
      -103.454548,
      43.925668
     ],
     [
      -103.464144,
      43.926303
     ],
     [
      -103.47374,
      43.926616
     ]
    ]
   }
  },
  {
   "type": "Feature",
   "properties": {
    "FeatureCategory": "Division Break",
    "Label": "Div Z / Div M",
    "IsVisible": "Yes",
    "MapMethod": "Digitized-Topo",
    "GeometryID": "IN-LN-0014",
    "IncidentName": "Indigo",
    "IRWINID": null,
    "CreateName": "TRAINEE, GISS",
    "CreateDate": "2026-08-02T04:20:00-06:00",
    "DeleteThis": "No",
    "Comments": "",
    "LengthMiles": 1.007
   },
   "geometry": {
    "type": "LineString",
    "coordinates": [
     [
      -103.460961,
      43.940865
     ],
     [
      -103.460153,
      43.932865
     ],
     [
      -103.460546,
      43.926305
     ]
    ]
   }
  },
  {
   "type": "Feature",
   "properties": {
    "FeatureCategory": "Branch Break",
    "Label": "Branch I / Branch II",
    "IsVisible": "Yes",
    "MapMethod": "Digitized-Topo",
    "GeometryID": "IN-LN-0015",
    "IncidentName": "Indigo",
    "IRWINID": null,
    "CreateName": "TRAINEE, GISS",
    "CreateDate": "2026-08-02T04:20:00-06:00",
    "DeleteThis": "No",
    "Comments": "",
    "LengthMiles": 1.619
   },
   "geometry": {
    "type": "LineString",
    "coordinates": [
     [
      -103.435357,
      43.912872
     ],
     [
      -103.451339,
      43.910869
     ],
     [
      -103.46732,
      43.90886
     ]
    ]
   }
  },
  {
   "type": "Feature",
   "properties": {
    "FeatureCategory": "Pump and Hose Lay",
    "Label": "Draft 1 Lay",
    "IsVisible": "Yes",
    "MapMethod": "GPS-Walked",
    "GeometryID": "IN-LN-0016",
    "IncidentName": "Indigo",
    "IRWINID": null,
    "CreateName": "TRAINEE, GISS",
    "CreateDate": "2026-08-02T04:20:00-06:00",
    "DeleteThis": "No",
    "Comments": "From Draft 1 to the structure group. Two portable pumps.",
    "LengthMiles": 0.801
   },
   "geometry": {
    "type": "LineString",
    "coordinates": [
     [
      -103.490666,
      43.914279
     ],
     [
      -103.484913,
      43.915245
     ],
     [
      -103.47932,
      43.91669
     ],
     [
      -103.475325,
      43.917654
     ]
    ]
   }
  },
  {
   "type": "Feature",
   "properties": {
    "FeatureCategory": "Fire Spread Direction",
    "Label": "Predicted Spread",
    "IsVisible": "Yes",
    "MapMethod": "Digitized-Other",
    "GeometryID": "IN-LN-0017",
    "IncidentName": "Indigo",
    "IRWINID": null,
    "CreateName": "TRAINEE, GISS",
    "CreateDate": "2026-08-02T04:20:00-06:00",
    "DeleteThis": "No",
    "Comments": "Predicted op 3 spread, northeast.",
    "LengthMiles": 1.111
   },
   "geometry": {
    "type": "LineString",
    "coordinates": [
     [
      -103.45135,
      43.925669
     ],
     [
      -103.460938,
      43.919264
     ],
     [
      -103.467327,
      43.91446
     ]
    ]
   }
  },
  {
   "type": "Feature",
   "properties": {
    "FeatureCategory": "Completed Hand Line",
    "Label": "H/L Coon Hollow",
    "IsVisible": "Yes",
    "MapMethod": "Digitized-Other",
    "GeometryID": "IN-TR-0001",
    "IncidentName": "Indigo",
    "IRWINID": null,
    "CreateName": "TRAINEE, GISS",
    "CreateDate": "2026-08-02T04:20:00-06:00",
    "DeleteThis": "No",
    "Comments": "Derived from trail 'Coon Hollow' running within 75 m of the fire edge. Confirm with Ops before publishing.",
    "LengthMiles": 0.049,
    "DerivedFrom": "trail"
   },
   "geometry": {
    "type": "LineString",
    "coordinates": [
     [
      -103.471729,
      43.918057
     ],
     [
      -103.471969,
      43.918217
     ],
     [
      -103.472209,
      43.918377
     ],
     [
      -103.472449,
      43.918536
     ]
    ]
   }
  },
  {
   "type": "Feature",
   "properties": {
    "FeatureCategory": "Completed Road as Line",
    "Label": "Road FS 231",
    "IsVisible": "Yes",
    "MapMethod": "Digitized-Other",
    "GeometryID": "IN-RO-0001",
    "IncidentName": "Indigo",
    "IRWINID": null,
    "CreateName": "TRAINEE, GISS",
    "CreateDate": "2026-08-02T04:20:00-06:00",
    "DeleteThis": "No",
    "Comments": "Derived from road 'FS 231' running within 60 m of the fire edge. Confirm with Ops before publishing.",
    "LengthMiles": 0.113,
    "DerivedFrom": "road"
   },
   "geometry": {
    "type": "LineString",
    "coordinates": [
     [
      -103.443758,
      43.935671
     ],
     [
      -103.444025,
      43.935804
     ],
     [
      -103.444291,
      43.935937
     ],
     [
      -103.444558,
      43.936071
     ],
     [
      -103.444825,
      43.936204
     ],
     [
      -103.445092,
      43.936337
     ],
     [
      -103.445358,
      43.936471
     ],
     [
      -103.445625,
      43.936604
     ]
    ]
   }
  },
  {
   "type": "Feature",
   "properties": {
    "FeatureCategory": "Contained Fire Edge",
    "Label": "Contained",
    "IsVisible": "Yes",
    "MapMethod": "Hand Sketch",
    "GeometryID": "IN-ED-0001",
    "IncidentName": "Indigo",
    "IRWINID": null,
    "CreateName": "TRAINEE, GISS",
    "CreateDate": "2026-08-02T04:20:00-06:00",
    "DeleteThis": "No",
    "Comments": "Derived from perimeter and held line. OPS MUST CONFIRM before this is published.",
    "LengthMiles": 0.097,
    "DerivedFrom": "perimeter"
   },
   "geometry": {
    "type": "LineString",
    "coordinates": [
     [
      -103.444958,
      43.936071
     ],
     [
      -103.444791,
      43.935871
     ],
     [
      -103.444625,
      43.935671
     ],
     [
      -103.444458,
      43.935471
     ],
     [
      -103.444291,
      43.935271
     ],
     [
      -103.444124,
      43.935071
     ],
     [
      -103.443958,
      43.934871
     ]
    ]
   }
  },
  {
   "type": "Feature",
   "properties": {
    "FeatureCategory": "Contained Fire Edge",
    "Label": "Contained",
    "IsVisible": "Yes",
    "MapMethod": "Hand Sketch",
    "GeometryID": "IN-ED-0002",
    "IncidentName": "Indigo",
    "IRWINID": null,
    "CreateName": "TRAINEE, GISS",
    "CreateDate": "2026-08-02T04:20:00-06:00",
    "DeleteThis": "No",
    "Comments": "Derived from perimeter and held line. OPS MUST CONFIRM before this is published.",
    "LengthMiles": 0.112,
    "DerivedFrom": "perimeter"
   },
   "geometry": {
    "type": "LineString",
    "coordinates": [
     [
      -103.471286,
      43.917426
     ],
     [
      -103.471434,
      43.917636
     ],
     [
      -103.471581,
      43.917847
     ],
     [
      -103.471729,
      43.918057
     ],
     [
      -103.471677,
      43.918283
     ],
     [
      -103.471625,
      43.918509
     ],
     [
      -103.471574,
      43.918735
     ],
     [
      -103.471522,
      43.918962
     ]
    ]
   }
  },
  {
   "type": "Feature",
   "properties": {
    "FeatureCategory": "Contained Fire Edge",
    "Label": "Contained",
    "IsVisible": "Yes",
    "MapMethod": "Hand Sketch",
    "GeometryID": "IN-ED-0003",
    "IncidentName": "Indigo",
    "IRWINID": null,
    "CreateName": "TRAINEE, GISS",
    "CreateDate": "2026-08-02T04:20:00-06:00",
    "DeleteThis": "No",
    "Comments": "Derived from perimeter and held line. OPS MUST CONFIRM before this is published.",
    "LengthMiles": 0.08,
    "DerivedFrom": "perimeter"
   },
   "geometry": {
    "type": "LineString",
    "coordinates": [
     [
      -103.446558,
      43.936204
     ],
     [
      -103.446238,
      43.936177
     ],
     [
      -103.445918,
      43.936151
     ],
     [
      -103.445598,
      43.936124
     ],
     [
      -103.445278,
      43.936098
     ],
     [
      -103.444958,
      43.936071
     ]
    ]
   }
  },
  {
   "type": "Feature",
   "properties": {
    "FeatureCategory": "Uncontrolled Fire Edge",
    "Label": "Uncontrolled",
    "IsVisible": "Yes",
    "MapMethod": "Hand Sketch",
    "GeometryID": "IN-ED-0004",
    "IncidentName": "Indigo",
    "IRWINID": null,
    "CreateName": "TRAINEE, GISS",
    "CreateDate": "2026-08-02T04:20:00-06:00",
    "DeleteThis": "No",
    "Comments": "Derived from perimeter and held line. OPS MUST CONFIRM before this is published.",
    "LengthMiles": 2.822,
    "DerivedFrom": "perimeter"
   },
   "geometry": {
    "type": "LineString",
    "coordinates": [
     [
      -103.443791,
      43.934671
     ],
     [
      -103.443624,
      43.934471
     ],
     [
      -103.443458,
      43.934271
     ],
     [
      -103.443291,
      43.934071
     ],
     [
      -103.443124,
      43.933871
     ],
     [
      -103.442957,
      43.933672
     ],
     [
      -103.442791,
      43.933472
     ],
     [
      -103.442624,
      43.933272
     ],
     [
      -103.442457,
      43.933072
     ],
     [
      -103.442291,
      43.932872
     ],
     [
      -103.442124,
      43.932672
     ],
     [
      -103.441957,
      43.932472
     ],
     [
      -103.44179,
      43.932272
     ],
     [
      -103.441624,
      43.932072
     ],
     [
      -103.441457,
      43.931872
     ],
     [
      -103.44129,
      43.931672
     ],
     [
      -103.441124,
      43.931472
     ],
     [
      -103.440957,
      43.931272
     ],
     [
      -103.440909,
      43.931048
     ],
     [
      -103.440861,
      43.930824
     ],
     [
      -103.440813,
      43.9306
     ],
     [
      -103.440765,
      43.930376
     ],
     [
      -103.440717,
      43.930152
     ],
     [
      -103.440669,
      43.929928
     ],
     [
      -103.440621,
      43.929704
     ],
     [
      -103.440573,
      43.92948
     ],
     [
      -103.440525,
      43.929256
     ],
     [
      -103.440477,
      43.929032
     ],
     [
      -103.440429,
      43.928808
     ],
     [
      -103.44038,
      43.928584
     ],
     [
      -103.440332,
      43.92836
     ],
     [
      -103.440284,
      43.928136
     ],
     [
      -103.440236,
      43.927912
     ],
     [
      -103.440188,
      43.927688
     ],
     [
      -103.44014,
      43.927464
     ],
     [
      -103.440092,
      43.92724
     ],
     [
      -103.440044,
      43.927016
     ],
     [
      -103.439996,
      43.926792
     ],
     [
      -103.439948,
      43.926568
     ],
     [
      -103.4399,
      43.926344
     ],
     [
      -103.439852,
      43.92612
     ],
     [
      -103.439804,
      43.925896
     ],
     [
      -103.439756,
      43.925672
     ],
     [
      -103.439873,
      43.925455
     ],
     [
      -103.439989,
      43.925239
     ],
     [
      -103.440106,
      43.925022
     ],
     [
      -103.440222,
      43.924805
     ],
     [
      -103.440339,
      43.924588
     ],
     [
      -103.440455,
      43.924372
     ],
     [
      -103.440572,
      43.924155
     ],
     [
      -103.440688,
      43.923938
     ],
     [
      -103.440805,
      43.923722
     ],
     [
      -103.440921,
      43.923505
     ],
     [
      -103.441038,
      43.923288
     ],
     [
      -103.441154,
      43.923072
     ],
     [
      -103.441271,
      43.922855
     ],
     [
      -103.441387,
      43.922638
     ],
     [
      -103.441504,
      43.922421
     ],
     [
      -103.44162,
      43.922205
     ],
     [
      -103.441737,
      43.921988
     ],
     [
      -103.441853,
      43.921771
     ],
     [
      -103.44197,
      43.921555
     ],
     [
      -103.442086,
      43.921338
     ],
     [
      -103.442203,
      43.921121
     ],
     [
      -103.442319,
      43.920904
     ],
     [
      -103.442436,
      43.920688
     ],
     [
      -103.442552,
      43.920471
     ],
     [
      -103.44278,
      43.920314
     ],
     [
      -103.443009,
      43.920157
     ],
     [
      -103.443237,
      43.919999
     ],
     [
      -103.443465,
      43.919842
     ],
     [
      -103.443694,
      43.919685
     ],
     [
      -103.443922,
      43.919528
     ],
     [
      -103.44415,
      43.919371
     ],
     [
      -103.444379,
      43.919214
     ],
     [
      -103.444607,
      43.919056
     ],
     [
      -103.444835,
      43.918899
     ],
     [
      -103.445064,
      43.918742
     ],
     [
      -103.445292,
      43.918585
     ],
     [
      -103.44552,
      43.918428
     ],
     [
      -103.445749,
      43.918271
     ],
     [
      -103.445977,
      43.918113
     ],
     [
      -103.446205,
      43.917956
     ],
     [
      -103.446434,
      43.917799
     ],
     [
      -103.446662,
      43.917642
     ],
     [
      -103.44689,
      43.917485
     ],
     [
      -103.447119,
      43.917327
     ],
     [
      -103.447347,
      43.91717
     ],
     [
      -103.447575,
      43.917013
     ],
     [
      -103.447803,
      43.916856
     ],
     [
      -103.448032,
      43.916699
     ],
     [
      -103.44826,
      43.916542
     ],
     [
      -103.448488,
      43.916384
     ],
     [
      -103.448717,
      43.916227
     ],
     [
      -103.448945,
      43.91607
     ],
     [
      -103.449222,
      43.915962
     ],
     [
      -103.449498,
      43.915854
     ],
     [
      -103.449775,
      43.915747
     ],
     [
      -103.450051,
      43.915639
     ],
     [
      -103.450328,
      43.915531
     ],
     [
      -103.450605,
      43.915423
     ],
     [
      -103.450881,
      43.915315
     ],
     [
      -103.451158,
      43.915208
     ],
     [
      -103.451434,
      43.9151
     ],
     [
      -103.451711,
      43.914992
     ],
     [
      -103.451987,
      43.914884
     ],
     [
      -103.452264,
      43.914776
     ],
     [
      -103.452541,
      43.914669
     ],
     [
      -103.452817,
      43.914561
     ],
     [
      -103.453094,
      43.914453
     ],
     [
      -103.45337,
      43.914345
     ],
     [
      -103.453647,
      43.914237
     ],
     [
      -103.453923,
      43.91413
     ],
     [
      -103.4542,
      43.914022
     ],
     [
      -103.454477,
      43.913914
     ],
     [
      -103.454753,
      43.913806
     ],
     [
      -103.45503,
      43.913698
     ],
     [
      -103.455306,
      43.91359
     ],
     [
      -103.455583,
      43.913483
     ],
     [
      -103.455859,
      43.913375
     ],
     [
      -103.456136,
      43.913267
     ],
     [
      -103.456449,
      43.913215
     ],
     [
      -103.456761,
      43.913162
     ],
     [
      -103.457074,
      43.91311
     ],
     [
      -103.457387,
      43.913058
     ],
     [
      -103.4577,
      43.913005
     ],
     [
      -103.458012,
      43.912953
     ],
     [
      -103.458325,
      43.912901
     ],
     [
      -103.458638,
      43.912848
     ],
     [
      -103.45895,
      43.912796
     ],
     [
      -103.459263,
      43.912744
     ],
     [
      -103.459576,
      43.912691
     ],
     [
      -103.459888,
      43.912639
     ],
     [
      -103.460201,
      43.912587
     ],
     [
      -103.460514,
      43.912534
     ],
     [
      -103.460826,
      43.912482
     ],
     [
      -103.461139,
      43.912429
     ],
     [
      -103.461452,
      43.912377
     ],
     [
      -103.461765,
      43.912325
     ],
     [
      -103.462077,
      43.912272
     ],
     [
      -103.46239,
      43.91222
     ],
     [
      -103.462703,
      43.912168
     ],
     [
      -103.463015,
      43.912115
     ],
     [
      -103.463328,
      43.912063
     ],
     [
      -103.463608,
      43.912163
     ],
     [
      -103.463888,
      43.912263
     ],
     [
      -103.464168,
      43.912362
     ],
     [
      -103.464447,
      43.912462
     ],
     [
      -103.464727,
      43.912562
     ],
     [
      -103.465007,
      43.912662
     ],
     [
      -103.465287,
      43.912762
     ],
     [
      -103.465567,
      43.912861
     ],
     [
      -103.465847,
      43.912961
     ],
     [
      -103.466126,
      43.913061
     ],
     [
      -103.466406,
      43.913161
     ],
     [
      -103.466686,
      43.913261
     ],
     [
      -103.466966,
      43.91336
     ],
     [
      -103.467246,
      43.91346
     ],
     [
      -103.467526,
      43.91356
     ],
     [
      -103.467806,
      43.91366
     ],
     [
      -103.468085,
      43.91376
     ],
     [
      -103.468365,
      43.913859
     ],
     [
      -103.468645,
      43.913959
     ],
     [
      -103.468925,
      43.914059
     ],
     [
      -103.469073,
      43.914269
     ],
     [
      -103.46922,
      43.91448
     ],
     [
      -103.469368,
      43.91469
     ],
     [
      -103.469515,
      43.914901
     ],
     [
      -103.469663,
      43.915111
     ],
     [
      -103.46981,
      43.915322
     ],
     [
      -103.469958,
      43.915532
     ],
     [
      -103.470106,
      43.915742
     ],
     [
      -103.470253,
      43.915953
     ],
     [
      -103.470401,
      43.916163
     ],
     [
      -103.470548,
      43.916374
     ],
     [
      -103.470696,
      43.916584
     ],
     [
      -103.470843,
      43.916794
     ],
     [
      -103.470991,
      43.917005
     ],
     [
      -103.471139,
      43.917215
     ]
    ]
   }
  },
  {
   "type": "Feature",
   "properties": {
    "FeatureCategory": "Uncontrolled Fire Edge",
    "Label": "Uncontrolled",
    "IsVisible": "Yes",
    "MapMethod": "Hand Sketch",
    "GeometryID": "IN-ED-0005",
    "IncidentName": "Indigo",
    "IRWINID": null,
    "CreateName": "TRAINEE, GISS",
    "CreateDate": "2026-08-02T04:20:00-06:00",
    "DeleteThis": "No",
    "Comments": "Derived from perimeter and held line. OPS MUST CONFIRM before this is published.",
    "LengthMiles": 1.822,
    "DerivedFrom": "perimeter"
   },
   "geometry": {
    "type": "LineString",
    "coordinates": [
     [
      -103.47147,
      43.919188
     ],
     [
      -103.471418,
      43.919414
     ],
     [
      -103.471366,
      43.91964
     ],
     [
      -103.471314,
      43.919866
     ],
     [
      -103.471263,
      43.920092
     ],
     [
      -103.471211,
      43.920318
     ],
     [
      -103.471159,
      43.920544
     ],
     [
      -103.471107,
      43.920771
     ],
     [
      -103.471055,
      43.920997
     ],
     [
      -103.471003,
      43.921223
     ],
     [
      -103.470952,
      43.921449
     ],
     [
      -103.4709,
      43.921675
     ],
     [
      -103.470848,
      43.921901
     ],
     [
      -103.470796,
      43.922127
     ],
     [
      -103.470744,
      43.922353
     ],
     [
      -103.470692,
      43.92258
     ],
     [
      -103.470641,
      43.922806
     ],
     [
      -103.470589,
      43.923032
     ],
     [
      -103.470537,
      43.923258
     ],
     [
      -103.470337,
      43.92344
     ],
     [
      -103.470138,
      43.923622
     ],
     [
      -103.469938,
      43.923804
     ],
     [
      -103.469738,
      43.923986
     ],
     [
      -103.469539,
      43.924168
     ],
     [
      -103.469339,
      43.92435
     ],
     [
      -103.46914,
      43.924532
     ],
     [
      -103.46894,
      43.924714
     ],
     [
      -103.46874,
      43.924896
     ],
     [
      -103.468541,
      43.925078
     ],
     [
      -103.468341,
      43.92526
     ],
     [
      -103.468141,
      43.925441
     ],
     [
      -103.467942,
      43.925623
     ],
     [
      -103.467742,
      43.925805
     ],
     [
      -103.467543,
      43.925987
     ],
     [
      -103.467343,
      43.926169
     ],
     [
      -103.467143,
      43.926351
     ],
     [
      -103.466944,
      43.926533
     ],
     [
      -103.466744,
      43.926715
     ],
     [
      -103.466544,
      43.926897
     ],
     [
      -103.466345,
      43.927079
     ],
     [
      -103.466145,
      43.927261
     ],
     [
      -103.465919,
      43.927418
     ],
     [
      -103.465693,
      43.927574
     ],
     [
      -103.465468,
      43.927731
     ],
     [
      -103.465242,
      43.927888
     ],
     [
      -103.465016,
      43.928044
     ],
     [
      -103.46479,
      43.928201
     ],
     [
      -103.464564,
      43.928358
     ],
     [
      -103.464338,
      43.928514
     ],
     [
      -103.464113,
      43.928671
     ],
     [
      -103.463887,
      43.928828
     ],
     [
      -103.463661,
      43.928984
     ],
     [
      -103.463435,
      43.929141
     ],
     [
      -103.463209,
      43.929298
     ],
     [
      -103.462984,
      43.929454
     ],
     [
      -103.462758,
      43.929611
     ],
     [
      -103.462532,
      43.929767
     ],
     [
      -103.462306,
      43.929924
     ],
     [
      -103.46208,
      43.930081
     ],
     [
      -103.461854,
      43.930237
     ],
     [
      -103.461629,
      43.930394
     ],
     [
      -103.461403,
      43.930551
     ],
     [
      -103.461177,
      43.930707
     ],
     [
      -103.460951,
      43.930864
     ],
     [
      -103.460697,
      43.93101
     ],
     [
      -103.460442,
      43.931155
     ],
     [
      -103.460188,
      43.931301
     ],
     [
      -103.459934,
      43.931446
     ],
     [
      -103.459679,
      43.931592
     ],
     [
      -103.459425,
      43.931738
     ],
     [
      -103.459171,
      43.931883
     ],
     [
      -103.458916,
      43.932029
     ],
     [
      -103.458662,
      43.932174
     ],
     [
      -103.458407,
      43.93232
     ],
     [
      -103.458153,
      43.932466
     ],
     [
      -103.457899,
      43.932611
     ],
     [
      -103.457644,
      43.932757
     ],
     [
      -103.45739,
      43.932902
     ],
     [
      -103.457136,
      43.933048
     ],
     [
      -103.456881,
      43.933193
     ],
     [
      -103.456627,
      43.933339
     ],
     [
      -103.456372,
      43.933485
     ],
     [
      -103.456118,
      43.93363
     ],
     [
      -103.455864,
      43.933776
     ],
     [
      -103.455609,
      43.933921
     ],
     [
      -103.455355,
      43.934067
     ],
     [
      -103.455075,
      43.934187
     ],
     [
      -103.454795,
      43.934307
     ],
     [
      -103.454515,
      43.934427
     ],
     [
      -103.454236,
      43.934548
     ],
     [
      -103.453956,
      43.934668
     ],
     [
      -103.453676,
      43.934788
     ],
     [
      -103.453396,
      43.934908
     ],
     [
      -103.453116,
      43.935028
     ],
     [
      -103.452836,
      43.935148
     ],
     [
      -103.452557,
      43.935269
     ],
     [
      -103.452277,
      43.935389
     ],
     [
      -103.451997,
      43.935509
     ],
     [
      -103.451717,
      43.935629
     ],
     [
      -103.451437,
      43.935749
     ],
     [
      -103.451157,
      43.935869
     ],
     [
      -103.450877,
      43.935989
     ],
     [
      -103.450598,
      43.93611
     ],
     [
      -103.450318,
      43.93623
     ],
     [
      -103.450038,
      43.93635
     ],
     [
      -103.449758,
      43.93647
     ],
     [
      -103.449438,
      43.936443
     ],
     [
      -103.449118,
      43.936417
     ],
     [
      -103.448798,
      43.93639
     ],
     [
      -103.448478,
      43.936364
     ],
     [
      -103.448158,
      43.936337
     ],
     [
      -103.447838,
      43.93631
     ],
     [
      -103.447518,
      43.936284
     ],
     [
      -103.447198,
      43.936257
     ],
     [
      -103.446878,
      43.936231
     ]
    ]
   }
  }
 ],
 "_derived_by": "scripts/derive_tactical.py"
}
