{
 "type": "FeatureCollection",
 "name": "EventPolygon",
 "crs": {
  "type": "name",
  "properties": {
   "name": "urn:ogc:def:crs:OGC:1.3:CRS84"
  }
 },
 "_warning": "TRAINING EXERCISE \u2014 NOT AN ACTUAL INCIDENT. Fabricated data. Never publish, never sync to NIFS or NIFC AGOL.",
 "_fire": "Indigo",
 "_generated_by": "scripts/make_fires.py",
 "features": [
  {
   "type": "Feature",
   "properties": {
    "FeatureCategory": "Wildfire Daily Fire Perimeter",
    "Label": "Indigo 07/31",
    "IsVisible": "Yes",
    "MapMethod": "Infrared Image",
    "GeometryID": "IN-PY-0001",
    "IncidentName": "Indigo",
    "IRWINID": null,
    "CreateName": "TRAINEE, GISS",
    "CreateDate": "2026-08-02T04:20:00-06:00",
    "DeleteThis": "No",
    "Comments": "Earlier perimeter.",
    "GISAcres": 154.1,
    "PolygonDateTime": "2026-07-31T02:14:00-06:00"
   },
   "geometry": {
    "type": "Polygon",
    "coordinates": [
     [
      [
       -103.447355,
       43.93207
      ],
      [
       -103.445755,
       43.929271
      ],
      [
       -103.446553,
       43.92647
      ],
      [
       -103.44975,
       43.924469
      ],
      [
       -103.453747,
       43.924068
      ],
      [
       -103.456947,
       43.925666
      ],
      [
       -103.45735,
       43.928466
      ],
      [
       -103.454553,
       43.930868
      ],
      [
       -103.450555,
       43.932229
      ],
      [
       -103.447355,
       43.93207
      ]
     ]
    ]
   }
  },
  {
   "type": "Feature",
   "properties": {
    "FeatureCategory": "Wildfire Daily Fire Perimeter",
    "Label": "Indigo 08/01",
    "IsVisible": "Yes",
    "MapMethod": "Infrared Image",
    "GeometryID": "IN-PY-0002",
    "IncidentName": "Indigo",
    "IRWINID": null,
    "CreateName": "TRAINEE, GISS",
    "CreateDate": "2026-08-02T04:20:00-06:00",
    "DeleteThis": "No",
    "Comments": "Operational period 1 perimeter.",
    "GISAcres": 496.1,
    "PolygonDateTime": "2026-08-01T02:14:00-06:00"
   },
   "geometry": {
    "type": "Polygon",
    "coordinates": [
     [
      [
       -103.446157,
       43.934071
      ],
      [
       -103.443356,
       43.930471
      ],
      [
       -103.442954,
       43.926071
      ],
      [
       -103.445751,
       43.922471
      ],
      [
       -103.450946,
       43.919669
      ],
      [
       -103.456541,
       43.918467
      ],
      [
       -103.461338,
       43.919664
      ],
      [
       -103.46374,
       43.922863
      ],
      [
       -103.462545,
       43.926463
      ],
      [
       -103.458551,
       43.930066
      ],
      [
       -103.453355,
       43.932868
      ],
      [
       -103.448957,
       43.93447
      ],
      [
       -103.446157,
       43.934071
      ]
     ]
    ]
   }
  },
  {
   "type": "Feature",
   "properties": {
    "FeatureCategory": "Wildfire Daily Fire Perimeter",
    "Label": "Indigo 08/02",
    "IsVisible": "Yes",
    "MapMethod": "Hand Sketch",
    "GeometryID": "IN-PY-0003",
    "IncidentName": "Indigo",
    "IRWINID": null,
    "CreateName": "TRAINEE, GISS",
    "CreateDate": "2026-08-02T04:20:00-06:00",
    "DeleteThis": "No",
    "Comments": "Operational period 2 perimeter.",
    "GISAcres": 1129.8,
    "PolygonDateTime": "2026-08-02T02:14:00-06:00"
   },
   "geometry": {
    "type": "Polygon",
    "coordinates": [
     [
      [
       -103.444958,
       43.936071
      ],
      [
       -103.440957,
       43.931272
      ],
      [
       -103.439756,
       43.925672
      ],
      [
       -103.442552,
       43.920471
      ],
      [
       -103.448945,
       43.91607
      ],
      [
       -103.456136,
       43.913267
      ],
      [
       -103.463328,
       43.912063
      ],
      [
       -103.468925,
       43.914059
      ],
      [
       -103.471729,
       43.918057
      ],
      [
       -103.470537,
       43.923258
      ],
      [
       -103.466145,
       43.927261
      ],
      [
       -103.460951,
       43.930864
      ],
      [
       -103.455355,
       43.934067
      ],
      [
       -103.449758,
       43.93647
      ],
      [
       -103.444958,
       43.936071
      ]
     ]
    ]
   }
  },
  {
   "type": "Feature",
   "properties": {
    "FeatureCategory": "Temporary Flight Restriction",
    "Label": "TFR 5 NM",
    "IsVisible": "Yes",
    "MapMethod": "Digitized-Other",
    "GeometryID": "IN-PY-0004",
    "IncidentName": "Indigo",
    "IRWINID": null,
    "CreateName": "TRAINEE, GISS",
    "CreateDate": "2026-08-02T04:20:00-06:00",
    "DeleteThis": "No",
    "Comments": "5 NM radius, surface to 8500 ft MSL. Exercise only \u2014 no real TFR exists. Wider than the AOI, which is why air ops needs a wider extent than ops.",
    "GISAcres": 66481.8,
    "PolygonDateTime": null
   },
   "geometry": {
    "type": "Polygon",
    "coordinates": [
     [
      [
       -103.339693,
       43.923382
      ],
      [
       -103.33993,
       43.930652
      ],
      [
       -103.341043,
       43.937879
      ],
      [
       -103.343023,
       43.945009
      ],
      [
       -103.345857,
       43.951987
      ],
      [
       -103.349522,
       43.958759
      ],
      [
       -103.353991,
       43.965275
      ],
      [
       -103.359231,
       43.971485
      ],
      [
       -103.365201,
       43.977341
      ],
      [
       -103.371856,
       43.982798
      ],
      [
       -103.379146,
       43.987816
      ],
      [
       -103.387015,
       43.992355
      ],
      [
       -103.395404,
       43.996381
      ],
      [
       -103.404247,
       43.999863
      ],
      [
       -103.413478,
       44.002775
      ],
      [
       -103.423027,
       44.005094
      ],
      [
       -103.43282,
       44.006803
      ],
      [
       -103.442782,
       44.007889
      ],
      [
       -103.452838,
       44.008343
      ],
      [
       -103.46291,
       44.008161
      ],
      [
       -103.472922,
       44.007346
      ],
      [
       -103.482797,
       44.005904
      ],
      [
       -103.49246,
       44.003844
      ],
      [
       -103.501836,
       44.001184
      ],
      [
       -103.510855,
       43.997944
      ],
      [
       -103.519447,
       43.994148
      ],
      [
       -103.527546,
       43.989825
      ],
      [
       -103.535092,
       43.985008
      ],
      [
       -103.542027,
       43.979734
      ],
      [
       -103.548297,
       43.974044
      ],
      [
       -103.553856,
       43.96798
      ],
      [
       -103.55866,
       43.961589
      ],
      [
       -103.562675,
       43.95492
      ],
      [
       -103.565868,
       43.948024
      ],
      [
       -103.568217,
       43.940952
      ],
      [
       -103.569703,
       43.93376
      ],
      [
       -103.570316,
       43.926501
      ],
      [
       -103.570051,
       43.919232
      ],
      [
       -103.568911,
       43.912006
      ],
      [
       -103.566904,
       43.90488
      ],
      [
       -103.564047,
       43.897907
      ],
      [
       -103.560361,
       43.891141
      ],
      [
       -103.555874,
       43.884633
      ],
      [
       -103.550621,
       43.878432
      ],
      [
       -103.544642,
       43.872586
      ],
      [
       -103.537983,
       43.867139
      ],
      [
       -103.530694,
       43.862131
      ],
      [
       -103.52283,
       43.857602
      ],
      [
       -103.514452,
       43.853585
      ],
      [
       -103.505624,
       43.850112
      ],
      [
       -103.496411,
       43.847208
      ],
      [
       -103.486885,
       43.844895
      ],
      [
       -103.477117,
       43.843191
      ],
      [
       -103.467181,
       43.842108
      ],
      [
       -103.457153,
       43.841656
      ],
      [
       -103.447109,
       43.841837
      ],
      [
       -103.437124,
       43.842651
      ],
      [
       -103.427275,
       43.84409
      ],
      [
       -103.417637,
       43.846144
      ],
      [
       -103.408281,
       43.848797
      ],
      [
       -103.39928,
       43.85203
      ],
      [
       -103.390701,
       43.855817
      ],
      [
       -103.38261,
       43.860131
      ],
      [
       -103.375069,
       43.864938
      ],
      [
       -103.368133,
       43.870201
      ],
      [
       -103.361857,
       43.875882
      ],
      [
       -103.356288,
       43.881936
      ],
      [
       -103.351469,
       43.888318
      ],
      [
       -103.347436,
       43.89498
      ],
      [
       -103.34422,
       43.90187
      ],
      [
       -103.341847,
       43.908936
      ],
      [
       -103.340334,
       43.916125
      ],
      [
       -103.339693,
       43.923382
      ]
     ]
    ]
   }
  },
  {
   "type": "Feature",
   "properties": {
    "FeatureCategory": "Aerial Hazard Area",
    "Label": "Powerline Corridor",
    "IsVisible": "Yes",
    "MapMethod": "Digitized-Other",
    "GeometryID": "IN-PY-0005",
    "IncidentName": "Indigo",
    "IRWINID": null,
    "CreateName": "TRAINEE, GISS",
    "CreateDate": "2026-08-02T04:20:00-06:00",
    "DeleteThis": "No",
    "Comments": "Distribution line. No low-level flight.",
    "GISAcres": 1153.1,
    "PolygonDateTime": null
   },
   "geometry": {
    "type": "Polygon",
    "coordinates": [
     [
      [
       -103.428696,
       43.896602
      ],
      [
       -103.444356,
       43.899745
      ],
      [
       -103.459494,
       43.901266
      ],
      [
       -103.474614,
       43.900488
      ],
      [
       -103.490257,
       43.898113
      ],
      [
       -103.490257,
       43.898113
      ],
      [
       -103.491553,
       43.898042
      ],
      [
       -103.49283,
       43.898216
      ],
      [
       -103.494002,
       43.898623
      ],
      [
       -103.494988,
       43.899236
      ],
      [
       -103.495721,
       43.900012
      ],
      [
       -103.496151,
       43.900899
      ],
      [
       -103.496249,
       43.901836
      ],
      [
       -103.496009,
       43.90276
      ],
      [
       -103.495445,
       43.903607
      ],
      [
       -103.494598,
       43.90432
      ],
      [
       -103.493524,
       43.90485
      ],
      [
       -103.492298,
       43.905161
      ],
      [
       -103.492298,
       43.905161
      ],
      [
       -103.475992,
       43.90762
      ],
      [
       -103.459156,
       43.908464
      ],
      [
       -103.442333,
       43.906797
      ],
      [
       -103.426038,
       43.903542
      ],
      [
       -103.426038,
       43.903542
      ],
      [
       -103.424841,
       43.903175
      ],
      [
       -103.423816,
       43.902597
      ],
      [
       -103.423033,
       43.901846
      ],
      [
       -103.422546,
       43.900974
      ],
      [
       -103.422387,
       43.900042
      ],
      [
       -103.422568,
       43.899111
      ],
      [
       -103.423076,
       43.898245
      ],
      [
       -103.423876,
       43.897504
      ],
      [
       -103.424914,
       43.896939
      ],
      [
       -103.426119,
       43.896586
      ],
      [
       -103.427409,
       43.896471
      ],
      [
       -103.428696,
       43.896602
      ],
      [
       -103.428696,
       43.896602
      ]
     ]
    ]
   }
  },
  {
   "type": "Feature",
   "properties": {
    "FeatureCategory": "Retardant Avoidance Area",
    "Label": "Spring Creek",
    "IsVisible": "Yes",
    "MapMethod": "Digitized-Other",
    "GeometryID": "IN-PY-0006",
    "IncidentName": "Indigo",
    "IRWINID": null,
    "CreateName": "TRAINEE, GISS",
    "CreateDate": "2026-08-02T04:20:00-06:00",
    "DeleteThis": "No",
    "Comments": "300 m each side of the creek. Exercise buffer.",
    "GISAcres": 512.2,
    "PolygonDateTime": null
   },
   "geometry": {
    "type": "Polygon",
    "coordinates": [
     [
      [
       -103.496622,
       43.911852
      ],
      [
       -103.490046,
       43.915149
      ],
      [
       -103.483248,
       43.917711
      ],
      [
       -103.475628,
       43.919835
      ],
      [
       -103.467905,
       43.921129
      ],
      [
       -103.460428,
       43.921557
      ],
      [
       -103.460428,
       43.921557
      ],
      [
       -103.459454,
       43.92152
      ],
      [
       -103.458527,
       43.921301
      ],
      [
       -103.457709,
       43.920917
      ],
      [
       -103.457057,
       43.920393
      ],
      [
       -103.456615,
       43.919764
      ],
      [
       -103.456413,
       43.919074
      ],
      [
       -103.456465,
       43.91837
      ],
      [
       -103.456767,
       43.9177
      ],
      [
       -103.457299,
       43.917109
      ],
      [
       -103.458025,
       43.916638
      ],
      [
       -103.458894,
       43.916319
      ],
      [
       -103.459848,
       43.916173
      ],
      [
       -103.459848,
       43.916173
      ],
      [
       -103.466761,
       43.915791
      ],
      [
       -103.473422,
       43.914675
      ],
      [
       -103.480184,
       43.912785
      ],
      [
       -103.486165,
       43.910533
      ],
      [
       -103.49236,
       43.907416
      ],
      [
       -103.49236,
       43.907416
      ],
      [
       -103.493226,
       43.907093
      ],
      [
       -103.494179,
       43.906943
      ],
      [
       -103.495153,
       43.906976
      ],
      [
       -103.496082,
       43.907191
      ],
      [
       -103.496903,
       43.907572
      ],
      [
       -103.497559,
       43.908093
      ],
      [
       -103.498006,
       43.90872
      ],
      [
       -103.498213,
       43.909409
      ],
      [
       -103.498167,
       43.910113
      ],
      [
       -103.497871,
       43.910784
      ],
      [
       -103.497344,
       43.911378
      ],
      [
       -103.496622,
       43.911852
      ],
      [
       -103.496622,
       43.911852
      ]
     ]
    ]
   }
  },
  {
   "type": "Feature",
   "properties": {
    "FeatureCategory": "Closure Area",
    "Label": "Indigo Closure",
    "IsVisible": "Yes",
    "MapMethod": "Digitized-Other",
    "GeometryID": "IN-PY-0007",
    "IncidentName": "Indigo",
    "IRWINID": null,
    "CreateName": "TRAINEE, GISS",
    "CreateDate": "2026-08-02T04:20:00-06:00",
    "DeleteThis": "No",
    "Comments": "Public closure. Roads and trails inside are closed.",
    "GISAcres": 8753.0,
    "PolygonDateTime": null
   },
   "geometry": {
    "type": "Polygon",
    "coordinates": [
     [
      [
       -103.41316,
       43.924427
      ],
      [
       -103.413249,
       43.927064
      ],
      [
       -103.413656,
       43.929687
      ],
      [
       -103.414377,
       43.932273
      ],
      [
       -103.415408,
       43.934804
      ],
      [
       -103.416741,
       43.937261
      ],
      [
       -103.418364,
       43.939625
      ],
      [
       -103.420267,
       43.941877
      ],
      [
       -103.422434,
       43.944
      ],
      [
       -103.42485,
       43.945979
      ],
      [
       -103.427495,
       43.947799
      ],
      [
       -103.43035,
       43.949445
      ],
      [
       -103.433392,
       43.950904
      ],
      [
       -103.436599,
       43.952167
      ],
      [
       -103.439947,
       43.953223
      ],
      [
       -103.443409,
       43.954064
      ],
      [
       -103.446959,
       43.954683
      ],
      [
       -103.450571,
       43.955077
      ],
      [
       -103.454217,
       43.955241
      ],
      [
       -103.457868,
       43.955175
      ],
      [
       -103.461498,
       43.95488
      ],
      [
       -103.465078,
       43.954357
      ],
      [
       -103.468581,
       43.95361
      ],
      [
       -103.471981,
       43.952646
      ],
      [
       -103.475251,
       43.951471
      ],
      [
       -103.478367,
       43.950094
      ],
      [
       -103.481305,
       43.948527
      ],
      [
       -103.484043,
       43.94678
      ],
      [
       -103.486559,
       43.944868
      ],
      [
       -103.488835,
       43.942804
      ],
      [
       -103.490853,
       43.940605
      ],
      [
       -103.492598,
       43.938287
      ],
      [
       -103.494057,
       43.935868
      ],
      [
       -103.495218,
       43.933367
      ],
      [
       -103.496073,
       43.930801
      ],
      [
       -103.496616,
       43.928192
      ],
      [
       -103.496841,
       43.925558
      ],
      [
       -103.496749,
       43.92292
      ],
      [
       -103.496338,
       43.920298
      ],
      [
       -103.495613,
       43.917712
      ],
      [
       -103.494579,
       43.915182
      ],
      [
       -103.493244,
       43.912726
      ],
      [
       -103.491618,
       43.910363
      ],
      [
       -103.489713,
       43.908112
      ],
      [
       -103.487545,
       43.90599
      ],
      [
       -103.485129,
       43.904012
      ],
      [
       -103.482484,
       43.902194
      ],
      [
       -103.47963,
       43.90055
      ],
      [
       -103.476589,
       43.899091
      ],
      [
       -103.473384,
       43.89783
      ],
      [
       -103.470039,
       43.896775
      ],
      [
       -103.46658,
       43.895935
      ],
      [
       -103.463032,
       43.895316
      ],
      [
       -103.459424,
       43.894923
      ],
      [
       -103.455782,
       43.894759
      ],
      [
       -103.452134,
       43.894824
      ],
      [
       -103.448508,
       43.89512
      ],
      [
       -103.444932,
       43.895642
      ],
      [
       -103.441432,
       43.896388
      ],
      [
       -103.438035,
       43.897352
      ],
      [
       -103.434766,
       43.898526
      ],
      [
       -103.431652,
       43.899901
      ],
      [
       -103.428715,
       43.901467
      ],
      [
       -103.425978,
       43.903213
      ],
      [
       -103.423462,
       43.905124
      ],
      [
       -103.421185,
       43.907186
      ],
      [
       -103.419166,
       43.909384
      ],
      [
       -103.417419,
       43.911701
      ],
      [
       -103.415957,
       43.914119
      ],
      [
       -103.414793,
       43.916619
      ],
      [
       -103.413935,
       43.919184
      ],
      [
       -103.413389,
       43.921793
      ],
      [
       -103.41316,
       43.924427
      ]
     ]
    ]
   }
  },
  {
   "type": "Feature",
   "properties": {
    "FeatureCategory": "Safety Zone",
    "Label": "SZ-1 Area",
    "IsVisible": "Yes",
    "MapMethod": "GPS-Walked",
    "GeometryID": "IN-PY-0008",
    "IncidentName": "Indigo",
    "IRWINID": null,
    "CreateName": "TRAINEE, GISS",
    "CreateDate": "2026-08-02T04:20:00-06:00",
    "DeleteThis": "No",
    "Comments": "Meadow. Measured, not eyeballed.",
    "GISAcres": 13.1,
    "PolygonDateTime": null
   },
   "geometry": {
    "type": "Polygon",
    "coordinates": [
     [
      [
       -103.468756,
       43.921476
      ],
      [
       -103.46876,
       43.921578
      ],
      [
       -103.468776,
       43.92168
      ],
      [
       -103.468804,
       43.92178
      ],
      [
       -103.468844,
       43.921878
      ],
      [
       -103.468895,
       43.921973
      ],
      [
       -103.468958,
       43.922064
      ],
      [
       -103.469032,
       43.922151
      ],
      [
       -103.469116,
       43.922233
      ],
      [
       -103.469209,
       43.92231
      ],
      [
       -103.469311,
       43.92238
      ],
      [
       -103.469422,
       43.922444
      ],
      [
       -103.46954,
       43.9225
      ],
      [
       -103.469664,
       43.922549
      ],
      [
       -103.469793,
       43.92259
      ],
      [
       -103.469927,
       43.922623
      ],
      [
       -103.470064,
       43.922647
      ],
      [
       -103.470204,
       43.922662
      ],
      [
       -103.470345,
       43.922668
      ],
      [
       -103.470486,
       43.922665
      ],
      [
       -103.470627,
       43.922654
      ],
      [
       -103.470765,
       43.922634
      ],
      [
       -103.4709,
       43.922605
      ],
      [
       -103.471032,
       43.922568
      ],
      [
       -103.471158,
       43.922522
      ],
      [
       -103.471279,
       43.922469
      ],
      [
       -103.471393,
       43.922408
      ],
      [
       -103.471498,
       43.922341
      ],
      [
       -103.471596,
       43.922267
      ],
      [
       -103.471684,
       43.922187
      ],
      [
       -103.471762,
       43.922102
      ],
      [
       -103.471829,
       43.922012
      ],
      [
       -103.471886,
       43.921919
      ],
      [
       -103.471931,
       43.921822
      ],
      [
       -103.471964,
       43.921723
      ],
      [
       -103.471985,
       43.921622
      ],
      [
       -103.471994,
       43.92152
      ],
      [
       -103.47199,
       43.921418
      ],
      [
       -103.471974,
       43.921316
      ],
      [
       -103.471946,
       43.921216
      ],
      [
       -103.471906,
       43.921118
      ],
      [
       -103.471855,
       43.921023
      ],
      [
       -103.471792,
       43.920932
      ],
      [
       -103.471718,
       43.920845
      ],
      [
       -103.471634,
       43.920763
      ],
      [
       -103.471541,
       43.920686
      ],
      [
       -103.471438,
       43.920616
      ],
      [
       -103.471328,
       43.920552
      ],
      [
       -103.47121,
       43.920496
      ],
      [
       -103.471086,
       43.920447
      ],
      [
       -103.470957,
       43.920406
      ],
      [
       -103.470823,
       43.920373
      ],
      [
       -103.470686,
       43.920349
      ],
      [
       -103.470546,
       43.920334
      ],
      [
       -103.470405,
       43.920328
      ],
      [
       -103.470264,
       43.920331
      ],
      [
       -103.470123,
       43.920342
      ],
      [
       -103.469985,
       43.920362
      ],
      [
       -103.46985,
       43.920391
      ],
      [
       -103.469718,
       43.920428
      ],
      [
       -103.469592,
       43.920474
      ],
      [
       -103.469471,
       43.920527
      ],
      [
       -103.469357,
       43.920588
      ],
      [
       -103.469252,
       43.920655
      ],
      [
       -103.469154,
       43.920729
      ],
      [
       -103.469066,
       43.920809
      ],
      [
       -103.468988,
       43.920894
      ],
      [
       -103.468921,
       43.920984
      ],
      [
       -103.468864,
       43.921077
      ],
      [
       -103.468819,
       43.921174
      ],
      [
       -103.468786,
       43.921273
      ],
      [
       -103.468765,
       43.921374
      ],
      [
       -103.468756,
       43.921476
      ]
     ]
    ]
   }
  },
  {
   "type": "Feature",
   "properties": {
    "FeatureCategory": "Structure Group",
    "Label": "Training Grounds Structures",
    "IsVisible": "Yes",
    "MapMethod": "GPS-Walked",
    "GeometryID": "IN-PY-0009",
    "IncidentName": "Indigo",
    "IRWINID": null,
    "CreateName": "TRAINEE, GISS",
    "CreateDate": "2026-08-02T04:20:00-06:00",
    "DeleteThis": "No",
    "Comments": "Lodge, dining hall, cabin row, tank. Structure protection group assigned.",
    "GISAcres": 95.0,
    "PolygonDateTime": null
   },
   "geometry": {
    "type": "Polygon",
    "coordinates": [
     [
      [
       -103.473527,
       43.918554
      ],
      [
       -103.473537,
       43.918829
      ],
      [
       -103.473579,
       43.919102
      ],
      [
       -103.473655,
       43.919371
      ],
      [
       -103.473762,
       43.919635
      ],
      [
       -103.473901,
       43.919891
      ],
      [
       -103.474071,
       43.920137
      ],
      [
       -103.474269,
       43.920371
      ],
      [
       -103.474495,
       43.920592
      ],
      [
       -103.474747,
       43.920798
      ],
      [
       -103.475022,
       43.920988
      ],
      [
       -103.475319,
       43.921159
      ],
      [
       -103.475636,
       43.921311
      ],
      [
       -103.47597,
       43.921442
      ],
      [
       -103.476319,
       43.921552
      ],
      [
       -103.476679,
       43.92164
      ],
      [
       -103.477049,
       43.921704
      ],
      [
       -103.477425,
       43.921745
      ],
      [
       -103.477805,
       43.921762
      ],
      [
       -103.478185,
       43.921755
      ],
      [
       -103.478563,
       43.921724
      ],
      [
       -103.478935,
       43.92167
      ],
      [
       -103.4793,
       43.921592
      ],
      [
       -103.479654,
       43.921492
      ],
      [
       -103.479995,
       43.921369
      ],
      [
       -103.480319,
       43.921226
      ],
      [
       -103.480625,
       43.921062
      ],
      [
       -103.48091,
       43.920881
      ],
      [
       -103.481172,
       43.920681
      ],
      [
       -103.481409,
       43.920466
      ],
      [
       -103.481619,
       43.920237
      ],
      [
       -103.481801,
       43.919996
      ],
      [
       -103.481953,
       43.919744
      ],
      [
       -103.482074,
       43.919483
      ],
      [
       -103.482163,
       43.919216
      ],
      [
       -103.482219,
       43.918944
      ],
      [
       -103.482243,
       43.91867
      ],
      [
       -103.482233,
       43.918395
      ],
      [
       -103.482191,
       43.918122
      ],
      [
       -103.482115,
       43.917853
      ],
      [
       -103.482008,
       43.917589
      ],
      [
       -103.481869,
       43.917333
      ],
      [
       -103.481699,
       43.917087
      ],
      [
       -103.481501,
       43.916853
      ],
      [
       -103.481275,
       43.916632
      ],
      [
       -103.481023,
       43.916426
      ],
      [
       -103.480748,
       43.916236
      ],
      [
       -103.48045,
       43.916065
      ],
      [
       -103.480133,
       43.915913
      ],
      [
       -103.479799,
       43.915782
      ],
      [
       -103.479451,
       43.915672
      ],
      [
       -103.47909,
       43.915584
      ],
      [
       -103.478721,
       43.91552
      ],
      [
       -103.478345,
       43.915479
      ],
      [
       -103.477965,
       43.915462
      ],
      [
       -103.477585,
       43.915469
      ],
      [
       -103.477207,
       43.9155
      ],
      [
       -103.476835,
       43.915554
      ],
      [
       -103.47647,
       43.915632
      ],
      [
       -103.476116,
       43.915732
      ],
      [
       -103.475776,
       43.915855
      ],
      [
       -103.475451,
       43.915998
      ],
      [
       -103.475145,
       43.916161
      ],
      [
       -103.47486,
       43.916343
      ],
      [
       -103.474598,
       43.916543
      ],
      [
       -103.474361,
       43.916758
      ],
      [
       -103.474151,
       43.916987
      ],
      [
       -103.473969,
       43.917228
      ],
      [
       -103.473817,
       43.91748
      ],
      [
       -103.473696,
       43.917741
      ],
      [
       -103.473607,
       43.918008
      ],
      [
       -103.473551,
       43.91828
      ],
      [
       -103.473527,
       43.918554
      ]
     ]
    ]
   }
  },
  {
   "type": "Feature",
   "properties": {
    "FeatureCategory": "Management Action Point Area",
    "Label": "MAP 1 \u2014 Access Road",
    "IsVisible": "Yes",
    "MapMethod": "Digitized-Topo",
    "GeometryID": "IN-PY-0010",
    "IncidentName": "Indigo",
    "IRWINID": null,
    "CreateName": "TRAINEE, GISS",
    "CreateDate": "2026-08-02T04:20:00-06:00",
    "DeleteThis": "No",
    "Comments": "Trigger: fire crosses the drainage west of DP 3 \u2014 evacuate the training grounds.",
    "GISAcres": 193.8,
    "PolygonDateTime": null
   },
   "geometry": {
    "type": "Polygon",
    "coordinates": [
     [
      [
       -103.477094,
       43.917964
      ],
      [
       -103.477108,
       43.918357
      ],
      [
       -103.477169,
       43.918747
      ],
      [
       -103.477277,
       43.919132
      ],
      [
       -103.477431,
       43.919508
      ],
      [
       -103.477629,
       43.919874
      ],
      [
       -103.477871,
       43.920225
      ],
      [
       -103.478154,
       43.92056
      ],
      [
       -103.478477,
       43.920876
      ],
      [
       -103.478837,
       43.921171
      ],
      [
       -103.47923,
       43.921441
      ],
      [
       -103.479655,
       43.921686
      ],
      [
       -103.480108,
       43.921903
      ],
      [
       -103.480585,
       43.922091
      ],
      [
       -103.481083,
       43.922248
      ],
      [
       -103.481598,
       43.922372
      ],
      [
       -103.482126,
       43.922465
      ],
      [
       -103.482663,
       43.922523
      ],
      [
       -103.483206,
       43.922547
      ],
      [
       -103.483749,
       43.922537
      ],
      [
       -103.484289,
       43.922493
      ],
      [
       -103.484821,
       43.922415
      ],
      [
       -103.485342,
       43.922304
      ],
      [
       -103.485848,
       43.922161
      ],
      [
       -103.486334,
       43.921986
      ],
      [
       -103.486797,
       43.921781
      ],
      [
       -103.487234,
       43.921547
      ],
      [
       -103.487642,
       43.921288
      ],
      [
       -103.488016,
       43.921003
      ],
      [
       -103.488354,
       43.920696
      ],
      [
       -103.488655,
       43.920369
      ],
      [
       -103.488914,
       43.920024
      ],
      [
       -103.489131,
       43.919664
      ],
      [
       -103.489304,
       43.919291
      ],
      [
       -103.489431,
       43.91891
      ],
      [
       -103.489512,
       43.918521
      ],
      [
       -103.489546,
       43.918129
      ],
      [
       -103.489532,
       43.917737
      ],
      [
       -103.489471,
       43.917347
      ],
      [
       -103.489363,
       43.916962
      ],
      [
       -103.489209,
       43.916585
      ],
      [
       -103.489011,
       43.91622
      ],
      [
       -103.488769,
       43.915868
      ],
      [
       -103.488485,
       43.915533
      ],
      [
       -103.488162,
       43.915218
      ],
      [
       -103.487803,
       43.914923
      ],
      [
       -103.487409,
       43.914653
      ],
      [
       -103.486984,
       43.914408
      ],
      [
       -103.486532,
       43.914191
      ],
      [
       -103.486055,
       43.914003
      ],
      [
       -103.485557,
       43.913846
      ],
      [
       -103.485042,
       43.913721
      ],
      [
       -103.484514,
       43.913629
      ],
      [
       -103.483976,
       43.913571
      ],
      [
       -103.483434,
       43.913547
      ],
      [
       -103.482891,
       43.913557
      ],
      [
       -103.482352,
       43.913601
      ],
      [
       -103.481819,
       43.913679
      ],
      [
       -103.481298,
       43.91379
      ],
      [
       -103.480793,
       43.913933
      ],
      [
       -103.480306,
       43.914108
      ],
      [
       -103.479843,
       43.914313
      ],
      [
       -103.479406,
       43.914546
      ],
      [
       -103.478999,
       43.914806
      ],
      [
       -103.478625,
       43.915091
      ],
      [
       -103.478286,
       43.915398
      ],
      [
       -103.477986,
       43.915725
      ],
      [
       -103.477726,
       43.91607
      ],
      [
       -103.477509,
       43.91643
      ],
      [
       -103.477336,
       43.916802
      ],
      [
       -103.477209,
       43.917184
      ],
      [
       -103.477128,
       43.917572
      ],
      [
       -103.477094,
       43.917964
      ]
     ]
    ]
   }
  },
  {
   "type": "Feature",
   "properties": {
    "FeatureCategory": "Evacuation Area",
    "Label": "Zone A \u2014 GO",
    "IsVisible": "Yes",
    "MapMethod": "Digitized-Other",
    "GeometryID": "IN-PY-0011",
    "IncidentName": "Indigo",
    "IRWINID": null,
    "CreateName": "TRAINEE, GISS",
    "CreateDate": "2026-08-02T04:20:00-06:00",
    "DeleteThis": "No",
    "Comments": "Immediate evacuation. Structures inside the Management Action Point trigger.",
    "GISAcres": 1744.5,
    "PolygonDateTime": null
   },
   "geometry": {
    "type": "Polygon",
    "coordinates": [
     [
      [
       -103.451852,
       43.917406
      ],
      [
       -103.451893,
       43.918584
      ],
      [
       -103.452075,
       43.919755
      ],
      [
       -103.452398,
       43.920909
      ],
      [
       -103.452859,
       43.922039
      ],
      [
       -103.453454,
       43.923136
      ],
      [
       -103.45418,
       43.924191
      ],
      [
       -103.45503,
       43.925196
      ],
      [
       -103.455997,
       43.926144
      ],
      [
       -103.457076,
       43.927027
      ],
      [
       -103.458257,
       43.927839
      ],
      [
       -103.459531,
       43.928573
      ],
      [
       -103.460889,
       43.929224
      ],
      [
       -103.462321,
       43.929788
      ],
      [
       -103.463815,
       43.930259
      ],
      [
       -103.46536,
       43.930634
      ],
      [
       -103.466944,
       43.93091
      ],
      [
       -103.468556,
       43.931085
      ],
      [
       -103.470183,
       43.931159
      ],
      [
       -103.471812,
       43.931129
      ],
      [
       -103.473432,
       43.930997
      ],
      [
       -103.47503,
       43.930763
      ],
      [
       -103.476593,
       43.93043
      ],
      [
       -103.47811,
       43.929999
      ],
      [
       -103.47957,
       43.929475
      ],
      [
       -103.48096,
       43.92886
      ],
      [
       -103.482271,
       43.92816
      ],
      [
       -103.483493,
       43.92738
      ],
      [
       -103.484616,
       43.926527
      ],
      [
       -103.485632,
       43.925605
      ],
      [
       -103.486533,
       43.924624
      ],
      [
       -103.487311,
       43.923589
      ],
      [
       -103.487963,
       43.922509
      ],
      [
       -103.488481,
       43.921392
      ],
      [
       -103.488863,
       43.920247
      ],
      [
       -103.489105,
       43.919082
      ],
      [
       -103.489206,
       43.917907
      ],
      [
       -103.489165,
       43.916729
      ],
      [
       -103.488982,
       43.915558
      ],
      [
       -103.488658,
       43.914404
      ],
      [
       -103.488196,
       43.913274
      ],
      [
       -103.487601,
       43.912178
      ],
      [
       -103.486875,
       43.911123
      ],
      [
       -103.486025,
       43.910118
      ],
      [
       -103.485057,
       43.909171
      ],
      [
       -103.483978,
       43.908288
      ],
      [
       -103.482797,
       43.907476
      ],
      [
       -103.481523,
       43.906742
      ],
      [
       -103.480165,
       43.906091
      ],
      [
       -103.478734,
       43.905528
      ],
      [
       -103.47724,
       43.905057
      ],
      [
       -103.475696,
       43.904682
      ],
      [
       -103.474112,
       43.904406
      ],
      [
       -103.472501,
       43.90423
      ],
      [
       -103.470875,
       43.904157
      ],
      [
       -103.469246,
       43.904187
      ],
      [
       -103.467627,
       43.904319
      ],
      [
       -103.46603,
       43.904553
      ],
      [
       -103.464467,
       43.904886
      ],
      [
       -103.462951,
       43.905316
      ],
      [
       -103.461492,
       43.905841
      ],
      [
       -103.460102,
       43.906455
      ],
      [
       -103.458791,
       43.907155
      ],
      [
       -103.457569,
       43.907934
      ],
      [
       -103.456446,
       43.908788
      ],
      [
       -103.45543,
       43.909709
      ],
      [
       -103.454529,
       43.91069
      ],
      [
       -103.45375,
       43.911725
      ],
      [
       -103.453098,
       43.912804
      ],
      [
       -103.452579,
       43.913921
      ],
      [
       -103.452197,
       43.915066
      ],
      [
       -103.451954,
       43.916231
      ],
      [
       -103.451852,
       43.917406
      ]
     ]
    ]
   }
  },
  {
   "type": "Feature",
   "properties": {
    "FeatureCategory": "Evacuation Area",
    "Label": "Zone B \u2014 SET",
    "IsVisible": "Yes",
    "MapMethod": "Digitized-Other",
    "GeometryID": "IN-PY-0012",
    "IncidentName": "Indigo",
    "IRWINID": null,
    "CreateName": "TRAINEE, GISS",
    "CreateDate": "2026-08-02T04:20:00-06:00",
    "DeleteThis": "No",
    "Comments": "Be ready. Sheriff will upgrade if the fire crosses the drainage.",
    "GISAcres": 3752.5,
    "PolygonDateTime": null
   },
   "geometry": {
    "type": "Polygon",
    "coordinates": [
     [
      [
       -103.467112,
       43.91407
      ],
      [
       -103.467172,
       43.915797
      ],
      [
       -103.46744,
       43.917514
      ],
      [
       -103.467914,
       43.919207
      ],
      [
       -103.46859,
       43.920864
      ],
      [
       -103.469464,
       43.922472
      ],
      [
       -103.470528,
       43.924019
      ],
      [
       -103.471775,
       43.925493
      ],
      [
       -103.473195,
       43.926883
      ],
      [
       -103.474777,
       43.928179
      ],
      [
       -103.476509,
       43.929369
      ],
      [
       -103.478379,
       43.930446
      ],
      [
       -103.480371,
       43.931401
      ],
      [
       -103.482471,
       43.932227
      ],
      [
       -103.484662,
       43.932917
      ],
      [
       -103.486929,
       43.933467
      ],
      [
       -103.489253,
       43.933871
      ],
      [
       -103.491617,
       43.934128
      ],
      [
       -103.494003,
       43.934235
      ],
      [
       -103.496393,
       43.934191
      ],
      [
       -103.498769,
       43.933997
      ],
      [
       -103.501112,
       43.933654
      ],
      [
       -103.503405,
       43.933164
      ],
      [
       -103.50563,
       43.932532
      ],
      [
       -103.50777,
       43.931762
      ],
      [
       -103.509809,
       43.93086
      ],
      [
       -103.511732,
       43.929833
      ],
      [
       -103.513523,
       43.928689
      ],
      [
       -103.51517,
       43.927437
      ],
      [
       -103.516659,
       43.926085
      ],
      [
       -103.517979,
       43.924645
      ],
      [
       -103.519121,
       43.923127
      ],
      [
       -103.520075,
       43.921543
      ],
      [
       -103.520834,
       43.919905
      ],
      [
       -103.521393,
       43.918225
      ],
      [
       -103.521748,
       43.916516
      ],
      [
       -103.521895,
       43.914792
      ],
      [
       -103.521833,
       43.913065
      ],
      [
       -103.521564,
       43.911348
      ],
      [
       -103.521088,
       43.909655
      ],
      [
       -103.520411,
       43.907998
      ],
      [
       -103.519536,
       43.90639
      ],
      [
       -103.518471,
       43.904843
      ],
      [
       -103.517223,
       43.90337
      ],
      [
       -103.515803,
       43.90198
      ],
      [
       -103.51422,
       43.900686
      ],
      [
       -103.512488,
       43.899496
      ],
      [
       -103.510619,
       43.89842
      ],
      [
       -103.508627,
       43.897465
      ],
      [
       -103.506528,
       43.89664
      ],
      [
       -103.504338,
       43.89595
      ],
      [
       -103.502072,
       43.895401
      ],
      [
       -103.499749,
       43.894996
      ],
      [
       -103.497387,
       43.89474
      ],
      [
       -103.495002,
       43.894633
      ],
      [
       -103.492614,
       43.894677
      ],
      [
       -103.49024,
       43.894871
      ],
      [
       -103.487898,
       43.895214
      ],
      [
       -103.485606,
       43.895703
      ],
      [
       -103.483383,
       43.896335
      ],
      [
       -103.481243,
       43.897104
      ],
      [
       -103.479205,
       43.898006
      ],
      [
       -103.477283,
       43.899032
      ],
      [
       -103.475492,
       43.900176
      ],
      [
       -103.473845,
       43.901428
      ],
      [
       -103.472356,
       43.902779
      ],
      [
       -103.471035,
       43.904218
      ],
      [
       -103.469893,
       43.905736
      ],
      [
       -103.468937,
       43.90732
      ],
      [
       -103.468177,
       43.908957
      ],
      [
       -103.467616,
       43.910637
      ],
      [
       -103.46726,
       43.912345
      ],
      [
       -103.467112,
       43.91407
      ]
     ]
    ]
   }
  },
  {
   "type": "Feature",
   "properties": {
    "FeatureCategory": "Evacuation Area",
    "Label": "Zone C \u2014 READY",
    "IsVisible": "Yes",
    "MapMethod": "Digitized-Other",
    "GeometryID": "IN-PY-0013",
    "IncidentName": "Indigo",
    "IRWINID": null,
    "CreateName": "TRAINEE, GISS",
    "CreateDate": "2026-08-02T04:20:00-06:00",
    "DeleteThis": "No",
    "Comments": "Stay informed.",
    "GISAcres": 5241.2,
    "PolygonDateTime": null
   },
   "geometry": {
    "type": "Polygon",
    "coordinates": [
     [
      [
       -103.482904,
       43.910779
      ],
      [
       -103.482975,
       43.91282
      ],
      [
       -103.483293,
       43.914849
      ],
      [
       -103.483853,
       43.91685
      ],
      [
       -103.484653,
       43.918808
      ],
      [
       -103.485686,
       43.920709
      ],
      [
       -103.486944,
       43.922537
      ],
      [
       -103.488418,
       43.924279
      ],
      [
       -103.490097,
       43.925921
      ],
      [
       -103.491967,
       43.927451
      ],
      [
       -103.494015,
       43.928858
      ],
      [
       -103.496224,
       43.93013
      ],
      [
       -103.498579,
       43.931259
      ],
      [
       -103.501061,
       43.932234
      ],
      [
       -103.503652,
       43.93305
      ],
      [
       -103.50633,
       43.933699
      ],
      [
       -103.509077,
       43.934177
      ],
      [
       -103.511872,
       43.93448
      ],
      [
       -103.514692,
       43.934606
      ],
      [
       -103.517516,
       43.934553
      ],
      [
       -103.520324,
       43.934323
      ],
      [
       -103.523093,
       43.933917
      ],
      [
       -103.525802,
       43.933338
      ],
      [
       -103.528432,
       43.93259
      ],
      [
       -103.530961,
       43.93168
      ],
      [
       -103.53337,
       43.930613
      ],
      [
       -103.535642,
       43.929399
      ],
      [
       -103.537758,
       43.928047
      ],
      [
       -103.539703,
       43.926566
      ],
      [
       -103.541462,
       43.924968
      ],
      [
       -103.543022,
       43.923266
      ],
      [
       -103.544371,
       43.921472
      ],
      [
       -103.545497,
       43.919599
      ],
      [
       -103.546394,
       43.917663
      ],
      [
       -103.547054,
       43.915678
      ],
      [
       -103.547472,
       43.913658
      ],
      [
       -103.547645,
       43.91162
      ],
      [
       -103.547571,
       43.909579
      ],
      [
       -103.547252,
       43.90755
      ],
      [
       -103.546689,
       43.905549
      ],
      [
       -103.545887,
       43.903591
      ],
      [
       -103.544853,
       43.901691
      ],
      [
       -103.543593,
       43.899864
      ],
      [
       -103.542118,
       43.898123
      ],
      [
       -103.540439,
       43.896481
      ],
      [
       -103.538568,
       43.894952
      ],
      [
       -103.536521,
       43.893546
      ],
      [
       -103.534311,
       43.892274
      ],
      [
       -103.531957,
       43.891147
      ],
      [
       -103.529477,
       43.890172
      ],
      [
       -103.526888,
       43.889357
      ],
      [
       -103.524211,
       43.888708
      ],
      [
       -103.521466,
       43.888231
      ],
      [
       -103.518673,
       43.887928
      ],
      [
       -103.515856,
       43.887802
      ],
      [
       -103.513033,
       43.887855
      ],
      [
       -103.510228,
       43.888085
      ],
      [
       -103.507461,
       43.888491
      ],
      [
       -103.504753,
       43.889069
      ],
      [
       -103.502126,
       43.889816
      ],
      [
       -103.499598,
       43.890726
      ],
      [
       -103.49719,
       43.891792
      ],
      [
       -103.494919,
       43.893005
      ],
      [
       -103.492803,
       43.894357
      ],
      [
       -103.490857,
       43.895837
      ],
      [
       -103.489098,
       43.897434
      ],
      [
       -103.487537,
       43.899136
      ],
      [
       -103.486188,
       43.900929
      ],
      [
       -103.485059,
       43.902801
      ],
      [
       -103.484161,
       43.904737
      ],
      [
       -103.483499,
       43.906722
      ],
      [
       -103.483079,
       43.908741
      ],
      [
       -103.482904,
       43.910779
      ]
     ]
    ]
   }
  },
  {
   "type": "Feature",
   "properties": {
    "FeatureCategory": "Repair Area",
    "Label": "Div Z Dozer Repair",
    "IsVisible": "Yes",
    "MapMethod": "GPS-Walked",
    "GeometryID": "IN-PY-0014",
    "IncidentName": "Indigo",
    "IRWINID": null,
    "CreateName": "TRAINEE, GISS",
    "CreateDate": "2026-08-02T04:20:00-06:00",
    "DeleteThis": "No",
    "Comments": "Waterbar, pull berm back, scatter slash. Two blades wide.",
    "GISAcres": 92.7,
    "PolygonDateTime": null
   },
   "geometry": {
    "type": "Polygon",
    "coordinates": [
     [
      [
       -103.438503,
       43.924446
      ],
      [
       -103.438864,
       43.930294
      ],
      [
       -103.443483,
       43.934887
      ],
      [
       -103.449421,
       43.937932
      ],
      [
       -103.455769,
       43.935605
      ],
      [
       -103.461709,
       43.93243
      ],
      [
       -103.461709,
       43.93243
      ],
      [
       -103.461879,
       43.932361
      ],
      [
       -103.462069,
       43.932327
      ],
      [
       -103.462264,
       43.93233
      ],
      [
       -103.462451,
       43.932369
      ],
      [
       -103.462619,
       43.932441
      ],
      [
       -103.462754,
       43.932543
      ],
      [
       -103.462849,
       43.932666
      ],
      [
       -103.462896,
       43.932803
      ],
      [
       -103.462892,
       43.932944
      ],
      [
       -103.462838,
       43.93308
      ],
      [
       -103.462738,
       43.9332
      ],
      [
       -103.462597,
       43.933298
      ],
      [
       -103.462597,
       43.933298
      ],
      [
       -103.456545,
       43.936529
      ],
      [
       -103.449297,
       43.939008
      ],
      [
       -103.442433,
       43.935655
      ],
      [
       -103.437452,
       43.93065
      ],
      [
       -103.437011,
       43.924498
      ],
      [
       -103.437011,
       43.924498
      ],
      [
       -103.437027,
       43.924358
      ],
      [
       -103.437093,
       43.924225
      ],
      [
       -103.437204,
       43.924109
      ],
      [
       -103.437353,
       43.924018
      ],
      [
       -103.437529,
       43.923958
      ],
      [
       -103.437721,
       43.923933
      ],
      [
       -103.437915,
       43.923944
      ],
      [
       -103.438099,
       43.923992
      ],
      [
       -103.438259,
       43.924072
      ],
      [
       -103.438385,
       43.92418
      ],
      [
       -103.438469,
       43.924307
      ],
      [
       -103.438503,
       43.924446
      ],
      [
       -103.438503,
       43.924446
      ]
     ]
    ]
   }
  },
  {
   "type": "Feature",
   "properties": {
    "FeatureCategory": "Repair Area",
    "Label": "Div Z Road Repair",
    "IsVisible": "Yes",
    "MapMethod": "GPS-Walked",
    "GeometryID": "IN-PY-0015",
    "IncidentName": "Indigo",
    "IRWINID": null,
    "CreateName": "TRAINEE, GISS",
    "CreateDate": "2026-08-02T04:20:00-06:00",
    "DeleteThis": "No",
    "Comments": "Blade back to template, reinstall drainage.",
    "GISAcres": 23.8,
    "PolygonDateTime": null
   },
   "geometry": {
    "type": "Polygon",
    "coordinates": [
     [
      [
       -103.461808,
       43.932604
      ],
      [
       -103.466979,
       43.929018
      ],
      [
       -103.471349,
       43.925033
      ],
      [
       -103.471349,
       43.925033
      ],
      [
       -103.471442,
       43.924968
      ],
      [
       -103.471556,
       43.924922
      ],
      [
       -103.471682,
       43.924899
      ],
      [
       -103.471812,
       43.924901
      ],
      [
       -103.471937,
       43.924927
      ],
      [
       -103.472049,
       43.924975
      ],
      [
       -103.472139,
       43.925042
      ],
      [
       -103.472202,
       43.925125
      ],
      [
       -103.472234,
       43.925216
      ],
      [
       -103.472232,
       43.92531
      ],
      [
       -103.472196,
       43.9254
      ],
      [
       -103.472129,
       43.925481
      ],
      [
       -103.472129,
       43.925481
      ],
      [
       -103.467715,
       43.929502
      ],
      [
       -103.462498,
       43.933124
      ],
      [
       -103.462498,
       43.933124
      ],
      [
       -103.462393,
       43.933179
      ],
      [
       -103.462272,
       43.933214
      ],
      [
       -103.462143,
       43.933224
      ],
      [
       -103.462014,
       43.93321
      ],
      [
       -103.461895,
       43.933172
      ],
      [
       -103.461794,
       43.933113
      ],
      [
       -103.461717,
       43.933038
      ],
      [
       -103.461669,
       43.93295
      ],
      [
       -103.461655,
       43.932857
      ],
      [
       -103.461674,
       43.932764
      ],
      [
       -103.461727,
       43.932678
      ],
      [
       -103.461808,
       43.932604
      ],
      [
       -103.461808,
       43.932604
      ]
     ]
    ]
   }
  }
 ]
}
