{
 "type": "FeatureCollection",
 "name": "roads",
 "crs": {
  "type": "name",
  "properties": {
   "name": "urn:ogc:def:crs:OGC:1.3:CRS84"
  }
 },
 "_warning": "TRAINING EXERCISE \u2014 NOT AN ACTUAL INCIDENT. Fabricated data. Never publish, never sync to NIFS or NIFC AGOL.",
 "_fire": "Indigo",
 "_generated_by": "scripts/make_fires.py",
 "features": [
  {
   "type": "Feature",
   "properties": {
    "NAME": "Storm Mountain Rd",
    "LINE_STATUS": ""
   },
   "geometry": {
    "type": "LineString",
    "coordinates": [
     [
      -103.513684,
      43.914007
     ],
     [
      -103.505695,
      43.915219
     ],
     [
      -103.497708,
      43.91763
     ],
     [
      -103.490517,
      43.919239
     ],
     [
      -103.483321,
      43.918607
     ],
     [
      -103.477724,
      43.918052
     ],
     [
      -103.474522,
      43.915255
     ]
    ]
   }
  },
  {
   "type": "Feature",
   "properties": {
    "NAME": "South Fork Rd",
    "LINE_STATUS": ""
   },
   "geometry": {
    "type": "LineString",
    "coordinates": [
     [
      -103.462153,
      43.932864
     ],
     [
      -103.467347,
      43.92926
     ],
     [
      -103.471739,
      43.925257
     ]
    ]
   }
  },
  {
   "type": "Feature",
   "properties": {
    "NAME": "FS 231",
    "LINE_STATUS": ""
   },
   "geometry": {
    "type": "LineString",
    "coordinates": [
     [
      -103.438158,
      43.930472
     ],
     [
      -103.442958,
      43.935271
     ],
     [
      -103.449359,
      43.93847
     ]
    ]
   }
  },
  {
   "type": "Feature",
   "properties": {
    "NAME": "US-16",
    "LINE_STATUS": ""
   },
   "geometry": {
    "type": "LineString",
    "coordinates": [
     [
      -103.523249,
      43.90639
     ],
     [
      -103.513684,
      43.914007
     ],
     [
      -103.505724,
      43.92562
     ]
    ]
   }
  }
 ]
}
