{
 "type": "FeatureCollection",
 "name": "trails",
 "crs": {
  "type": "name",
  "properties": {
   "name": "urn:ogc:def:crs:OGC:1.3:CRS84"
  }
 },
 "_warning": "TRAINING EXERCISE \u2014 NOT AN ACTUAL INCIDENT. Fabricated data. Never publish, never sync to NIFS or NIFC AGOL.",
 "_fire": "Indigo",
 "_generated_by": "scripts/make_fires.py",
 "features": [
  {
   "type": "Feature",
   "properties": {
    "TRAIL_NAME": "Storm Mountain Loop",
    "TRAIL_NO": "9082",
    "LINE_STATUS": ""
   },
   "geometry": {
    "type": "LineString",
    "coordinates": [
     [
      -103.437757,
      43.924472
     ],
     [
      -103.440953,
      43.918872
     ],
     [
      -103.447345,
      43.91407
     ],
     [
      -103.454536,
      43.911267
     ],
     [
      -103.462527,
      43.910303
     ]
    ]
   }
  },
  {
   "type": "Feature",
   "properties": {
    "TRAIL_NAME": "Coon Hollow",
    "TRAIL_NO": "9083",
    "LINE_STATUS": ""
   },
   "geometry": {
    "type": "LineString",
    "coordinates": [
     [
      -103.471729,
      43.918057
     ],
     [
      -103.47533,
      43.920454
     ],
     [
      -103.47652,
      43.915253
     ],
     [
      -103.474514,
      43.910455
     ]
    ]
   }
  },
  {
   "type": "Feature",
   "properties": {
    "TRAIL_NAME": "Rockerville Flume",
    "TRAIL_NO": "9084",
    "LINE_STATUS": ""
   },
   "geometry": {
    "type": "LineString",
    "coordinates": [
     [
      -103.494491,
      43.909634
     ],
     [
      -103.488105,
      43.912841
     ],
     [
      -103.481716,
      43.915248
     ],
     [
      -103.474525,
      43.917255
     ]
    ]
   }
  },
  {
   "type": "Feature",
   "properties": {
    "TRAIL_NAME": "Spring Creek Spur",
    "TRAIL_NO": "9085",
    "LINE_STATUS": ""
   },
   "geometry": {
    "type": "LineString",
    "coordinates": [
     [
      -103.507314,
      43.922417
     ],
     [
      -103.511321,
      43.925611
     ],
     [
      -103.515329,
      43.928805
     ]
    ]
   }
  },
  {
   "type": "Feature",
   "properties": {
    "TRAIL_NAME": "Old Mine Trail",
    "TRAIL_NO": "9086",
    "LINE_STATUS": "none"
   },
   "geometry": {
    "type": "LineString",
    "coordinates": [
     [
      -103.446554,
      43.92807
     ],
     [
      -103.45055,
      43.925669
     ],
     [
      -103.454546,
      43.923268
     ]
    ]
   }
  }
 ]
}
