{
 "type": "FeatureCollection",
 "name": "EventPoint",
 "crs": {
  "type": "name",
  "properties": {
   "name": "urn:ogc:def:crs:OGC:1.3:CRS84"
  }
 },
 "_warning": "TRAINING EXERCISE \u2014 NOT AN ACTUAL INCIDENT. Fabricated data. Never publish, never sync to NIFS or NIFC AGOL.",
 "_fire": "Green",
 "_generated_by": "scripts/make_fires.py",
 "features": [
  {
   "type": "Feature",
   "properties": {
    "FeatureCategory": "Incident Command Post",
    "Label": "ICP",
    "IsVisible": "Yes",
    "MapMethod": "GPS-Driven",
    "GeometryID": "GR-PT-0001",
    "IncidentName": "Green",
    "IRWINID": null,
    "CreateName": "TRAINEE, GISS",
    "CreateDate": "2026-07-31T16:40:00-06:00",
    "DeleteThis": "No",
    "Comments": "Rockerville staging field. Exercise ICP."
   },
   "geometry": {
    "type": "Point",
    "coordinates": [
     -103.362394,
     44.052214
    ]
   }
  },
  {
   "type": "Feature",
   "properties": {
    "FeatureCategory": "Camp",
    "Label": "Camp 1",
    "IsVisible": "Yes",
    "MapMethod": "GPS-Driven",
    "GeometryID": "GR-PT-0002",
    "IncidentName": "Green",
    "IRWINID": null,
    "CreateName": "TRAINEE, GISS",
    "CreateDate": "2026-07-31T16:40:00-06:00",
    "DeleteThis": "No",
    "Comments": "Spike camp, 120 person capacity."
   },
   "geometry": {
    "type": "Point",
    "coordinates": [
     -103.364142,
     44.054358
    ]
   }
  },
  {
   "type": "Feature",
   "properties": {
    "FeatureCategory": "Staging Area",
    "Label": "Staging 1",
    "IsVisible": "Yes",
    "MapMethod": "GPS-Driven",
    "GeometryID": "GR-PT-0003",
    "IncidentName": "Green",
    "IRWINID": null,
    "CreateName": "TRAINEE, GISS",
    "CreateDate": "2026-07-31T16:40:00-06:00",
    "DeleteThis": "No",
    "Comments": "Engine staging off US-16."
   },
   "geometry": {
    "type": "Point",
    "coordinates": [
     -103.357901,
     44.048965
    ]
   }
  },
  {
   "type": "Feature",
   "properties": {
    "FeatureCategory": "Helibase",
    "Label": "Helibase",
    "IsVisible": "Yes",
    "MapMethod": "GPS-Driven",
    "GeometryID": "GR-PT-0004",
    "IncidentName": "Green",
    "IRWINID": null,
    "CreateName": "TRAINEE, GISS",
    "CreateDate": "2026-07-31T16:40:00-06:00",
    "DeleteThis": "No",
    "Comments": "Exercise helibase."
   },
   "geometry": {
    "type": "Point",
    "coordinates": [
     -103.337436,
     44.055921
    ]
   }
  },
  {
   "type": "Feature",
   "properties": {
    "FeatureCategory": "Helispot",
    "Label": "H-1",
    "IsVisible": "Yes",
    "MapMethod": "GPS-Flight",
    "GeometryID": "GR-PT-0005",
    "IncidentName": "Green",
    "IRWINID": null,
    "CreateName": "TRAINEE, GISS",
    "CreateDate": "2026-07-31T16:40:00-06:00",
    "DeleteThis": "No",
    "Comments": "Ridgetop. One ship at a time."
   },
   "geometry": {
    "type": "Point",
    "coordinates": [
     -103.364149,
     44.009514
    ]
   }
  },
  {
   "type": "Feature",
   "properties": {
    "FeatureCategory": "Helispot",
    "Label": "H-2",
    "IsVisible": "Yes",
    "MapMethod": "GPS-Flight",
    "GeometryID": "GR-PT-0006",
    "IncidentName": "Green",
    "IRWINID": null,
    "CreateName": "TRAINEE, GISS",
    "CreateDate": "2026-07-31T16:40:00-06:00",
    "DeleteThis": "No",
    "Comments": "Old landing. Dusty, needs water."
   },
   "geometry": {
    "type": "Point",
    "coordinates": [
     -103.325473,
     44.026399
    ]
   }
  },
  {
   "type": "Feature",
   "properties": {
    "FeatureCategory": "Helispot",
    "Label": "H-3",
    "IsVisible": "Yes",
    "MapMethod": "GPS-Flight",
    "GeometryID": "GR-PT-0007",
    "IncidentName": "Green",
    "IRWINID": null,
    "CreateName": "TRAINEE, GISS",
    "CreateDate": "2026-07-31T16:40:00-06:00",
    "DeleteThis": "No",
    "Comments": "Saddle. Short-haul capable."
   },
   "geometry": {
    "type": "Point",
    "coordinates": [
     -103.346674,
     44.033819
    ]
   }
  },
  {
   "type": "Feature",
   "properties": {
    "FeatureCategory": "Drop Point",
    "Label": "DP 1",
    "IsVisible": "Yes",
    "MapMethod": "GPS-Driven",
    "GeometryID": "GR-PT-0008",
    "IncidentName": "Green",
    "IRWINID": null,
    "CreateName": "TRAINEE, GISS",
    "CreateDate": "2026-07-31T16:40:00-06:00",
    "DeleteThis": "No",
    "Comments": "US-16 turnout.",
    "DIVISION": "A"
   },
   "geometry": {
    "type": "Point",
    "coordinates": [
     -103.356154,
     44.04851
    ]
   }
  },
  {
   "type": "Feature",
   "properties": {
    "FeatureCategory": "Drop Point",
    "Label": "DP 2",
    "IsVisible": "Yes",
    "MapMethod": "GPS-Driven",
    "GeometryID": "GR-PT-0009",
    "IncidentName": "Green",
    "IRWINID": null,
    "CreateName": "TRAINEE, GISS",
    "CreateDate": "2026-07-31T16:40:00-06:00",
    "DeleteThis": "No",
    "Comments": "Storm Mountain Rd junction.",
    "DIVISION": "A"
   },
   "geometry": {
    "type": "Point",
    "coordinates": [
     -103.350789,
     44.040515
    ]
   }
  },
  {
   "type": "Feature",
   "properties": {
    "FeatureCategory": "Drop Point",
    "Label": "DP 3",
    "IsVisible": "Yes",
    "MapMethod": "GPS-Driven",
    "GeometryID": "GR-PT-0010",
    "IncidentName": "Green",
    "IRWINID": null,
    "CreateName": "TRAINEE, GISS",
    "CreateDate": "2026-07-31T16:40:00-06:00",
    "DeleteThis": "No",
    "Comments": "Turnaround, type 6 and smaller past here.",
    "DIVISION": "A"
   },
   "geometry": {
    "type": "Point",
    "coordinates": [
     -103.350167,
     44.032909
    ]
   }
  },
  {
   "type": "Feature",
   "properties": {
    "FeatureCategory": "Drop Point",
    "Label": "DP 4",
    "IsVisible": "Yes",
    "MapMethod": "GPS-Driven",
    "GeometryID": "GR-PT-0011",
    "IncidentName": "Green",
    "IRWINID": null,
    "CreateName": "TRAINEE, GISS",
    "CreateDate": "2026-07-31T16:40:00-06:00",
    "DeleteThis": "No",
    "Comments": "Div A anchor.",
    "DIVISION": "A"
   },
   "geometry": {
    "type": "Point",
    "coordinates": [
     -103.35491,
     44.02602
    ]
   }
  },
  {
   "type": "Feature",
   "properties": {
    "FeatureCategory": "Drop Point",
    "Label": "DP 5",
    "IsVisible": "Yes",
    "MapMethod": "GPS-Driven",
    "GeometryID": "GR-PT-0012",
    "IncidentName": "Green",
    "IRWINID": null,
    "CreateName": "TRAINEE, GISS",
    "CreateDate": "2026-07-31T16:40:00-06:00",
    "DeleteThis": "No",
    "Comments": "Div Z anchor, south road.",
    "DIVISION": "Z"
   },
   "geometry": {
    "type": "Point",
    "coordinates": [
     -103.327479,
     44.016907
    ]
   }
  },
  {
   "type": "Feature",
   "properties": {
    "FeatureCategory": "Drop Point",
    "Label": "DP 6",
    "IsVisible": "Yes",
    "MapMethod": "GPS-Driven",
    "GeometryID": "GR-PT-0013",
    "IncidentName": "Green",
    "IRWINID": null,
    "CreateName": "TRAINEE, GISS",
    "CreateDate": "2026-07-31T16:40:00-06:00",
    "DeleteThis": "No",
    "Comments": "Dozer line tie-in, south flank.",
    "DIVISION": "Z"
   },
   "geometry": {
    "type": "Point",
    "coordinates": [
     -103.319265,
     44.005196
    ]
   }
  },
  {
   "type": "Feature",
   "properties": {
    "FeatureCategory": "Drop Point",
    "Label": "DP 7",
    "IsVisible": "Yes",
    "MapMethod": "GPS-Walked",
    "GeometryID": "GR-PT-0014",
    "IncidentName": "Green",
    "IRWINID": null,
    "CreateName": "TRAINEE, GISS",
    "CreateDate": "2026-07-31T16:40:00-06:00",
    "DeleteThis": "No",
    "Comments": "West end of completed line. Foot access only.",
    "DIVISION": "M"
   },
   "geometry": {
    "type": "Point",
    "coordinates": [
     -103.341222,
     43.996111
    ]
   }
  },
  {
   "type": "Feature",
   "properties": {
    "FeatureCategory": "Drop Point",
    "Label": "DP 8",
    "IsVisible": "Yes",
    "MapMethod": "GPS-Driven",
    "GeometryID": "GR-PT-0015",
    "IncidentName": "Green",
    "IRWINID": null,
    "CreateName": "TRAINEE, GISS",
    "CreateDate": "2026-07-31T16:40:00-06:00",
    "DeleteThis": "No",
    "Comments": "Contingency line, north.",
    "DIVISION": "M"
   },
   "geometry": {
    "type": "Point",
    "coordinates": [
     -103.367391,
     44.00997
    ]
   }
  },
  {
   "type": "Feature",
   "properties": {
    "FeatureCategory": "Dip Site",
    "Label": "Dip 1",
    "IsVisible": "Yes",
    "MapMethod": "GPS-Flight",
    "GeometryID": "GR-PT-0016",
    "IncidentName": "Green",
    "IRWINID": null,
    "CreateName": "TRAINEE, GISS",
    "CreateDate": "2026-07-31T16:40:00-06:00",
    "DeleteThis": "No",
    "Comments": "Stock pond. Verify depth each morning."
   },
   "geometry": {
    "type": "Point",
    "coordinates": [
     -103.374137,
     43.993921
    ]
   }
  },
  {
   "type": "Feature",
   "properties": {
    "FeatureCategory": "Dip Site",
    "Label": "Dip 2",
    "IsVisible": "Yes",
    "MapMethod": "GPS-Flight",
    "GeometryID": "GR-PT-0017",
    "IncidentName": "Green",
    "IRWINID": null,
    "CreateName": "TRAINEE, GISS",
    "CreateDate": "2026-07-31T16:40:00-06:00",
    "DeleteThis": "No",
    "Comments": "Adjacent to helibase."
   },
   "geometry": {
    "type": "Point",
    "coordinates": [
     -103.343926,
     44.055466
    ]
   }
  },
  {
   "type": "Feature",
   "properties": {
    "FeatureCategory": "Draft Site",
    "Label": "Draft 1",
    "IsVisible": "Yes",
    "MapMethod": "GPS-Driven",
    "GeometryID": "GR-PT-0018",
    "IncidentName": "Green",
    "IRWINID": null,
    "CreateName": "TRAINEE, GISS",
    "CreateDate": "2026-07-31T16:40:00-06:00",
    "DeleteThis": "No",
    "Comments": "Spring Creek. Screened intake required."
   },
   "geometry": {
    "type": "Point",
    "coordinates": [
     -103.356653,
     44.03902
    ]
   }
  },
  {
   "type": "Feature",
   "properties": {
    "FeatureCategory": "Hydrant",
    "Label": "Hydrant 1",
    "IsVisible": "Yes",
    "MapMethod": "GPS-Driven",
    "GeometryID": "GR-PT-0019",
    "IncidentName": "Green",
    "IRWINID": null,
    "CreateName": "TRAINEE, GISS",
    "CreateDate": "2026-07-31T16:40:00-06:00",
    "DeleteThis": "No",
    "Comments": "Camp supply."
   },
   "geometry": {
    "type": "Point",
    "coordinates": [
     -103.363269,
     44.053839
    ]
   }
  },
  {
   "type": "Feature",
   "properties": {
    "FeatureCategory": "Water Tank",
    "Label": "Tank 1",
    "IsVisible": "Yes",
    "MapMethod": "GPS-Walked",
    "GeometryID": "GR-PT-0020",
    "IncidentName": "Green",
    "IRWINID": null,
    "CreateName": "TRAINEE, GISS",
    "CreateDate": "2026-07-31T16:40:00-06:00",
    "DeleteThis": "No",
    "Comments": "Training grounds 10,000 gal tank."
   },
   "geometry": {
    "type": "Point",
    "coordinates": [
     -103.349172,
     44.028359
    ]
   }
  },
  {
   "type": "Feature",
   "properties": {
    "FeatureCategory": "Safety Zone",
    "Label": "SZ-1",
    "IsVisible": "Yes",
    "MapMethod": "GPS-Walked",
    "GeometryID": "GR-PT-0021",
    "IncidentName": "Green",
    "IRWINID": null,
    "CreateName": "TRAINEE, GISS",
    "CreateDate": "2026-07-31T16:40:00-06:00",
    "DeleteThis": "No",
    "Comments": "Meadow, 4 acres. Div A."
   },
   "geometry": {
    "type": "Point",
    "coordinates": [
     -103.345433,
     44.022507
    ]
   }
  },
  {
   "type": "Feature",
   "properties": {
    "FeatureCategory": "Safety Zone",
    "Label": "SZ-2",
    "IsVisible": "Yes",
    "MapMethod": "GPS-Walked",
    "GeometryID": "GR-PT-0022",
    "IncidentName": "Green",
    "IRWINID": null,
    "CreateName": "TRAINEE, GISS",
    "CreateDate": "2026-07-31T16:40:00-06:00",
    "DeleteThis": "No",
    "Comments": "Old burn scar. Div Z."
   },
   "geometry": {
    "type": "Point",
    "coordinates": [
     -103.321252,
     44.0104
    ]
   }
  },
  {
   "type": "Feature",
   "properties": {
    "FeatureCategory": "Lookout",
    "Label": "LO-1",
    "IsVisible": "Yes",
    "MapMethod": "GPS-Walked",
    "GeometryID": "GR-PT-0023",
    "IncidentName": "Green",
    "IRWINID": null,
    "CreateName": "TRAINEE, GISS",
    "CreateDate": "2026-07-31T16:40:00-06:00",
    "DeleteThis": "No",
    "Comments": "North rim. Sees the head."
   },
   "geometry": {
    "type": "Point",
    "coordinates": [
     -103.366638,
     44.018418
    ]
   }
  },
  {
   "type": "Feature",
   "properties": {
    "FeatureCategory": "Lookout",
    "Label": "LO-2",
    "IsVisible": "Yes",
    "MapMethod": "GPS-Walked",
    "GeometryID": "GR-PT-0024",
    "IncidentName": "Green",
    "IRWINID": null,
    "CreateName": "TRAINEE, GISS",
    "CreateDate": "2026-07-31T16:40:00-06:00",
    "DeleteThis": "No",
    "Comments": "South, covers the dozer line."
   },
   "geometry": {
    "type": "Point",
    "coordinates": [
     -103.316781,
     43.999731
    ]
   }
  },
  {
   "type": "Feature",
   "properties": {
    "FeatureCategory": "Repeater",
    "Label": "RPT Storm",
    "IsVisible": "Yes",
    "MapMethod": "GPS-Walked",
    "GeometryID": "GR-PT-0025",
    "IncidentName": "Green",
    "IRWINID": null,
    "CreateName": "TRAINEE, GISS",
    "CreateDate": "2026-07-31T16:40:00-06:00",
    "DeleteThis": "No",
    "Comments": "Sited to cover the Coon Hollow dead zone."
   },
   "geometry": {
    "type": "Point",
    "coordinates": [
     -103.369878,
     44.036421
    ]
   }
  },
  {
   "type": "Feature",
   "properties": {
    "FeatureCategory": "Mobile Weather Unit",
    "Label": "IRAWS 1",
    "IsVisible": "Yes",
    "MapMethod": "GPS-Driven",
    "GeometryID": "GR-PT-0026",
    "IncidentName": "Green",
    "IRWINID": null,
    "CreateName": "TRAINEE, GISS",
    "CreateDate": "2026-07-31T16:40:00-06:00",
    "DeleteThis": "No",
    "Comments": "Exercise IRAWS."
   },
   "geometry": {
    "type": "Point",
    "coordinates": [
     -103.362895,
     44.020822
    ]
   }
  },
  {
   "type": "Feature",
   "properties": {
    "FeatureCategory": "Access Point",
    "Label": "AP-1",
    "IsVisible": "Yes",
    "MapMethod": "GPS-Driven",
    "GeometryID": "GR-PT-0027",
    "IncidentName": "Green",
    "IRWINID": null,
    "CreateName": "TRAINEE, GISS",
    "CreateDate": "2026-07-31T16:40:00-06:00",
    "DeleteThis": "No",
    "Comments": "US-16 at Storm Mountain Rd."
   },
   "geometry": {
    "type": "Point",
    "coordinates": [
     -103.357405,
     44.05787
    ]
   }
  },
  {
   "type": "Feature",
   "properties": {
    "FeatureCategory": "Gate",
    "Label": "Gate 1",
    "IsVisible": "Yes",
    "MapMethod": "GPS-Driven",
    "GeometryID": "GR-PT-0028",
    "IncidentName": "Green",
    "IRWINID": null,
    "CreateName": "TRAINEE, GISS",
    "CreateDate": "2026-07-31T16:40:00-06:00",
    "DeleteThis": "No",
    "Comments": "FS gate. Combination with Div A."
   },
   "geometry": {
    "type": "Point",
    "coordinates": [
     -103.351662,
     44.04201
    ]
   }
  },
  {
   "type": "Feature",
   "properties": {
    "FeatureCategory": "Gate",
    "Label": "Gate 2",
    "IsVisible": "Yes",
    "MapMethod": "GPS-Driven",
    "GeometryID": "GR-PT-0029",
    "IncidentName": "Green",
    "IRWINID": null,
    "CreateName": "TRAINEE, GISS",
    "CreateDate": "2026-07-31T16:40:00-06:00",
    "DeleteThis": "No",
    "Comments": "Locked, south road."
   },
   "geometry": {
    "type": "Point",
    "coordinates": [
     -103.325482,
     44.018401
    ]
   }
  },
  {
   "type": "Feature",
   "properties": {
    "FeatureCategory": "Closure",
    "Label": "Closure 1",
    "IsVisible": "Yes",
    "MapMethod": "GPS-Driven",
    "GeometryID": "GR-PT-0030",
    "IncidentName": "Green",
    "IRWINID": null,
    "CreateName": "TRAINEE, GISS",
    "CreateDate": "2026-07-31T16:40:00-06:00",
    "DeleteThis": "No",
    "Comments": "Storm Mountain Rd closed to public."
   },
   "geometry": {
    "type": "Point",
    "coordinates": [
     -103.354158,
     44.04656
    ]
   }
  },
  {
   "type": "Feature",
   "properties": {
    "FeatureCategory": "Closure",
    "Label": "Closure 2",
    "IsVisible": "Yes",
    "MapMethod": "GPS-Driven",
    "GeometryID": "GR-PT-0031",
    "IncidentName": "Green",
    "IRWINID": null,
    "CreateName": "TRAINEE, GISS",
    "CreateDate": "2026-07-31T16:40:00-06:00",
    "DeleteThis": "No",
    "Comments": "South road closed."
   },
   "geometry": {
    "type": "Point",
    "coordinates": [
     -103.322972,
     44.034331
    ]
   }
  },
  {
   "type": "Feature",
   "properties": {
    "FeatureCategory": "Hazard",
    "Label": "Mine 1",
    "IsVisible": "Yes",
    "MapMethod": "GPS-Walked",
    "GeometryID": "GR-PT-0032",
    "IncidentName": "Green",
    "IRWINID": null,
    "CreateName": "TRAINEE, GISS",
    "CreateDate": "2026-07-31T16:40:00-06:00",
    "DeleteThis": "No",
    "Comments": "Abandoned shaft, open. Uncovered, do not anchor line here."
   },
   "geometry": {
    "type": "Point",
    "coordinates": [
     -103.343702,
     44.006514
    ]
   }
  },
  {
   "type": "Feature",
   "properties": {
    "FeatureCategory": "Hazard",
    "Label": "Mine 2",
    "IsVisible": "Yes",
    "MapMethod": "GPS-Walked",
    "GeometryID": "GR-PT-0033",
    "IncidentName": "Green",
    "IRWINID": null,
    "CreateName": "TRAINEE, GISS",
    "CreateDate": "2026-07-31T16:40:00-06:00",
    "DeleteThis": "No",
    "Comments": "Abandoned adit and tailings."
   },
   "geometry": {
    "type": "Point",
    "coordinates": [
     -103.335477,
     44.002998
    ]
   }
  },
  {
   "type": "Feature",
   "properties": {
    "FeatureCategory": "Hazard",
    "Label": "Powerline",
    "IsVisible": "Yes",
    "MapMethod": "Digitized-Other",
    "GeometryID": "GR-PT-0034",
    "IncidentName": "Green",
    "IRWINID": null,
    "CreateName": "TRAINEE, GISS",
    "CreateDate": "2026-07-31T16:40:00-06:00",
    "DeleteThis": "No",
    "Comments": "Distribution line crossing."
   },
   "geometry": {
    "type": "Point",
    "coordinates": [
     -103.37138,
     44.013416
    ]
   }
  },
  {
   "type": "Feature",
   "properties": {
    "FeatureCategory": "Hazard",
    "Label": "Snags",
    "IsVisible": "Yes",
    "MapMethod": "GPS-Walked",
    "GeometryID": "GR-PT-0035",
    "IncidentName": "Green",
    "IRWINID": null,
    "CreateName": "TRAINEE, GISS",
    "CreateDate": "2026-07-31T16:40:00-06:00",
    "DeleteThis": "No",
    "Comments": "Heavy beetle-kill, standing dead."
   },
   "geometry": {
    "type": "Point",
    "coordinates": [
     -103.35367,
     44.01562
    ]
   }
  },
  {
   "type": "Feature",
   "properties": {
    "FeatureCategory": "Medical Site",
    "Label": "MED 1",
    "IsVisible": "Yes",
    "MapMethod": "GPS-Driven",
    "GeometryID": "GR-PT-0036",
    "IncidentName": "Green",
    "IRWINID": null,
    "CreateName": "TRAINEE, GISS",
    "CreateDate": "2026-07-31T16:40:00-06:00",
    "DeleteThis": "No",
    "Comments": "Line medic at DP 3. Ambulance interception point."
   },
   "geometry": {
    "type": "Point",
    "coordinates": [
     -103.349544,
     44.032259
    ]
   }
  },
  {
   "type": "Feature",
   "properties": {
    "FeatureCategory": "Medivac Site",
    "Label": "MEDIVAC 1",
    "IsVisible": "Yes",
    "MapMethod": "GPS-Flight",
    "GeometryID": "GR-PT-0037",
    "IncidentName": "Green",
    "IRWINID": null,
    "CreateName": "TRAINEE, GISS",
    "CreateDate": "2026-07-31T16:40:00-06:00",
    "DeleteThis": "No",
    "Comments": "Co-located with H-3."
   },
   "geometry": {
    "type": "Point",
    "coordinates": [
     -103.346674,
     44.033819
    ]
   }
  },
  {
   "type": "Feature",
   "properties": {
    "FeatureCategory": "Value at Risk",
    "Label": "Training Grounds",
    "IsVisible": "Yes",
    "MapMethod": "GPS-Walked",
    "GeometryID": "GR-PT-0038",
    "IncidentName": "Green",
    "IRWINID": null,
    "CreateName": "TRAINEE, GISS",
    "CreateDate": "2026-07-31T16:40:00-06:00",
    "DeleteThis": "No",
    "Comments": "Storm Mountain Training Grounds \u2014 lodge, cabins, dining hall."
   },
   "geometry": {
    "type": "Point",
    "coordinates": [
     -103.34992,
     44.028619
    ]
   }
  },
  {
   "type": "Feature",
   "properties": {
    "FeatureCategory": "Structure",
    "Label": "Lodge",
    "IsVisible": "Yes",
    "MapMethod": "GPS-Walked",
    "GeometryID": "GR-PT-0039",
    "IncidentName": "Green",
    "IRWINID": null,
    "CreateName": "TRAINEE, GISS",
    "CreateDate": "2026-07-31T16:40:00-06:00",
    "DeleteThis": "No",
    "Comments": "Main lodge."
   },
   "geometry": {
    "type": "Point",
    "coordinates": [
     -103.350294,
     44.028749
    ]
   }
  },
  {
   "type": "Feature",
   "properties": {
    "FeatureCategory": "Structure",
    "Label": "Dining Hall",
    "IsVisible": "Yes",
    "MapMethod": "GPS-Walked",
    "GeometryID": "GR-PT-0040",
    "IncidentName": "Green",
    "IRWINID": null,
    "CreateName": "TRAINEE, GISS",
    "CreateDate": "2026-07-31T16:40:00-06:00",
    "DeleteThis": "No",
    "Comments": ""
   },
   "geometry": {
    "type": "Point",
    "coordinates": [
     -103.349546,
     44.028229
    ]
   }
  },
  {
   "type": "Feature",
   "properties": {
    "FeatureCategory": "Structure",
    "Label": "Cabin Row",
    "IsVisible": "Yes",
    "MapMethod": "GPS-Walked",
    "GeometryID": "GR-PT-0041",
    "IncidentName": "Green",
    "IRWINID": null,
    "CreateName": "TRAINEE, GISS",
    "CreateDate": "2026-07-31T16:40:00-06:00",
    "DeleteThis": "No",
    "Comments": "Six cabins."
   },
   "geometry": {
    "type": "Point",
    "coordinates": [
     -103.349296,
     44.029269
    ]
   }
  },
  {
   "type": "Feature",
   "properties": {
    "FeatureCategory": "Spot Fire",
    "Label": "Spot 1",
    "IsVisible": "Yes",
    "MapMethod": "GPS-Walked",
    "GeometryID": "GR-PT-0042",
    "IncidentName": "Green",
    "IRWINID": null,
    "CreateName": "TRAINEE, GISS",
    "CreateDate": "2026-07-31T16:40:00-06:00",
    "DeleteThis": "No",
    "Comments": "Quarter acre, north of the head. Held."
   },
   "geometry": {
    "type": "Point",
    "coordinates": [
     -103.361646,
     44.025112
    ]
   }
  },
  {
   "type": "Feature",
   "properties": {
    "FeatureCategory": "Point of Origin",
    "Label": "Origin",
    "IsVisible": "Yes",
    "MapMethod": "GPS-Walked",
    "GeometryID": "GR-PT-0043",
    "IncidentName": "Green",
    "IRWINID": null,
    "CreateName": "TRAINEE, GISS",
    "CreateDate": "2026-07-31T16:40:00-06:00",
    "DeleteThis": "No",
    "Comments": "Exercise origin. Secured."
   },
   "geometry": {
    "type": "Point",
    "coordinates": [
     -103.333728,
     44.005857
    ]
   }
  },
  {
   "type": "Feature",
   "properties": {
    "FeatureCategory": "Sign",
    "Label": "Sign 1",
    "IsVisible": "Yes",
    "MapMethod": "GPS-Driven",
    "GeometryID": "GR-PT-0044",
    "IncidentName": "Green",
    "IRWINID": null,
    "CreateName": "TRAINEE, GISS",
    "CreateDate": "2026-07-31T16:40:00-06:00",
    "DeleteThis": "No",
    "Comments": "Fire traffic sign, US-16."
   },
   "geometry": {
    "type": "Point",
    "coordinates": [
     -103.356404,
     44.048315
    ]
   }
  },
  {
   "type": "Feature",
   "properties": {
    "FeatureCategory": "Internet Access",
    "Label": "Starlink 1",
    "IsVisible": "Yes",
    "MapMethod": "GPS-Driven",
    "GeometryID": "GR-PT-0045",
    "IncidentName": "Green",
    "IRWINID": null,
    "CreateName": "TRAINEE, GISS",
    "CreateDate": "2026-07-31T16:40:00-06:00",
    "DeleteThis": "No",
    "Comments": "ICP."
   },
   "geometry": {
    "type": "Point",
    "coordinates": [
     -103.362644,
     44.052409
    ]
   }
  }
 ]
}
