{
 "type": "FeatureCollection",
 "name": "EventPolygon",
 "crs": {
  "type": "name",
  "properties": {
   "name": "urn:ogc:def:crs:OGC:1.3:CRS84"
  }
 },
 "_warning": "TRAINING EXERCISE \u2014 NOT AN ACTUAL INCIDENT. Fabricated data. Never publish, never sync to NIFS or NIFC AGOL.",
 "_fire": "Green",
 "_generated_by": "scripts/make_fires.py",
 "features": [
  {
   "type": "Feature",
   "properties": {
    "FeatureCategory": "Wildfire Daily Fire Perimeter",
    "Label": "Green 07/29",
    "IsVisible": "Yes",
    "MapMethod": "Infrared Image",
    "GeometryID": "GR-PY-0001",
    "IncidentName": "Green",
    "IRWINID": null,
    "CreateName": "TRAINEE, GISS",
    "CreateDate": "2026-07-31T16:40:00-06:00",
    "DeleteThis": "No",
    "Comments": "Operational period 2 perimeter.",
    "GISAcres": 195.0,
    "PolygonDateTime": "2026-07-29T02:14:00-06:00"
   },
   "geometry": {
    "type": "Polygon",
    "coordinates": [
     [
      [
       -103.328993,
       44.003773
      ],
      [
       -103.333358,
       44.002476
      ],
      [
       -103.337721,
       44.00313
      ],
      [
       -103.340835,
       44.005732
      ],
      [
       -103.341455,
       44.008983
      ],
      [
       -103.338958,
       44.011582
      ],
      [
       -103.334593,
       44.011905
      ],
      [
       -103.330855,
       44.009627
      ],
      [
       -103.32874,
       44.006374
      ],
      [
       -103.328993,
       44.003773
      ]
     ]
    ]
   }
  },
  {
   "type": "Feature",
   "properties": {
    "FeatureCategory": "Wildfire Daily Fire Perimeter",
    "Label": "Green 07/30",
    "IsVisible": "Yes",
    "MapMethod": "Infrared Image",
    "GeometryID": "GR-PY-0002",
    "IncidentName": "Green",
    "IRWINID": null,
    "CreateName": "TRAINEE, GISS",
    "CreateDate": "2026-07-31T16:40:00-06:00",
    "DeleteThis": "No",
    "Comments": "Operational period 3 perimeter.",
    "GISAcres": 627.9,
    "PolygonDateTime": "2026-07-30T02:14:00-06:00"
   },
   "geometry": {
    "type": "Polygon",
    "coordinates": [
     [
      [
       -103.325877,
       44.002796
      ],
      [
       -103.331491,
       44.000524
      ],
      [
       -103.338349,
       44.000204
      ],
      [
       -103.343956,
       44.002484
      ],
      [
       -103.348316,
       44.006712
      ],
      [
       -103.350181,
       44.011263
      ],
      [
       -103.348307,
       44.015162
      ],
      [
       -103.343317,
       44.01711
      ],
      [
       -103.337706,
       44.016132
      ],
      [
       -103.332098,
       44.012878
      ],
      [
       -103.327739,
       44.008649
      ],
      [
       -103.32525,
       44.005071
      ],
      [
       -103.325877,
       44.002796
      ]
     ]
    ]
   }
  },
  {
   "type": "Feature",
   "properties": {
    "FeatureCategory": "Wildfire Daily Fire Perimeter",
    "Label": "Green 07/31",
    "IsVisible": "Yes",
    "MapMethod": "Infrared Image",
    "GeometryID": "GR-PY-0003",
    "IncidentName": "Green",
    "IRWINID": null,
    "CreateName": "TRAINEE, GISS",
    "CreateDate": "2026-07-31T16:40:00-06:00",
    "DeleteThis": "No",
    "Comments": "Operational period 4 perimeter.",
    "GISAcres": 1429.9,
    "PolygonDateTime": "2026-07-31T02:14:00-06:00"
   },
   "geometry": {
    "type": "Polygon",
    "coordinates": [
     [
      [
       -103.322762,
       44.001818
      ],
      [
       -103.330247,
       43.998573
      ],
      [
       -103.338976,
       43.997604
      ],
      [
       -103.347077,
       43.999885
      ],
      [
       -103.353928,
       44.00509
      ],
      [
       -103.358287,
       44.010942
      ],
      [
       -103.360154,
       44.016792
      ],
      [
       -103.357033,
       44.021341
      ],
      [
       -103.350796,
       44.023614
      ],
      [
       -103.342689,
       44.022636
      ],
      [
       -103.336456,
       44.019057
      ],
      [
       -103.330849,
       44.014828
      ],
      [
       -103.325866,
       44.010273
      ],
      [
       -103.322132,
       44.005719
      ],
      [
       -103.322762,
       44.001818
      ]
     ]
    ]
   }
  },
  {
   "type": "Feature",
   "properties": {
    "FeatureCategory": "Temporary Flight Restriction",
    "Label": "TFR 5 NM",
    "IsVisible": "Yes",
    "MapMethod": "Digitized-Other",
    "GeometryID": "GR-PY-0004",
    "IncidentName": "Green",
    "IRWINID": null,
    "CreateName": "TRAINEE, GISS",
    "CreateDate": "2026-07-31T16:40:00-06:00",
    "DeleteThis": "No",
    "Comments": "5 NM radius, surface to 8500 ft MSL. Exercise only \u2014 no real TFR exists. Wider than the AOI, which is why air ops needs a wider extent than ops.",
    "GISAcres": 66481.8,
    "PolygonDateTime": null
   },
   "geometry": {
    "type": "Polygon",
    "coordinates": [
     [
      [
       -103.224536,
       44.008264
      ],
      [
       -103.224758,
       44.015533
      ],
      [
       -103.225858,
       44.022761
      ],
      [
       -103.227827,
       44.029893
      ],
      [
       -103.230651,
       44.036873
      ],
      [
       -103.234308,
       44.043649
      ],
      [
       -103.238771,
       44.050169
      ],
      [
       -103.244005,
       44.056384
      ],
      [
       -103.249972,
       44.062246
      ],
      [
       -103.256626,
       44.06771
      ],
      [
       -103.263916,
       44.072735
      ],
      [
       -103.271787,
       44.077281
      ],
      [
       -103.280179,
       44.081316
      ],
      [
       -103.289028,
       44.084807
      ],
      [
       -103.298266,
       44.087729
      ],
      [
       -103.307824,
       44.090058
      ],
      [
       -103.317627,
       44.091777
      ],
      [
       -103.327601,
       44.092872
      ],
      [
       -103.33767,
       44.093337
      ],
      [
       -103.347757,
       44.093166
      ],
      [
       -103.357784,
       44.092361
      ],
      [
       -103.367676,
       44.090929
      ],
      [
       -103.377356,
       44.08888
      ],
      [
       -103.386751,
       44.086229
      ],
      [
       -103.395789,
       44.082998
      ],
      [
       -103.4044,
       44.079211
      ],
      [
       -103.41252,
       44.074897
      ],
      [
       -103.420086,
       44.070088
      ],
      [
       -103.427041,
       44.064821
      ],
      [
       -103.433331,
       44.059138
      ],
      [
       -103.438909,
       44.05308
      ],
      [
       -103.443733,
       44.046694
      ],
      [
       -103.447766,
       44.04003
      ],
      [
       -103.450978,
       44.033137
      ],
      [
       -103.453344,
       44.026068
      ],
      [
       -103.454846,
       44.018877
      ],
      [
       -103.455474,
       44.01162
      ],
      [
       -103.455223,
       44.00435
      ],
      [
       -103.454096,
       43.997124
      ],
      [
       -103.452101,
       43.989996
      ],
      [
       -103.449253,
       43.983021
      ],
      [
       -103.445575,
       43.976251
      ],
      [
       -103.441095,
       43.969739
      ],
      [
       -103.435846,
       43.963533
      ],
      [
       -103.429871,
       43.95768
      ],
      [
       -103.423213,
       43.952226
      ],
      [
       -103.415923,
       43.947212
      ],
      [
       -103.408058,
       43.942675
      ],
      [
       -103.399676,
       43.93865
      ],
      [
       -103.390842,
       43.935167
      ],
      [
       -103.381622,
       43.932254
      ],
      [
       -103.372087,
       43.929931
      ],
      [
       -103.362308,
       43.928217
      ],
      [
       -103.352361,
       43.927125
      ],
      [
       -103.34232,
       43.926662
      ],
      [
       -103.332261,
       43.926833
      ],
      [
       -103.322261,
       43.927636
      ],
      [
       -103.312396,
       43.929065
      ],
      [
       -103.30274,
       43.931109
      ],
      [
       -103.293366,
       43.933753
      ],
      [
       -103.284346,
       43.936976
      ],
      [
       -103.275748,
       43.940754
      ],
      [
       -103.267637,
       43.945059
      ],
      [
       -103.260075,
       43.949858
      ],
      [
       -103.25312,
       43.955114
      ],
      [
       -103.246824,
       43.960788
      ],
      [
       -103.241235,
       43.966836
      ],
      [
       -103.236397,
       43.973213
      ],
      [
       -103.232345,
       43.97987
      ],
      [
       -103.229112,
       43.986757
      ],
      [
       -103.226721,
       43.99382
      ],
      [
       -103.225192,
       44.001008
      ],
      [
       -103.224536,
       44.008264
      ]
     ]
    ]
   }
  },
  {
   "type": "Feature",
   "properties": {
    "FeatureCategory": "Aerial Hazard Area",
    "Label": "Powerline Corridor",
    "IsVisible": "Yes",
    "MapMethod": "Digitized-Other",
    "GeometryID": "GR-PY-0005",
    "IncidentName": "Green",
    "IRWINID": null,
    "CreateName": "TRAINEE, GISS",
    "CreateDate": "2026-07-31T16:40:00-06:00",
    "DeleteThis": "No",
    "Comments": "Distribution line. No low-level flight.",
    "GISAcres": 1281.8,
    "PolygonDateTime": null
   },
   "geometry": {
    "type": "Polygon",
    "coordinates": [
     [
      [
       -103.383685,
       43.988519
      ],
      [
       -103.378765,
       44.001284
      ],
      [
       -103.376366,
       44.013672
      ],
      [
       -103.377566,
       44.026049
      ],
      [
       -103.381253,
       44.038806
      ],
      [
       -103.381253,
       44.038806
      ],
      [
       -103.381349,
       44.039744
      ],
      [
       -103.381106,
       44.040667
      ],
      [
       -103.38054,
       44.041514
      ],
      [
       -103.379689,
       44.042226
      ],
      [
       -103.378612,
       44.042755
      ],
      [
       -103.377382,
       44.043064
      ],
      [
       -103.376082,
       44.043134
      ],
      [
       -103.374802,
       44.042958
      ],
      [
       -103.373628,
       44.04255
      ],
      [
       -103.372641,
       44.041936
      ],
      [
       -103.371908,
       44.041159
      ],
      [
       -103.371479,
       44.040271
      ],
      [
       -103.371479,
       44.040271
      ],
      [
       -103.36768,
       44.027036
      ],
      [
       -103.366394,
       44.01342
      ],
      [
       -103.368999,
       43.999816
      ],
      [
       -103.374075,
       43.986593
      ],
      [
       -103.374075,
       43.986593
      ],
      [
       -103.374584,
       43.985728
      ],
      [
       -103.375386,
       43.984987
      ],
      [
       -103.376426,
       43.984422
      ],
      [
       -103.377633,
       43.98407
      ],
      [
       -103.378925,
       43.983955
      ],
      [
       -103.380214,
       43.984087
      ],
      [
       -103.381412,
       43.984454
      ],
      [
       -103.382438,
       43.985033
      ],
      [
       -103.383221,
       43.985784
      ],
      [
       -103.383709,
       43.986655
      ],
      [
       -103.383867,
       43.987588
      ],
      [
       -103.383685,
       43.988519
      ],
      [
       -103.383685,
       43.988519
      ]
     ]
    ]
   }
  },
  {
   "type": "Feature",
   "properties": {
    "FeatureCategory": "Retardant Avoidance Area",
    "Label": "Spring Creek",
    "IsVisible": "Yes",
    "MapMethod": "Digitized-Other",
    "GeometryID": "GR-PY-0006",
    "IncidentName": "Green",
    "IRWINID": null,
    "CreateName": "TRAINEE, GISS",
    "CreateDate": "2026-07-31T16:40:00-06:00",
    "DeleteThis": "No",
    "Comments": "300 m each side of the creek. Exercise buffer.",
    "GISAcres": 567.6,
    "PolygonDateTime": null
   },
   "geometry": {
    "type": "Polygon",
    "coordinates": [
     [
      [
       -103.360812,
       44.043677
      ],
      [
       -103.355697,
       44.038339
      ],
      [
       -103.351742,
       44.032843
      ],
      [
       -103.348464,
       44.026682
      ],
      [
       -103.346475,
       44.020447
      ],
      [
       -103.345824,
       44.014394
      ],
      [
       -103.345824,
       44.014394
      ],
      [
       -103.345877,
       44.01369
      ],
      [
       -103.346181,
       44.01302
      ],
      [
       -103.346715,
       44.012429
      ],
      [
       -103.347443,
       44.011959
      ],
      [
       -103.348314,
       44.01164
      ],
      [
       -103.34927,
       44.011495
      ],
      [
       -103.350245,
       44.011534
      ],
      [
       -103.351174,
       44.011753
      ],
      [
       -103.351992,
       44.012139
      ],
      [
       -103.352644,
       44.012664
      ],
      [
       -103.353085,
       44.013292
      ],
      [
       -103.353286,
       44.013982
      ],
      [
       -103.353286,
       44.013982
      ],
      [
       -103.353873,
       44.019629
      ],
      [
       -103.35562,
       44.025096
      ],
      [
       -103.358574,
       44.030637
      ],
      [
       -103.362101,
       44.035541
      ],
      [
       -103.366968,
       44.040603
      ],
      [
       -103.366968,
       44.040603
      ],
      [
       -103.367415,
       44.04123
      ],
      [
       -103.367621,
       44.041919
      ],
      [
       -103.367573,
       44.042623
      ],
      [
       -103.367275,
       44.043294
      ],
      [
       -103.366745,
       44.043887
      ],
      [
       -103.366021,
       44.04436
      ],
      [
       -103.365152,
       44.044682
      ],
      [
       -103.364197,
       44.044831
      ],
      [
       -103.363221,
       44.044797
      ],
      [
       -103.36229,
       44.044581
      ],
      [
       -103.361468,
       44.0442
      ],
      [
       -103.360812,
       44.043677
      ],
      [
       -103.360812,
       44.043677
      ]
     ]
    ]
   }
  },
  {
   "type": "Feature",
   "properties": {
    "FeatureCategory": "Closure Area",
    "Label": "Green Closure",
    "IsVisible": "Yes",
    "MapMethod": "Digitized-Other",
    "GeometryID": "GR-PY-0007",
    "IncidentName": "Green",
    "IRWINID": null,
    "CreateName": "TRAINEE, GISS",
    "CreateDate": "2026-07-31T16:40:00-06:00",
    "DeleteThis": "No",
    "Comments": "Public closure. Roads and trails inside are closed.",
    "GISAcres": 11078.1,
    "PolygonDateTime": null
   },
   "geometry": {
    "type": "Polygon",
    "coordinates": [
     [
      [
       -103.292865,
       44.009305
      ],
      [
       -103.29296,
       44.012273
      ],
      [
       -103.293412,
       44.015223
      ],
      [
       -103.294219,
       44.018134
      ],
      [
       -103.295375,
       44.020983
      ],
      [
       -103.29687,
       44.023748
      ],
      [
       -103.298694,
       44.026409
      ],
      [
       -103.300832,
       44.028944
      ],
      [
       -103.303269,
       44.031336
      ],
      [
       -103.305986,
       44.033565
      ],
      [
       -103.308961,
       44.035615
      ],
      [
       -103.312174,
       44.03747
      ],
      [
       -103.315598,
       44.039116
      ],
      [
       -103.319209,
       44.04054
      ],
      [
       -103.322978,
       44.041732
      ],
      [
       -103.326876,
       44.042681
      ],
      [
       -103.330875,
       44.043383
      ],
      [
       -103.334943,
       44.043829
      ],
      [
       -103.33905,
       44.044019
      ],
      [
       -103.343164,
       44.043949
      ],
      [
       -103.347254,
       44.043621
      ],
      [
       -103.351289,
       44.043036
      ],
      [
       -103.355237,
       44.042201
      ],
      [
       -103.35907,
       44.04112
      ],
      [
       -103.362757,
       44.039802
      ],
      [
       -103.366271,
       44.038257
      ],
      [
       -103.369584,
       44.036497
      ],
      [
       -103.372672,
       44.034535
      ],
      [
       -103.375511,
       44.032386
      ],
      [
       -103.37808,
       44.030067
      ],
      [
       -103.380358,
       44.027596
      ],
      [
       -103.382329,
       44.02499
      ],
      [
       -103.383978,
       44.02227
      ],
      [
       -103.385291,
       44.019458
      ],
      [
       -103.38626,
       44.016573
      ],
      [
       -103.386877,
       44.013638
      ],
      [
       -103.387136,
       44.010675
      ],
      [
       -103.387037,
       44.007708
      ],
      [
       -103.38658,
       44.004758
      ],
      [
       -103.385769,
       44.001848
      ],
      [
       -103.384609,
       43.999
      ],
      [
       -103.383111,
       43.996235
      ],
      [
       -103.381284,
       43.993576
      ],
      [
       -103.379143,
       43.991042
      ],
      [
       -103.376705,
       43.988652
      ],
      [
       -103.373987,
       43.986424
      ],
      [
       -103.371012,
       43.984376
      ],
      [
       -103.3678,
       43.982523
      ],
      [
       -103.364378,
       43.980878
      ],
      [
       -103.36077,
       43.979456
      ],
      [
       -103.357004,
       43.978265
      ],
      [
       -103.353109,
       43.977317
      ],
      [
       -103.349114,
       43.976616
      ],
      [
       -103.34505,
       43.97617
      ],
      [
       -103.340948,
       43.975981
      ],
      [
       -103.336839,
       43.976051
      ],
      [
       -103.332753,
       43.976379
      ],
      [
       -103.328723,
       43.976962
      ],
      [
       -103.324779,
       43.977797
      ],
      [
       -103.32095,
       43.978877
      ],
      [
       -103.317265,
       43.980194
      ],
      [
       -103.313754,
       43.981738
      ],
      [
       -103.310442,
       43.983496
      ],
      [
       -103.307355,
       43.985456
      ],
      [
       -103.304516,
       43.987603
      ],
      [
       -103.301946,
       43.98992
      ],
      [
       -103.299666,
       43.99239
      ],
      [
       -103.297693,
       43.994995
      ],
      [
       -103.296041,
       43.997713
      ],
      [
       -103.294724,
       44.000525
      ],
      [
       -103.293751,
       44.003409
      ],
      [
       -103.29313,
       44.006343
      ],
      [
       -103.292865,
       44.009305
      ]
     ]
    ]
   }
  },
  {
   "type": "Feature",
   "properties": {
    "FeatureCategory": "Safety Zone",
    "Label": "SZ-1 Area",
    "IsVisible": "Yes",
    "MapMethod": "GPS-Walked",
    "GeometryID": "GR-PY-0008",
    "IncidentName": "Green",
    "IRWINID": null,
    "CreateName": "TRAINEE, GISS",
    "CreateDate": "2026-07-31T16:40:00-06:00",
    "DeleteThis": "No",
    "Comments": "Meadow. Measured, not eyeballed.",
    "GISAcres": 13.1,
    "PolygonDateTime": null
   },
   "geometry": {
    "type": "Polygon",
    "coordinates": [
     [
      [
       -103.343812,
       44.022484
      ],
      [
       -103.343815,
       44.022586
      ],
      [
       -103.343831,
       44.022687
      ],
      [
       -103.343858,
       44.022787
      ],
      [
       -103.343898,
       44.022885
      ],
      [
       -103.34395,
       44.02298
      ],
      [
       -103.344013,
       44.023072
      ],
      [
       -103.344086,
       44.023159
      ],
      [
       -103.34417,
       44.023241
      ],
      [
       -103.344263,
       44.023318
      ],
      [
       -103.344366,
       44.023388
      ],
      [
       -103.344476,
       44.023452
      ],
      [
       -103.344594,
       44.023508
      ],
      [
       -103.344718,
       44.023557
      ],
      [
       -103.344848,
       44.023598
      ],
      [
       -103.344982,
       44.023631
      ],
      [
       -103.345119,
       44.023655
      ],
      [
       -103.345259,
       44.02367
      ],
      [
       -103.3454,
       44.023677
      ],
      [
       -103.345542,
       44.023675
      ],
      [
       -103.345683,
       44.023663
      ],
      [
       -103.345821,
       44.023643
      ],
      [
       -103.345957,
       44.023614
      ],
      [
       -103.346089,
       44.023577
      ],
      [
       -103.346216,
       44.023532
      ],
      [
       -103.346336,
       44.023479
      ],
      [
       -103.34645,
       44.023418
      ],
      [
       -103.346557,
       44.023351
      ],
      [
       -103.346654,
       44.023277
      ],
      [
       -103.346743,
       44.023197
      ],
      [
       -103.346821,
       44.023112
      ],
      [
       -103.346889,
       44.023023
      ],
      [
       -103.346946,
       44.022929
      ],
      [
       -103.346991,
       44.022832
      ],
      [
       -103.347024,
       44.022733
      ],
      [
       -103.347045,
       44.022632
      ],
      [
       -103.347054,
       44.02253
      ],
      [
       -103.347051,
       44.022428
      ],
      [
       -103.347035,
       44.022327
      ],
      [
       -103.347008,
       44.022227
      ],
      [
       -103.346968,
       44.022129
      ],
      [
       -103.346916,
       44.022034
      ],
      [
       -103.346853,
       44.021942
      ],
      [
       -103.34678,
       44.021855
      ],
      [
       -103.346696,
       44.021773
      ],
      [
       -103.346603,
       44.021696
      ],
      [
       -103.3465,
       44.021626
      ],
      [
       -103.34639,
       44.021562
      ],
      [
       -103.346272,
       44.021506
      ],
      [
       -103.346148,
       44.021457
      ],
      [
       -103.346018,
       44.021416
      ],
      [
       -103.345884,
       44.021383
      ],
      [
       -103.345747,
       44.021359
      ],
      [
       -103.345607,
       44.021344
      ],
      [
       -103.345466,
       44.021337
      ],
      [
       -103.345324,
       44.021339
      ],
      [
       -103.345184,
       44.021351
      ],
      [
       -103.345045,
       44.021371
      ],
      [
       -103.344909,
       44.0214
      ],
      [
       -103.344777,
       44.021437
      ],
      [
       -103.34465,
       44.021482
      ],
      [
       -103.34453,
       44.021535
      ],
      [
       -103.344416,
       44.021596
      ],
      [
       -103.34431,
       44.021663
      ],
      [
       -103.344212,
       44.021737
      ],
      [
       -103.344124,
       44.021817
      ],
      [
       -103.344045,
       44.021902
      ],
      [
       -103.343977,
       44.021991
      ],
      [
       -103.343921,
       44.022085
      ],
      [
       -103.343875,
       44.022181
      ],
      [
       -103.343842,
       44.022281
      ],
      [
       -103.343821,
       44.022382
      ],
      [
       -103.343812,
       44.022484
      ]
     ]
    ]
   }
  },
  {
   "type": "Feature",
   "properties": {
    "FeatureCategory": "Structure Group",
    "Label": "Training Grounds Structures",
    "IsVisible": "Yes",
    "MapMethod": "GPS-Walked",
    "GeometryID": "GR-PY-0009",
    "IncidentName": "Green",
    "IRWINID": null,
    "CreateName": "TRAINEE, GISS",
    "CreateDate": "2026-07-31T16:40:00-06:00",
    "DeleteThis": "No",
    "Comments": "Lodge, dining hall, cabin row, tank. Structure protection group assigned.",
    "GISAcres": 95.0,
    "PolygonDateTime": null
   },
   "geometry": {
    "type": "Polygon",
    "coordinates": [
     [
      [
       -103.345554,
       44.028556
      ],
      [
       -103.345563,
       44.028831
      ],
      [
       -103.345605,
       44.029104
      ],
      [
       -103.34568,
       44.029373
      ],
      [
       -103.345788,
       44.029637
      ],
      [
       -103.345926,
       44.029893
      ],
      [
       -103.346095,
       44.030139
      ],
      [
       -103.346294,
       44.030374
      ],
      [
       -103.346519,
       44.030595
      ],
      [
       -103.346771,
       44.030802
      ],
      [
       -103.347047,
       44.030991
      ],
      [
       -103.347344,
       44.031163
      ],
      [
       -103.347661,
       44.031315
      ],
      [
       -103.347996,
       44.031447
      ],
      [
       -103.348345,
       44.031557
      ],
      [
       -103.348706,
       44.031645
      ],
      [
       -103.349076,
       44.03171
      ],
      [
       -103.349452,
       44.031751
      ],
      [
       -103.349833,
       44.031769
      ],
      [
       -103.350213,
       44.031762
      ],
      [
       -103.350592,
       44.031732
      ],
      [
       -103.350966,
       44.031678
      ],
      [
       -103.351331,
       44.031601
      ],
      [
       -103.351686,
       44.0315
      ],
      [
       -103.352027,
       44.031378
      ],
      [
       -103.352353,
       44.031235
      ],
      [
       -103.352659,
       44.031072
      ],
      [
       -103.352945,
       44.030891
      ],
      [
       -103.353208,
       44.030692
      ],
      [
       -103.353446,
       44.030477
      ],
      [
       -103.353657,
       44.030249
      ],
      [
       -103.35384,
       44.030007
      ],
      [
       -103.353993,
       44.029756
      ],
      [
       -103.354114,
       44.029495
      ],
      [
       -103.354204,
       44.029228
      ],
      [
       -103.354262,
       44.028956
      ],
      [
       -103.354286,
       44.028682
      ],
      [
       -103.354277,
       44.028407
      ],
      [
       -103.354235,
       44.028134
      ],
      [
       -103.35416,
       44.027865
      ],
      [
       -103.354052,
       44.027601
      ],
      [
       -103.353914,
       44.027345
      ],
      [
       -103.353744,
       44.027099
      ],
      [
       -103.353546,
       44.026864
      ],
      [
       -103.35332,
       44.026643
      ],
      [
       -103.353069,
       44.026436
      ],
      [
       -103.352793,
       44.026247
      ],
      [
       -103.352496,
       44.026075
      ],
      [
       -103.352178,
       44.025923
      ],
      [
       -103.351844,
       44.025791
      ],
      [
       -103.351495,
       44.025681
      ],
      [
       -103.351134,
       44.025593
      ],
      [
       -103.350764,
       44.025528
      ],
      [
       -103.350388,
       44.025487
      ],
      [
       -103.350007,
       44.025469
      ],
      [
       -103.349627,
       44.025476
      ],
      [
       -103.349248,
       44.025506
      ],
      [
       -103.348875,
       44.02556
      ],
      [
       -103.348509,
       44.025637
      ],
      [
       -103.348154,
       44.025738
      ],
      [
       -103.347813,
       44.02586
      ],
      [
       -103.347488,
       44.026003
      ],
      [
       -103.347181,
       44.026165
      ],
      [
       -103.346895,
       44.026347
      ],
      [
       -103.346632,
       44.026546
      ],
      [
       -103.346394,
       44.026761
      ],
      [
       -103.346183,
       44.026989
      ],
      [
       -103.346,
       44.027231
      ],
      [
       -103.345847,
       44.027482
      ],
      [
       -103.345726,
       44.027743
      ],
      [
       -103.345636,
       44.02801
      ],
      [
       -103.345578,
       44.028282
      ],
      [
       -103.345554,
       44.028556
      ]
     ]
    ]
   }
  },
  {
   "type": "Feature",
   "properties": {
    "FeatureCategory": "Management Action Point Area",
    "Label": "MAP 1 \u2014 Access Road",
    "IsVisible": "Yes",
    "MapMethod": "Digitized-Topo",
    "GeometryID": "GR-PY-0010",
    "IncidentName": "Green",
    "IRWINID": null,
    "CreateName": "TRAINEE, GISS",
    "CreateDate": "2026-07-31T16:40:00-06:00",
    "DeleteThis": "No",
    "Comments": "Trigger: fire crosses the drainage west of DP 3 \u2014 evacuate the training grounds.",
    "GISAcres": 193.8,
    "PolygonDateTime": null
   },
   "geometry": {
    "type": "Polygon",
    "coordinates": [
     [
      [
       -103.344554,
       44.032949
      ],
      [
       -103.344567,
       44.033341
      ],
      [
       -103.344627,
       44.033732
      ],
      [
       -103.344734,
       44.034117
      ],
      [
       -103.344887,
       44.034493
      ],
      [
       -103.345085,
       44.034859
      ],
      [
       -103.345327,
       44.035211
      ],
      [
       -103.34561,
       44.035546
      ],
      [
       -103.345932,
       44.035862
      ],
      [
       -103.346292,
       44.036157
      ],
      [
       -103.346686,
       44.036428
      ],
      [
       -103.347111,
       44.036673
      ],
      [
       -103.347564,
       44.036891
      ],
      [
       -103.348042,
       44.037079
      ],
      [
       -103.34854,
       44.037237
      ],
      [
       -103.349056,
       44.037362
      ],
      [
       -103.349585,
       44.037455
      ],
      [
       -103.350123,
       44.037514
      ],
      [
       -103.350666,
       44.037539
      ],
      [
       -103.35121,
       44.03753
      ],
      [
       -103.351751,
       44.037486
      ],
      [
       -103.352285,
       44.037409
      ],
      [
       -103.352807,
       44.037298
      ],
      [
       -103.353314,
       44.037155
      ],
      [
       -103.353802,
       44.036981
      ],
      [
       -103.354267,
       44.036777
      ],
      [
       -103.354705,
       44.036544
      ],
      [
       -103.355113,
       44.036284
      ],
      [
       -103.355489,
       44.036
      ],
      [
       -103.355829,
       44.035694
      ],
      [
       -103.35613,
       44.035367
      ],
      [
       -103.356391,
       44.035022
      ],
      [
       -103.35661,
       44.034663
      ],
      [
       -103.356784,
       44.03429
      ],
      [
       -103.356912,
       44.033909
      ],
      [
       -103.356994,
       44.033521
      ],
      [
       -103.357028,
       44.033129
      ],
      [
       -103.357015,
       44.032736
      ],
      [
       -103.356955,
       44.032346
      ],
      [
       -103.356848,
       44.031961
      ],
      [
       -103.356695,
       44.031584
      ],
      [
       -103.356496,
       44.031219
      ],
      [
       -103.356255,
       44.030867
      ],
      [
       -103.355972,
       44.030532
      ],
      [
       -103.355649,
       44.030215
      ],
      [
       -103.355289,
       44.029921
      ],
      [
       -103.354896,
       44.02965
      ],
      [
       -103.354471,
       44.029405
      ],
      [
       -103.354018,
       44.029187
      ],
      [
       -103.35354,
       44.028999
      ],
      [
       -103.353041,
       44.028841
      ],
      [
       -103.352526,
       44.028716
      ],
      [
       -103.351997,
       44.028623
      ],
      [
       -103.351459,
       44.028564
      ],
      [
       -103.350916,
       44.028539
      ],
      [
       -103.350372,
       44.028548
      ],
      [
       -103.349831,
       44.028592
      ],
      [
       -103.349297,
       44.028669
      ],
      [
       -103.348775,
       44.02878
      ],
      [
       -103.348268,
       44.028923
      ],
      [
       -103.347781,
       44.029097
      ],
      [
       -103.347316,
       44.029301
      ],
      [
       -103.346878,
       44.029534
      ],
      [
       -103.346469,
       44.029793
      ],
      [
       -103.346093,
       44.030077
      ],
      [
       -103.345754,
       44.030384
      ],
      [
       -103.345452,
       44.030711
      ],
      [
       -103.345191,
       44.031056
      ],
      [
       -103.344973,
       44.031415
      ],
      [
       -103.344799,
       44.031787
      ],
      [
       -103.34467,
       44.032169
      ],
      [
       -103.344588,
       44.032557
      ],
      [
       -103.344554,
       44.032949
      ]
     ]
    ]
   }
  },
  {
   "type": "Feature",
   "properties": {
    "FeatureCategory": "Evacuation Area",
    "Label": "Zone A \u2014 GO",
    "IsVisible": "Yes",
    "MapMethod": "Digitized-Other",
    "GeometryID": "GR-PY-0011",
    "IncidentName": "Green",
    "IRWINID": null,
    "CreateName": "TRAINEE, GISS",
    "CreateDate": "2026-07-31T16:40:00-06:00",
    "DeleteThis": "No",
    "Comments": "Immediate evacuation. Structures inside the Management Action Point trigger.",
    "GISAcres": 1744.5,
    "PolygonDateTime": null
   },
   "geometry": {
    "type": "Polygon",
    "coordinates": [
     [
      [
       -103.332711,
       44.022367
      ],
      [
       -103.33275,
       44.023545
      ],
      [
       -103.33293,
       44.024716
      ],
      [
       -103.333251,
       44.025871
      ],
      [
       -103.33371,
       44.027001
      ],
      [
       -103.334305,
       44.028098
      ],
      [
       -103.335029,
       44.029154
      ],
      [
       -103.335878,
       44.03016
      ],
      [
       -103.336846,
       44.031109
      ],
      [
       -103.337924,
       44.031993
      ],
      [
       -103.339106,
       44.032806
      ],
      [
       -103.340381,
       44.033542
      ],
      [
       -103.34174,
       44.034195
      ],
      [
       -103.343173,
       44.034759
      ],
      [
       -103.344668,
       44.035232
      ],
      [
       -103.346215,
       44.035609
      ],
      [
       -103.347802,
       44.035887
      ],
      [
       -103.349416,
       44.036064
      ],
      [
       -103.351046,
       44.036139
      ],
      [
       -103.352678,
       44.036111
      ],
      [
       -103.354301,
       44.03598
      ],
      [
       -103.355902,
       44.035748
      ],
      [
       -103.357468,
       44.035417
      ],
      [
       -103.358989,
       44.034988
      ],
      [
       -103.360452,
       44.034465
      ],
      [
       -103.361846,
       44.033852
      ],
      [
       -103.363161,
       44.033153
      ],
      [
       -103.364387,
       44.032375
      ],
      [
       -103.365513,
       44.031522
      ],
      [
       -103.366533,
       44.030602
      ],
      [
       -103.367437,
       44.029622
      ],
      [
       -103.368219,
       44.028588
      ],
      [
       -103.368874,
       44.027509
      ],
      [
       -103.369395,
       44.026392
      ],
      [
       -103.36978,
       44.025248
      ],
      [
       -103.370025,
       44.024083
      ],
      [
       -103.370129,
       44.022907
      ],
      [
       -103.37009,
       44.02173
      ],
      [
       -103.369909,
       44.020559
      ],
      [
       -103.369587,
       44.019404
      ],
      [
       -103.369127,
       44.018274
      ],
      [
       -103.368532,
       44.017177
      ],
      [
       -103.367807,
       44.016122
      ],
      [
       -103.366958,
       44.015116
      ],
      [
       -103.36599,
       44.014167
      ],
      [
       -103.364911,
       44.013283
      ],
      [
       -103.36373,
       44.012471
      ],
      [
       -103.362455,
       44.011735
      ],
      [
       -103.361096,
       44.011083
      ],
      [
       -103.359664,
       44.010518
      ],
      [
       -103.358169,
       44.010046
      ],
      [
       -103.356622,
       44.009669
      ],
      [
       -103.355036,
       44.009391
      ],
      [
       -103.353423,
       44.009214
      ],
      [
       -103.351794,
       44.009139
      ],
      [
       -103.350162,
       44.009167
      ],
      [
       -103.34854,
       44.009298
      ],
      [
       -103.34694,
       44.009529
      ],
      [
       -103.345374,
       44.009861
      ],
      [
       -103.343854,
       44.01029
      ],
      [
       -103.342392,
       44.010813
      ],
      [
       -103.340998,
       44.011425
      ],
      [
       -103.339683,
       44.012124
      ],
      [
       -103.338458,
       44.012902
      ],
      [
       -103.337331,
       44.013754
      ],
      [
       -103.336311,
       44.014674
      ],
      [
       -103.335407,
       44.015654
      ],
      [
       -103.334624,
       44.016688
      ],
      [
       -103.333969,
       44.017767
      ],
      [
       -103.333447,
       44.018883
      ],
      [
       -103.333061,
       44.020027
      ],
      [
       -103.332816,
       44.021192
      ],
      [
       -103.332711,
       44.022367
      ]
     ]
    ]
   }
  },
  {
   "type": "Feature",
   "properties": {
    "FeatureCategory": "Evacuation Area",
    "Label": "Zone B \u2014 SET",
    "IsVisible": "Yes",
    "MapMethod": "Digitized-Other",
    "GeometryID": "GR-PY-0012",
    "IncidentName": "Green",
    "IRWINID": null,
    "CreateName": "TRAINEE, GISS",
    "CreateDate": "2026-07-31T16:40:00-06:00",
    "DeleteThis": "No",
    "Comments": "Be ready. Sheriff will upgrade if the fire crosses the drainage.",
    "GISAcres": 3752.5,
    "PolygonDateTime": null
   },
   "geometry": {
    "type": "Polygon",
    "coordinates": [
     [
      [
       -103.328956,
       44.041742
      ],
      [
       -103.329012,
       44.043469
      ],
      [
       -103.329276,
       44.045186
      ],
      [
       -103.329747,
       44.04688
      ],
      [
       -103.330421,
       44.048538
      ],
      [
       -103.331293,
       44.050147
      ],
      [
       -103.332355,
       44.051695
      ],
      [
       -103.333601,
       44.053171
      ],
      [
       -103.335021,
       44.054562
      ],
      [
       -103.336603,
       44.055859
      ],
      [
       -103.338337,
       44.057052
      ],
      [
       -103.340207,
       44.058131
      ],
      [
       -103.342202,
       44.059088
      ],
      [
       -103.344304,
       44.059917
      ],
      [
       -103.346498,
       44.06061
      ],
      [
       -103.348768,
       44.061162
      ],
      [
       -103.351097,
       44.06157
      ],
      [
       -103.353465,
       44.06183
      ],
      [
       -103.355856,
       44.061939
      ],
      [
       -103.358251,
       44.061898
      ],
      [
       -103.360632,
       44.061707
      ],
      [
       -103.362981,
       44.061367
      ],
      [
       -103.36528,
       44.06088
      ],
      [
       -103.367511,
       44.060251
      ],
      [
       -103.369658,
       44.059484
      ],
      [
       -103.371703,
       44.058584
      ],
      [
       -103.373633,
       44.05756
      ],
      [
       -103.37543,
       44.056418
      ],
      [
       -103.377083,
       44.055168
      ],
      [
       -103.378579,
       44.053818
      ],
      [
       -103.379905,
       44.052379
      ],
      [
       -103.381053,
       44.050863
      ],
      [
       -103.382013,
       44.04928
      ],
      [
       -103.382778,
       44.047643
      ],
      [
       -103.383342,
       44.045964
      ],
      [
       -103.383701,
       44.044256
      ],
      [
       -103.383853,
       44.042532
      ],
      [
       -103.383795,
       44.040805
      ],
      [
       -103.383529,
       44.039088
      ],
      [
       -103.383057,
       44.037394
      ],
      [
       -103.382382,
       44.035736
      ],
      [
       -103.381509,
       44.034128
      ],
      [
       -103.380445,
       44.03258
      ],
      [
       -103.379198,
       44.031105
      ],
      [
       -103.377778,
       44.029714
      ],
      [
       -103.376196,
       44.028417
      ],
      [
       -103.374462,
       44.027225
      ],
      [
       -103.372592,
       44.026147
      ],
      [
       -103.370598,
       44.02519
      ],
      [
       -103.368497,
       44.024362
      ],
      [
       -103.366303,
       44.023669
      ],
      [
       -103.364035,
       44.023117
      ],
      [
       -103.361708,
       44.02271
      ],
      [
       -103.359341,
       44.02245
      ],
      [
       -103.356951,
       44.022341
      ],
      [
       -103.354558,
       44.022381
      ],
      [
       -103.352178,
       44.022573
      ],
      [
       -103.349831,
       44.022913
      ],
      [
       -103.347533,
       44.023399
      ],
      [
       -103.345303,
       44.024028
      ],
      [
       -103.343158,
       44.024795
      ],
      [
       -103.341113,
       44.025694
      ],
      [
       -103.339184,
       44.026718
      ],
      [
       -103.337387,
       44.027859
      ],
      [
       -103.335734,
       44.029109
      ],
      [
       -103.334238,
       44.030458
      ],
      [
       -103.332911,
       44.031896
      ],
      [
       -103.331762,
       44.033412
      ],
      [
       -103.330801,
       44.034994
      ],
      [
       -103.330035,
       44.036631
      ],
      [
       -103.32947,
       44.03831
      ],
      [
       -103.329109,
       44.040018
      ],
      [
       -103.328956,
       44.041742
      ]
     ]
    ]
   }
  },
  {
   "type": "Feature",
   "properties": {
    "FeatureCategory": "Evacuation Area",
    "Label": "Zone C \u2014 READY",
    "IsVisible": "Yes",
    "MapMethod": "Digitized-Other",
    "GeometryID": "GR-PY-0013",
    "IncidentName": "Green",
    "IRWINID": null,
    "CreateName": "TRAINEE, GISS",
    "CreateDate": "2026-07-31T16:40:00-06:00",
    "DeleteThis": "No",
    "Comments": "Stay informed.",
    "GISAcres": 5241.2,
    "PolygonDateTime": null
   },
   "geometry": {
    "type": "Polygon",
    "coordinates": [
     [
      [
       -103.328951,
       44.058569
      ],
      [
       -103.329017,
       44.06061
      ],
      [
       -103.32933,
       44.062639
      ],
      [
       -103.329886,
       44.064641
      ],
      [
       -103.330683,
       44.0666
      ],
      [
       -103.331713,
       44.068502
      ],
      [
       -103.33297,
       44.070332
      ],
      [
       -103.334443,
       44.072076
      ],
      [
       -103.336121,
       44.07372
      ],
      [
       -103.337992,
       44.075253
      ],
      [
       -103.340041,
       44.076663
      ],
      [
       -103.342253,
       44.077938
      ],
      [
       -103.34461,
       44.079069
      ],
      [
       -103.347096,
       44.080048
      ],
      [
       -103.34969,
       44.080867
      ],
      [
       -103.352374,
       44.08152
      ],
      [
       -103.355126,
       44.082002
      ],
      [
       -103.357926,
       44.082309
      ],
      [
       -103.360753,
       44.082438
      ],
      [
       -103.363585,
       44.08239
      ],
      [
       -103.3664,
       44.082164
      ],
      [
       -103.369177,
       44.081761
      ],
      [
       -103.371894,
       44.081186
      ],
      [
       -103.374532,
       44.080442
      ],
      [
       -103.377069,
       44.079535
      ],
      [
       -103.379488,
       44.078472
      ],
      [
       -103.381768,
       44.077261
      ],
      [
       -103.383893,
       44.075912
      ],
      [
       -103.385847,
       44.074434
      ],
      [
       -103.387615,
       44.072839
      ],
      [
       -103.389183,
       44.071138
      ],
      [
       -103.39054,
       44.069346
      ],
      [
       -103.391674,
       44.067475
      ],
      [
       -103.392578,
       44.065541
      ],
      [
       -103.393245,
       44.063556
      ],
      [
       -103.393669,
       44.061538
      ],
      [
       -103.393848,
       44.0595
      ],
      [
       -103.393779,
       44.057459
      ],
      [
       -103.393465,
       44.05543
      ],
      [
       -103.392906,
       44.053428
      ],
      [
       -103.392107,
       44.051469
      ],
      [
       -103.391075,
       44.049568
      ],
      [
       -103.389817,
       44.047739
      ],
      [
       -103.388343,
       44.045996
      ],
      [
       -103.386665,
       44.044352
      ],
      [
       -103.384793,
       44.04282
      ],
      [
       -103.382745,
       44.041411
      ],
      [
       -103.380533,
       44.040137
      ],
      [
       -103.378176,
       44.039006
      ],
      [
       -103.375692,
       44.038028
      ],
      [
       -103.373099,
       44.037209
      ],
      [
       -103.370417,
       44.036557
      ],
      [
       -103.367667,
       44.036076
      ],
      [
       -103.364869,
       44.035769
      ],
      [
       -103.362044,
       44.03564
      ],
      [
       -103.359215,
       44.035688
      ],
      [
       -103.356402,
       44.035914
      ],
      [
       -103.353627,
       44.036316
      ],
      [
       -103.350911,
       44.036891
      ],
      [
       -103.348275,
       44.037635
      ],
      [
       -103.345739,
       44.038541
      ],
      [
       -103.343322,
       44.039603
      ],
      [
       -103.341042,
       44.040813
      ],
      [
       -103.338917,
       44.042162
      ],
      [
       -103.336963,
       44.043639
      ],
      [
       -103.335195,
       44.045233
      ],
      [
       -103.333626,
       44.046933
      ],
      [
       -103.332269,
       44.048725
      ],
      [
       -103.331133,
       44.050595
      ],
      [
       -103.330227,
       44.052529
      ],
      [
       -103.329558,
       44.054513
      ],
      [
       -103.329132,
       44.056531
      ],
      [
       -103.328951,
       44.058569
      ]
     ]
    ]
   }
  },
  {
   "type": "Feature",
   "properties": {
    "FeatureCategory": "Repair Area",
    "Label": "Div Z Dozer Repair",
    "IsVisible": "Yes",
    "MapMethod": "GPS-Walked",
    "GeometryID": "GR-PY-0014",
    "IncidentName": "Green",
    "IRWINID": null,
    "CreateName": "TRAINEE, GISS",
    "CreateDate": "2026-07-31T16:40:00-06:00",
    "DeleteThis": "No",
    "Comments": "Waterbar, pull berm back, scatter slash. Two blades wide.",
    "GISAcres": 103.9,
    "PolygonDateTime": null
   },
   "geometry": {
    "type": "Polygon",
    "coordinates": [
     [
      [
       -103.340883,
       43.996519
      ],
      [
       -103.331743,
       43.996808
      ],
      [
       -103.324542,
       44.000573
      ],
      [
       -103.319761,
       44.005437
      ],
      [
       -103.323389,
       44.010642
      ],
      [
       -103.328333,
       44.015482
      ],
      [
       -103.328333,
       44.015482
      ],
      [
       -103.328427,
       44.015605
      ],
      [
       -103.328474,
       44.015742
      ],
      [
       -103.32847,
       44.015883
      ],
      [
       -103.328416,
       44.016018
      ],
      [
       -103.328315,
       44.016139
      ],
      [
       -103.328174,
       44.016237
      ],
      [
       -103.328003,
       44.016305
      ],
      [
       -103.327813,
       44.016339
      ],
      [
       -103.327618,
       44.016336
      ],
      [
       -103.32743,
       44.016297
      ],
      [
       -103.327263,
       44.016224
      ],
      [
       -103.327127,
       44.016122
      ],
      [
       -103.327127,
       44.016122
      ],
      [
       -103.322107,
       44.0112
      ],
      [
       -103.318269,
       44.005345
      ],
      [
       -103.32348,
       43.999813
      ],
      [
       -103.331253,
       43.995788
      ],
      [
       -103.340813,
       43.995441
      ],
      [
       -103.340813,
       43.995441
      ],
      [
       -103.341007,
       43.995452
      ],
      [
       -103.341191,
       43.9955
      ],
      [
       -103.341352,
       43.995581
      ],
      [
       -103.341478,
       43.995688
      ],
      [
       -103.341561,
       43.995816
      ],
      [
       -103.341595,
       43.995955
      ],
      [
       -103.341579,
       43.996095
      ],
      [
       -103.341513,
       43.996228
      ],
      [
       -103.341401,
       43.996343
      ],
      [
       -103.341252,
       43.996434
      ],
      [
       -103.341075,
       43.996495
      ],
      [
       -103.340883,
       43.996519
      ],
      [
       -103.340883,
       43.996519
      ]
     ]
    ]
   }
  },
  {
   "type": "Feature",
   "properties": {
    "FeatureCategory": "Repair Area",
    "Label": "Div Z Road Repair",
    "IsVisible": "Yes",
    "MapMethod": "GPS-Walked",
    "GeometryID": "GR-PY-0015",
    "IncidentName": "Green",
    "IRWINID": null,
    "CreateName": "TRAINEE, GISS",
    "CreateDate": "2026-07-31T16:40:00-06:00",
    "DeleteThis": "No",
    "Comments": "Blade back to template, reinstall drainage.",
    "GISAcres": 26.7,
    "PolygonDateTime": null
   },
   "geometry": {
    "type": "Polygon",
    "coordinates": [
     [
      [
       -103.328091,
       44.015553
      ],
      [
       -103.333674,
       44.019765
      ],
      [
       -103.339881,
       44.023328
      ],
      [
       -103.339881,
       44.023328
      ],
      [
       -103.339971,
       44.023396
      ],
      [
       -103.340034,
       44.023478
      ],
      [
       -103.340066,
       44.023569
      ],
      [
       -103.340064,
       44.023663
      ],
      [
       -103.340028,
       44.023754
      ],
      [
       -103.33996,
       44.023834
      ],
      [
       -103.339867,
       44.023899
      ],
      [
       -103.339753,
       44.023945
      ],
      [
       -103.339626,
       44.023968
      ],
      [
       -103.339496,
       44.023966
      ],
      [
       -103.339371,
       44.02394
      ],
      [
       -103.339259,
       44.023892
      ],
      [
       -103.339259,
       44.023892
      ],
      [
       -103.333,
       44.020297
      ],
      [
       -103.327369,
       44.016051
      ],
      [
       -103.327369,
       44.016051
      ],
      [
       -103.327292,
       44.015975
      ],
      [
       -103.327245,
       44.015887
      ],
      [
       -103.327231,
       44.015794
      ],
      [
       -103.327251,
       44.015701
      ],
      [
       -103.327304,
       44.015615
      ],
      [
       -103.327385,
       44.015542
      ],
      [
       -103.32749,
       44.015486
      ],
      [
       -103.327612,
       44.015452
      ],
      [
       -103.327741,
       44.015442
      ],
      [
       -103.32787,
       44.015456
      ],
      [
       -103.327989,
       44.015494
      ],
      [
       -103.328091,
       44.015553
      ],
      [
       -103.328091,
       44.015553
      ]
     ]
    ]
   }
  }
 ]
}
