{
 "type": "FeatureCollection",
 "name": "roads",
 "crs": {
  "type": "name",
  "properties": {
   "name": "urn:ogc:def:crs:OGC:1.3:CRS84"
  }
 },
 "_warning": "TRAINING EXERCISE \u2014 NOT AN ACTUAL INCIDENT. Fabricated data. Never publish, never sync to NIFS or NIFC AGOL.",
 "_fire": "Green",
 "_generated_by": "scripts/make_fires.py",
 "features": [
  {
   "type": "Feature",
   "properties": {
    "NAME": "Storm Mountain Rd",
    "LINE_STATUS": ""
   },
   "geometry": {
    "type": "LineString",
    "coordinates": [
     [
      -103.35703,
      44.05774
     ],
     [
      -103.355156,
      44.05124
     ],
     [
      -103.351413,
      44.04474
     ],
     [
      -103.348918,
      44.038889
     ],
     [
      -103.349918,
      44.033039
     ],
     [
      -103.350793,
      44.028489
     ],
     [
      -103.35516,
      44.02589
     ]
    ]
   }
  },
  {
   "type": "Feature",
   "properties": {
    "NAME": "South Fork Rd",
    "LINE_STATUS": ""
   },
   "geometry": {
    "type": "LineString",
    "coordinates": [
     [
      -103.32773,
      44.015802
     ],
     [
      -103.333337,
      44.020031
     ],
     [
      -103.33957,
      44.02361
     ]
    ]
   }
  },
  {
   "type": "Feature",
   "properties": {
    "NAME": "FS 231",
    "LINE_STATUS": ""
   },
   "geometry": {
    "type": "LineString",
    "coordinates": [
     [
      -103.331498,
      43.996298
     ],
     [
      -103.324011,
      44.000193
     ],
     [
      -103.319015,
      44.005391
     ]
    ]
   }
  },
  {
   "type": "Feature",
   "properties": {
    "NAME": "US-16",
    "LINE_STATUS": ""
   },
   "geometry": {
    "type": "LineString",
    "coordinates": [
     [
      -103.368892,
      44.065535
     ],
     [
      -103.35703,
      44.05774
     ],
     [
      -103.338934,
      44.05124
     ]
    ]
   }
  }
 ]
}
