{
 "type": "FeatureCollection",
 "name": "EventLine",
 "crs": {
  "type": "name",
  "properties": {
   "name": "urn:ogc:def:crs:OGC:1.3:CRS84"
  }
 },
 "_warning": "TRAINING EXERCISE \u2014 NOT AN ACTUAL INCIDENT. Fabricated data. Never publish, never sync to NIFS or NIFC AGOL.",
 "_fire": "Blue",
 "_generated_by": "scripts/make_fires.py",
 "features": [
  {
   "type": "Feature",
   "properties": {
    "FeatureCategory": "Completed Dozer Line",
    "Label": "Div Z Dozer",
    "IsVisible": "Yes",
    "MapMethod": "GPS-Driven",
    "GeometryID": "BL-LN-0001",
    "IncidentName": "Blue",
    "IRWINID": null,
    "CreateName": "TRAINEE, GISS",
    "CreateDate": "2026-08-01T03:50:00-06:00",
    "DeleteThis": "No",
    "Comments": "Completed 0730 op 2. Two blades.",
    "LengthMiles": 2.819
   },
   "geometry": {
    "type": "LineString",
    "coordinates": [
     [
      -103.448295,
      43.99287
     ],
     [
      -103.439439,
      43.987066
     ],
     [
      -103.427799,
      43.985713
     ],
     [
      -103.416784,
      43.987161
     ],
     [
      -103.413246,
      43.994595
     ],
     [
      -103.411649,
      44.002255
     ]
    ]
   }
  },
  {
   "type": "Feature",
   "properties": {
    "FeatureCategory": "Completed Hand Line",
    "Label": "Div A Hand",
    "IsVisible": "Yes",
    "MapMethod": "GPS-Walked",
    "GeometryID": "BL-LN-0002",
    "IncidentName": "Blue",
    "IRWINID": null,
    "CreateName": "TRAINEE, GISS",
    "CreateDate": "2026-08-01T03:50:00-06:00",
    "DeleteThis": "No",
    "Comments": "Completed op 2. Type 1 crew.",
    "LengthMiles": 1.262
   },
   "geometry": {
    "type": "LineString",
    "coordinates": [
     [
      -103.448295,
      43.99287
     ],
     [
      -103.452928,
      44.000911
     ],
     [
      -103.453184,
      44.010488
     ]
    ]
   }
  },
  {
   "type": "Feature",
   "properties": {
    "FeatureCategory": "Completed Road as Line",
    "Label": "Div Z Road",
    "IsVisible": "Yes",
    "MapMethod": "GPS-Driven",
    "GeometryID": "BL-LN-0003",
    "IncidentName": "Blue",
    "IRWINID": null,
    "CreateName": "TRAINEE, GISS",
    "CreateDate": "2026-08-01T03:50:00-06:00",
    "DeleteThis": "No",
    "Comments": "Existing road brushed and used as line.",
    "LengthMiles": 1.023
   },
   "geometry": {
    "type": "LineString",
    "coordinates": [
     [
      -103.411649,
      44.002255
     ],
     [
      -103.41143,
      44.009733
     ],
     [
      -103.41259,
      44.017029
     ]
    ]
   }
  },
  {
   "type": "Feature",
   "properties": {
    "FeatureCategory": "Proposed Dozer Line",
    "Label": "Div A Proposed Dozer",
    "IsVisible": "Yes",
    "MapMethod": "Digitized-Topo",
    "GeometryID": "BL-LN-0004",
    "IncidentName": "Blue",
    "IRWINID": null,
    "CreateName": "TRAINEE, GISS",
    "CreateDate": "2026-08-01T03:50:00-06:00",
    "DeleteThis": "No",
    "Comments": "Op 3 objective. Tie DP 4 to the north contingency.",
    "LengthMiles": 1.562
   },
   "geometry": {
    "type": "LineString",
    "coordinates": [
     [
      -103.41259,
      44.017029
     ],
     [
      -103.415692,
      44.024551
     ],
     [
      -103.4218,
      44.030715
     ],
     [
      -103.430601,
      44.034123
     ]
    ]
   }
  },
  {
   "type": "Feature",
   "properties": {
    "FeatureCategory": "Proposed Hand Line",
    "Label": "North Contingency Hand",
    "IsVisible": "Yes",
    "MapMethod": "Digitized-Topo",
    "GeometryID": "BL-LN-0005",
    "IncidentName": "Blue",
    "IRWINID": null,
    "CreateName": "TRAINEE, GISS",
    "CreateDate": "2026-08-01T03:50:00-06:00",
    "DeleteThis": "No",
    "Comments": "Contingency only. Do not construct without Ops approval.",
    "LengthMiles": 1.515
   },
   "geometry": {
    "type": "LineString",
    "coordinates": [
     [
      -103.430601,
      44.034123
     ],
     [
      -103.440806,
      44.033261
     ],
     [
      -103.449005,
      44.029779
     ],
     [
      -103.454634,
      44.023272
     ]
    ]
   }
  },
  {
   "type": "Feature",
   "properties": {
    "FeatureCategory": "Proposed Road as Line",
    "Label": "North Contingency Road",
    "IsVisible": "Yes",
    "MapMethod": "Digitized-Topo",
    "GeometryID": "BL-LN-0006",
    "IncidentName": "Blue",
    "IRWINID": null,
    "CreateName": "TRAINEE, GISS",
    "CreateDate": "2026-08-01T03:50:00-06:00",
    "DeleteThis": "No",
    "Comments": "Contingency.",
    "LengthMiles": 1.282
   },
   "geometry": {
    "type": "LineString",
    "coordinates": [
     [
      -103.454634,
      44.023272
     ],
     [
      -103.459384,
      44.014959
     ],
     [
      -103.459127,
      44.005381
     ]
    ]
   }
  },
  {
   "type": "Feature",
   "properties": {
    "FeatureCategory": "Uncontrolled Fire Edge",
    "Label": "Active Edge",
    "IsVisible": "Yes",
    "MapMethod": "Infrared Image",
    "GeometryID": "BL-LN-0007",
    "IncidentName": "Blue",
    "IRWINID": null,
    "CreateName": "TRAINEE, GISS",
    "CreateDate": "2026-08-01T03:50:00-06:00",
    "DeleteThis": "No",
    "Comments": "Active at 0214 MDT 7/28.",
    "LengthMiles": 2.531
   },
   "geometry": {
    "type": "LineString",
    "coordinates": [
     [
      -103.448739,
      44.009631
     ],
     [
      -103.445364,
      44.017764
     ],
     [
      -103.439734,
      44.024271
     ],
     [
      -103.431221,
      44.026352
     ],
     [
      -103.422736,
      44.024345
     ],
     [
      -103.416628,
      44.01818
     ]
    ]
   }
  },
  {
   "type": "Feature",
   "properties": {
    "FeatureCategory": "Contained Fire Edge",
    "Label": "Held Edge",
    "IsVisible": "Yes",
    "MapMethod": "Infrared Image",
    "GeometryID": "BL-LN-0008",
    "IncidentName": "Blue",
    "IRWINID": null,
    "CreateName": "TRAINEE, GISS",
    "CreateDate": "2026-08-01T03:50:00-06:00",
    "DeleteThis": "No",
    "Comments": "Held at 0214 MDT 7/28.",
    "LengthMiles": 4.653
   },
   "geometry": {
    "type": "LineString",
    "coordinates": [
     [
      -103.416628,
      44.01818
     ],
     [
      -103.415468,
      44.010884
     ],
     [
      -103.415686,
      44.003406
     ],
     [
      -103.416876,
      43.996041
     ],
     [
      -103.419193,
      43.989488
     ],
     [
      -103.424638,
      43.986369
     ],
     [
      -103.435465,
      43.98831
     ],
     [
      -103.444571,
      43.993119
     ],
     [
      -103.449048,
      44.00046
     ],
     [
      -103.448739,
      44.009631
     ]
    ]
   }
  },
  {
   "type": "Feature",
   "properties": {
    "FeatureCategory": "Access Route",
    "Label": "Storm Mountain Rd",
    "IsVisible": "Yes",
    "MapMethod": "GPS-Driven",
    "GeometryID": "BL-LN-0009",
    "IncidentName": "Blue",
    "IRWINID": null,
    "CreateName": "TRAINEE, GISS",
    "CreateDate": "2026-08-01T03:50:00-06:00",
    "DeleteThis": "No",
    "Comments": "1.7 mi of winding FS road. Single lane with turnouts. THE access constraint \u2014 brief every resource on it.",
    "LengthMiles": 3.032
   },
   "geometry": {
    "type": "LineString",
    "coordinates": [
     [
      -103.385653,
      44.059259
     ],
     [
      -103.392099,
      44.052163
     ],
     [
      -103.396853,
      44.043849
     ],
     [
      -103.401922,
      44.036935
     ],
     [
      -103.410148,
      44.032296
     ],
     [
      -103.416633,
      44.028752
     ],
     [
      -103.423834,
      44.029246
     ]
    ]
   }
  },
  {
   "type": "Feature",
   "properties": {
    "FeatureCategory": "Access Route",
    "Label": "South Access",
    "IsVisible": "Yes",
    "MapMethod": "GPS-Driven",
    "GeometryID": "BL-LN-0010",
    "IncidentName": "Blue",
    "IRWINID": null,
    "CreateName": "TRAINEE, GISS",
    "CreateDate": "2026-08-01T03:50:00-06:00",
    "DeleteThis": "No",
    "Comments": "Longer, wider, slower.",
    "LengthMiles": 4.685
   },
   "geometry": {
    "type": "LineString",
    "coordinates": [
     [
      -103.385653,
      44.059259
     ],
     [
      -103.375808,
      44.042773
     ],
     [
      -103.375428,
      44.028404
     ],
     [
      -103.385072,
      44.016563
     ],
     [
      -103.398408,
      44.008562
     ],
     [
      -103.409051,
      44.003317
     ]
    ]
   }
  },
  {
   "type": "Feature",
   "properties": {
    "FeatureCategory": "Escape Route",
    "Label": "ER North",
    "IsVisible": "Yes",
    "MapMethod": "GPS-Walked",
    "GeometryID": "BL-LN-0011",
    "IncidentName": "Blue",
    "IRWINID": null,
    "CreateName": "TRAINEE, GISS",
    "CreateDate": "2026-08-01T03:50:00-06:00",
    "DeleteThis": "No",
    "Comments": "DP 4 to the north ridge.",
    "LengthMiles": 1.213
   },
   "geometry": {
    "type": "LineString",
    "coordinates": [
     [
      -103.423834,
      44.029246
     ],
     [
      -103.427661,
      44.037873
     ],
     [
      -103.429548,
      44.046275
     ]
    ]
   }
  },
  {
   "type": "Feature",
   "properties": {
    "FeatureCategory": "Escape Route",
    "Label": "ER South",
    "IsVisible": "Yes",
    "MapMethod": "GPS-Walked",
    "GeometryID": "BL-LN-0012",
    "IncidentName": "Blue",
    "IRWINID": null,
    "CreateName": "TRAINEE, GISS",
    "CreateDate": "2026-08-01T03:50:00-06:00",
    "DeleteThis": "No",
    "Comments": "DP 5 to SZ-2.",
    "LengthMiles": 1.081
   },
   "geometry": {
    "type": "LineString",
    "coordinates": [
     [
      -103.411649,
      44.002255
     ],
     [
      -103.400725,
      44.002009
     ],
     [
      -103.39027,
      44.003864
     ]
    ]
   }
  },
  {
   "type": "Feature",
   "properties": {
    "FeatureCategory": "Division Break",
    "Label": "Div A / Div Z",
    "IsVisible": "Yes",
    "MapMethod": "Digitized-Topo",
    "GeometryID": "BL-LN-0013",
    "IncidentName": "Blue",
    "IRWINID": null,
    "CreateName": "TRAINEE, GISS",
    "CreateDate": "2026-08-01T03:50:00-06:00",
    "DeleteThis": "No",
    "Comments": "",
    "LengthMiles": 2.74
   },
   "geometry": {
    "type": "LineString",
    "coordinates": [
     [
      -103.452738,
      43.993727
     ],
     [
      -103.440973,
      43.998158
     ],
     [
      -103.42952,
      44.00399
     ],
     [
      -103.418855,
      44.01039
     ],
     [
      -103.408639,
      44.017116
     ]
    ]
   }
  },
  {
   "type": "Feature",
   "properties": {
    "FeatureCategory": "Division Break",
    "Label": "Div Z / Div M",
    "IsVisible": "Yes",
    "MapMethod": "Digitized-Topo",
    "GeometryID": "BL-LN-0014",
    "IncidentName": "Blue",
    "IRWINID": null,
    "CreateName": "TRAINEE, GISS",
    "CreateDate": "2026-08-01T03:50:00-06:00",
    "DeleteThis": "No",
    "Comments": "",
    "LengthMiles": 1.447
   },
   "geometry": {
    "type": "LineString",
    "coordinates": [
     [
      -103.401604,
      43.993242
     ],
     [
      -103.413683,
      44.000786
     ],
     [
      -103.422516,
      44.007746
     ]
    ]
   }
  },
  {
   "type": "Feature",
   "properties": {
    "FeatureCategory": "Branch Break",
    "Label": "Branch I / Branch II",
    "IsVisible": "Yes",
    "MapMethod": "Digitized-Topo",
    "GeometryID": "BL-LN-0015",
    "IncidentName": "Blue",
    "IRWINID": null,
    "CreateName": "TRAINEE, GISS",
    "CreateDate": "2026-08-01T03:50:00-06:00",
    "DeleteThis": "No",
    "Comments": "",
    "LengthMiles": 2.327
   },
   "geometry": {
    "type": "LineString",
    "coordinates": [
     [
      -103.467074,
      44.002894
     ],
     [
      -103.453626,
      44.016677
     ],
     [
      -103.440178,
      44.03046
     ]
    ]
   }
  },
  {
   "type": "Feature",
   "properties": {
    "FeatureCategory": "Pump and Hose Lay",
    "Label": "Draft 1 Lay",
    "IsVisible": "Yes",
    "MapMethod": "GPS-Walked",
    "GeometryID": "BL-LN-0016",
    "IncidentName": "Blue",
    "IRWINID": null,
    "CreateName": "TRAINEE, GISS",
    "CreateDate": "2026-08-01T03:50:00-06:00",
    "DeleteThis": "No",
    "Comments": "From Draft 1 to the structure group. Two portable pumps.",
    "LengthMiles": 1.152
   },
   "geometry": {
    "type": "LineString",
    "coordinates": [
     [
      -103.408752,
      44.042091
     ],
     [
      -103.413257,
      44.036885
     ],
     [
      -103.416923,
      44.031309
     ],
     [
      -103.419638,
      44.027396
     ]
    ]
   }
  },
  {
   "type": "Feature",
   "properties": {
    "FeatureCategory": "Fire Spread Direction",
    "Label": "Predicted Spread",
    "IsVisible": "Yes",
    "MapMethod": "Digitized-Other",
    "GeometryID": "BL-LN-0017",
    "IncidentName": "Blue",
    "IRWINID": null,
    "CreateName": "TRAINEE, GISS",
    "CreateDate": "2026-08-01T03:50:00-06:00",
    "DeleteThis": "No",
    "Comments": "Predicted op 3 spread, northeast.",
    "LengthMiles": 1.598
   },
   "geometry": {
    "type": "LineString",
    "coordinates": [
     [
      -103.432775,
      44.001639
     ],
     [
      -103.432028,
      44.015193
     ],
     [
      -103.432284,
      44.024771
     ]
    ]
   }
  },
  {
   "type": "Feature",
   "properties": {
    "FeatureCategory": "Completed Hand Line",
    "Label": "H/L Coon Hollow",
    "IsVisible": "Yes",
    "MapMethod": "Digitized-Other",
    "GeometryID": "BL-TR-0001",
    "IncidentName": "Blue",
    "IRWINID": null,
    "CreateName": "TRAINEE, GISS",
    "CreateDate": "2026-08-01T03:50:00-06:00",
    "DeleteThis": "No",
    "Comments": "Derived from trail 'Coon Hollow' running within 75 m of the fire edge. Confirm with Ops before publishing.",
    "LengthMiles": 0.048,
    "DerivedFrom": "trail"
   },
   "geometry": {
    "type": "LineString",
    "coordinates": [
     [
      -103.422736,
      44.024345
     ],
     [
      -103.422416,
      44.024354
     ],
     [
      -103.422096,
      44.024364
     ],
     [
      -103.421775,
      44.024373
     ]
    ]
   }
  },
  {
   "type": "Feature",
   "properties": {
    "FeatureCategory": "Completed Road as Line",
    "Label": "Road FS 231",
    "IsVisible": "Yes",
    "MapMethod": "Digitized-Other",
    "GeometryID": "BL-RO-0001",
    "IncidentName": "Blue",
    "IRWINID": null,
    "CreateName": "TRAINEE, GISS",
    "CreateDate": "2026-08-01T03:50:00-06:00",
    "DeleteThis": "No",
    "Comments": "Derived from road 'FS 231' running within 60 m of the fire edge. Confirm with Ops before publishing.",
    "LengthMiles": 0.096,
    "DerivedFrom": "road"
   },
   "geometry": {
    "type": "LineString",
    "coordinates": [
     [
      -103.425596,
      43.986003
     ],
     [
      -103.425281,
      43.986044
     ],
     [
      -103.424967,
      43.986085
     ],
     [
      -103.424652,
      43.986127
     ],
     [
      -103.424337,
      43.986168
     ],
     [
      -103.424022,
      43.98621
     ],
     [
      -103.423708,
      43.986251
     ]
    ]
   }
  },
  {
   "type": "Feature",
   "properties": {
    "FeatureCategory": "Contained Fire Edge",
    "Label": "Contained",
    "IsVisible": "Yes",
    "MapMethod": "Infrared Image",
    "GeometryID": "BL-ED-0001",
    "IncidentName": "Blue",
    "IRWINID": null,
    "CreateName": "TRAINEE, GISS",
    "CreateDate": "2026-08-01T03:50:00-06:00",
    "DeleteThis": "No",
    "Comments": "Derived from perimeter and held line. OPS MUST CONFIRM before this is published.",
    "LengthMiles": 0.095,
    "DerivedFrom": "perimeter"
   },
   "geometry": {
    "type": "LineString",
    "coordinates": [
     [
      -103.424638,
      43.986369
     ],
     [
      -103.424947,
      43.986424
     ],
     [
      -103.425257,
      43.98648
     ],
     [
      -103.425566,
      43.986535
     ],
     [
      -103.425875,
      43.986591
     ],
     [
      -103.426185,
      43.986646
     ],
     [
      -103.426494,
      43.986702
     ]
    ]
   }
  },
  {
   "type": "Feature",
   "properties": {
    "FeatureCategory": "Contained Fire Edge",
    "Label": "Contained",
    "IsVisible": "Yes",
    "MapMethod": "Infrared Image",
    "GeometryID": "BL-ED-0002",
    "IncidentName": "Blue",
    "IRWINID": null,
    "CreateName": "TRAINEE, GISS",
    "CreateDate": "2026-08-01T03:50:00-06:00",
    "DeleteThis": "No",
    "Comments": "Derived from perimeter and held line. OPS MUST CONFIRM before this is published.",
    "LengthMiles": 0.111,
    "DerivedFrom": "perimeter"
   },
   "geometry": {
    "type": "LineString",
    "coordinates": [
     [
      -103.423645,
      44.02456
     ],
     [
      -103.423342,
      44.024488
     ],
     [
      -103.423039,
      44.024417
     ],
     [
      -103.422736,
      44.024345
     ],
     [
      -103.422551,
      44.024158
     ],
     [
      -103.422366,
      44.023971
     ],
     [
      -103.422181,
      44.023785
     ],
     [
      -103.421996,
      44.023598
     ]
    ]
   }
  },
  {
   "type": "Feature",
   "properties": {
    "FeatureCategory": "Contained Fire Edge",
    "Label": "Contained",
    "IsVisible": "Yes",
    "MapMethod": "Infrared Image",
    "GeometryID": "BL-ED-0003",
    "IncidentName": "Blue",
    "IRWINID": null,
    "CreateName": "TRAINEE, GISS",
    "CreateDate": "2026-08-01T03:50:00-06:00",
    "DeleteThis": "No",
    "Comments": "Derived from perimeter and held line. OPS MUST CONFIRM before this is published.",
    "LengthMiles": 0.079,
    "DerivedFrom": "perimeter"
   },
   "geometry": {
    "type": "LineString",
    "coordinates": [
     [
      -103.423401,
      43.987078
     ],
     [
      -103.423648,
      43.986936
     ],
     [
      -103.423896,
      43.986794
     ],
     [
      -103.424143,
      43.986653
     ],
     [
      -103.424391,
      43.986511
     ],
     [
      -103.424638,
      43.986369
     ]
    ]
   }
  },
  {
   "type": "Feature",
   "properties": {
    "FeatureCategory": "Uncontrolled Fire Edge",
    "Label": "Uncontrolled",
    "IsVisible": "Yes",
    "MapMethod": "Infrared Image",
    "GeometryID": "BL-ED-0004",
    "IncidentName": "Blue",
    "IRWINID": null,
    "CreateName": "TRAINEE, GISS",
    "CreateDate": "2026-08-01T03:50:00-06:00",
    "DeleteThis": "No",
    "Comments": "Derived from perimeter and held line. OPS MUST CONFIRM before this is published.",
    "LengthMiles": 4.138,
    "DerivedFrom": "perimeter"
   },
   "geometry": {
    "type": "LineString",
    "coordinates": [
     [
      -103.426803,
      43.986757
     ],
     [
      -103.427113,
      43.986813
     ],
     [
      -103.427422,
      43.986868
     ],
     [
      -103.427731,
      43.986924
     ],
     [
      -103.428041,
      43.986979
     ],
     [
      -103.42835,
      43.987035
     ],
     [
      -103.428659,
      43.98709
     ],
     [
      -103.428969,
      43.987146
     ],
     [
      -103.429278,
      43.987201
     ],
     [
      -103.429587,
      43.987256
     ],
     [
      -103.429897,
      43.987312
     ],
     [
      -103.430206,
      43.987367
     ],
     [
      -103.430515,
      43.987423
     ],
     [
      -103.430825,
      43.987478
     ],
     [
      -103.431134,
      43.987534
     ],
     [
      -103.431443,
      43.987589
     ],
     [
      -103.431753,
      43.987645
     ],
     [
      -103.432062,
      43.9877
     ],
     [
      -103.432371,
      43.987756
     ],
     [
      -103.432681,
      43.987811
     ],
     [
      -103.43299,
      43.987866
     ],
     [
      -103.4333,
      43.987922
     ],
     [
      -103.433609,
      43.987977
     ],
     [
      -103.433918,
      43.988033
     ],
     [
      -103.434228,
      43.988088
     ],
     [
      -103.434537,
      43.988144
     ],
     [
      -103.434846,
      43.988199
     ],
     [
      -103.435156,
      43.988255
     ],
     [
      -103.435465,
      43.98831
     ],
     [
      -103.435718,
      43.988444
     ],
     [
      -103.435971,
      43.988577
     ],
     [
      -103.436224,
      43.988711
     ],
     [
      -103.436477,
      43.988844
     ],
     [
      -103.43673,
      43.988978
     ],
     [
      -103.436983,
      43.989112
     ],
     [
      -103.437235,
      43.989245
     ],
     [
      -103.437488,
      43.989379
     ],
     [
      -103.437741,
      43.989512
     ],
     [
      -103.437994,
      43.989646
     ],
     [
      -103.438247,
      43.989779
     ],
     [
      -103.4385,
      43.989913
     ],
     [
      -103.438753,
      43.990047
     ],
     [
      -103.439006,
      43.99018
     ],
     [
      -103.439259,
      43.990314
     ],
     [
      -103.439512,
      43.990447
     ],
     [
      -103.439765,
      43.990581
     ],
     [
      -103.440018,
      43.990715
     ],
     [
      -103.440271,
      43.990848
     ],
     [
      -103.440524,
      43.990982
     ],
     [
      -103.440777,
      43.991115
     ],
     [
      -103.44103,
      43.991249
     ],
     [
      -103.441283,
      43.991382
     ],
     [
      -103.441536,
      43.991516
     ],
     [
      -103.441788,
      43.99165
     ],
     [
      -103.442041,
      43.991783
     ],
     [
      -103.442294,
      43.991917
     ],
     [
      -103.442547,
      43.99205
     ],
     [
      -103.4428,
      43.992184
     ],
     [
      -103.443053,
      43.992318
     ],
     [
      -103.443306,
      43.992451
     ],
     [
      -103.443559,
      43.992585
     ],
     [
      -103.443812,
      43.992718
     ],
     [
      -103.444065,
      43.992852
     ],
     [
      -103.444318,
      43.992985
     ],
     [
      -103.444571,
      43.993119
     ],
     [
      -103.444699,
      43.993329
     ],
     [
      -103.444827,
      43.993538
     ],
     [
      -103.444955,
      43.993748
     ],
     [
      -103.445083,
      43.993958
     ],
     [
      -103.445211,
      43.994168
     ],
     [
      -103.445338,
      43.994377
     ],
     [
      -103.445466,
      43.994587
     ],
     [
      -103.445594,
      43.994797
     ],
     [
      -103.445722,
      43.995007
     ],
     [
      -103.44585,
      43.995216
     ],
     [
      -103.445978,
      43.995426
     ],
     [
      -103.446106,
      43.995636
     ],
     [
      -103.446234,
      43.995846
     ],
     [
      -103.446362,
      43.996055
     ],
     [
      -103.44649,
      43.996265
     ],
     [
      -103.446617,
      43.996475
     ],
     [
      -103.446745,
      43.996685
     ],
     [
      -103.446873,
      43.996894
     ],
     [
      -103.447001,
      43.997104
     ],
     [
      -103.447129,
      43.997314
     ],
     [
      -103.447257,
      43.997524
     ],
     [
      -103.447385,
      43.997733
     ],
     [
      -103.447513,
      43.997943
     ],
     [
      -103.447641,
      43.998153
     ],
     [
      -103.447769,
      43.998363
     ],
     [
      -103.447897,
      43.998572
     ],
     [
      -103.448025,
      43.998782
     ],
     [
      -103.448153,
      43.998992
     ],
     [
      -103.44828,
      43.999202
     ],
     [
      -103.448408,
      43.999411
     ],
     [
      -103.448536,
      43.999621
     ],
     [
      -103.448664,
      43.999831
     ],
     [
      -103.448792,
      44.000041
     ],
     [
      -103.44892,
      44.00025
     ],
     [
      -103.449048,
      44.00046
     ],
     [
      -103.44904,
      44.000689
     ],
     [
      -103.449033,
      44.000919
     ],
     [
      -103.449025,
      44.001148
     ],
     [
      -103.449017,
      44.001377
     ],
     [
      -103.449009,
      44.001606
     ],
     [
      -103.449002,
      44.001836
     ],
     [
      -103.448994,
      44.002065
     ],
     [
      -103.448986,
      44.002294
     ],
     [
      -103.448978,
      44.002523
     ],
     [
      -103.448971,
      44.002753
     ],
     [
      -103.448963,
      44.002982
     ],
     [
      -103.448955,
      44.003211
     ],
     [
      -103.448948,
      44.003441
     ],
     [
      -103.44894,
      44.00367
     ],
     [
      -103.448932,
      44.003899
     ],
     [
      -103.448924,
      44.004128
     ],
     [
      -103.448917,
      44.004358
     ],
     [
      -103.448909,
      44.004587
     ],
     [
      -103.448901,
      44.004816
     ],
     [
      -103.448894,
      44.005046
     ],
     [
      -103.448886,
      44.005275
     ],
     [
      -103.448878,
      44.005504
     ],
     [
      -103.44887,
      44.005733
     ],
     [
      -103.448863,
      44.005963
     ],
     [
      -103.448855,
      44.006192
     ],
     [
      -103.448847,
      44.006421
     ],
     [
      -103.448839,
      44.00665
     ],
     [
      -103.448832,
      44.00688
     ],
     [
      -103.448824,
      44.007109
     ],
     [
      -103.448816,
      44.007338
     ],
     [
      -103.448809,
      44.007568
     ],
     [
      -103.448801,
      44.007797
     ],
     [
      -103.448793,
      44.008026
     ],
     [
      -103.448785,
      44.008255
     ],
     [
      -103.448778,
      44.008485
     ],
     [
      -103.44877,
      44.008714
     ],
     [
      -103.448762,
      44.008943
     ],
     [
      -103.448754,
      44.009172
     ],
     [
      -103.448747,
      44.009402
     ],
     [
      -103.448739,
      44.009631
     ],
     [
      -103.448648,
      44.009851
     ],
     [
      -103.448557,
      44.010071
     ],
     [
      -103.448465,
      44.01029
     ],
     [
      -103.448374,
      44.01051
     ],
     [
      -103.448283,
      44.01073
     ],
     [
      -103.448192,
      44.01095
     ],
     [
      -103.448101,
      44.01117
     ],
     [
      -103.448009,
      44.011389
     ],
     [
      -103.447918,
      44.011609
     ],
     [
      -103.447827,
      44.011829
     ],
     [
      -103.447736,
      44.012049
     ],
     [
      -103.447645,
      44.012269
     ],
     [
      -103.447553,
      44.012489
     ],
     [
      -103.447462,
      44.012708
     ],
     [
      -103.447371,
      44.012928
     ],
     [
      -103.44728,
      44.013148
     ],
     [
      -103.447188,
      44.013368
     ],
     [
      -103.447097,
      44.013588
     ],
     [
      -103.447006,
      44.013807
     ],
     [
      -103.446915,
      44.014027
     ],
     [
      -103.446824,
      44.014247
     ],
     [
      -103.446732,
      44.014467
     ],
     [
      -103.446641,
      44.014687
     ],
     [
      -103.44655,
      44.014906
     ],
     [
      -103.446459,
      44.015126
     ],
     [
      -103.446367,
      44.015346
     ],
     [
      -103.446276,
      44.015566
     ],
     [
      -103.446185,
      44.015786
     ],
     [
      -103.446094,
      44.016006
     ],
     [
      -103.446003,
      44.016225
     ],
     [
      -103.445911,
      44.016445
     ],
     [
      -103.44582,
      44.016665
     ],
     [
      -103.445729,
      44.016885
     ],
     [
      -103.445638,
      44.017105
     ],
     [
      -103.445546,
      44.017324
     ],
     [
      -103.445455,
      44.017544
     ],
     [
      -103.445364,
      44.017764
     ],
     [
      -103.445198,
      44.017955
     ],
     [
      -103.445033,
      44.018147
     ],
     [
      -103.444867,
      44.018338
     ],
     [
      -103.444702,
      44.01853
     ],
     [
      -103.444536,
      44.018721
     ],
     [
      -103.444371,
      44.018912
     ],
     [
      -103.444205,
      44.019104
     ],
     [
      -103.444039,
      44.019295
     ],
     [
      -103.443874,
      44.019486
     ],
     [
      -103.443708,
      44.019678
     ],
     [
      -103.443543,
      44.019869
     ],
     [
      -103.443377,
      44.020061
     ],
     [
      -103.443211,
      44.020252
     ],
     [
      -103.443046,
      44.020443
     ],
     [
      -103.44288,
      44.020635
     ],
     [
      -103.442715,
      44.020826
     ],
     [
      -103.442549,
      44.021018
     ],
     [
      -103.442384,
      44.021209
     ],
     [
      -103.442218,
      44.0214
     ],
     [
      -103.442052,
      44.021592
     ],
     [
      -103.441887,
      44.021783
     ],
     [
      -103.441721,
      44.021974
     ],
     [
      -103.441556,
      44.022166
     ],
     [
      -103.44139,
      44.022357
     ],
     [
      -103.441224,
      44.022549
     ],
     [
      -103.441059,
      44.02274
     ],
     [
      -103.440893,
      44.022931
     ],
     [
      -103.440728,
      44.023123
     ],
     [
      -103.440562,
      44.023314
     ],
     [
      -103.440396,
      44.023505
     ],
     [
      -103.440231,
      44.023697
     ],
     [
      -103.440065,
      44.023888
     ],
     [
      -103.4399,
      44.02408
     ],
     [
      -103.439734,
      44.024271
     ],
     [
      -103.43943,
      44.024345
     ],
     [
      -103.439126,
      44.02442
     ],
     [
      -103.438822,
      44.024494
     ],
     [
      -103.438518,
      44.024568
     ],
     [
      -103.438214,
      44.024643
     ],
     [
      -103.43791,
      44.024717
     ],
     [
      -103.437606,
      44.024791
     ],
     [
      -103.437302,
      44.024866
     ],
     [
      -103.436998,
      44.02494
     ],
     [
      -103.436694,
      44.025014
     ],
     [
      -103.43639,
      44.025089
     ],
     [
      -103.436086,
      44.025163
     ],
     [
      -103.435782,
      44.025237
     ],
     [
      -103.435478,
      44.025312
     ],
     [
      -103.435174,
      44.025386
     ],
     [
      -103.434869,
      44.02546
     ],
     [
      -103.434565,
      44.025535
     ],
     [
      -103.434261,
      44.025609
     ],
     [
      -103.433957,
      44.025683
     ],
     [
      -103.433653,
      44.025757
     ],
     [
      -103.433349,
      44.025832
     ],
     [
      -103.433045,
      44.025906
     ],
     [
      -103.432741,
      44.02598
     ],
     [
      -103.432437,
      44.026055
     ],
     [
      -103.432133,
      44.026129
     ],
     [
      -103.431829,
      44.026203
     ],
     [
      -103.431525,
      44.026278
     ],
     [
      -103.431221,
      44.026352
     ],
     [
      -103.430918,
      44.02628
     ],
     [
      -103.430615,
      44.026209
     ],
     [
      -103.430312,
      44.026137
     ],
     [
      -103.430009,
      44.026065
     ],
     [
      -103.429706,
      44.025994
     ],
     [
      -103.429403,
      44.025922
     ],
     [
      -103.4291,
      44.02585
     ],
     [
      -103.428797,
      44.025779
     ],
     [
      -103.428494,
      44.025707
     ],
     [
      -103.428191,
      44.025635
     ],
     [
      -103.427888,
      44.025564
     ],
     [
      -103.427584,
      44.025492
     ],
     [
      -103.427281,
      44.02542
     ],
     [
      -103.426978,
      44.025349
     ],
     [
      -103.426675,
      44.025277
     ],
     [
      -103.426372,
      44.025205
     ],
     [
      -103.426069,
      44.025134
     ],
     [
      -103.425766,
      44.025062
     ],
     [
      -103.425463,
      44.02499
     ],
     [
      -103.42516,
      44.024918
     ],
     [
      -103.424857,
      44.024847
     ],
     [
      -103.424554,
      44.024775
     ],
     [
      -103.424251,
      44.024703
     ],
     [
      -103.423948,
      44.024632
     ]
    ]
   }
  },
  {
   "type": "Feature",
   "properties": {
    "FeatureCategory": "Uncontrolled Fire Edge",
    "Label": "Uncontrolled",
    "IsVisible": "Yes",
    "MapMethod": "Infrared Image",
    "GeometryID": "BL-ED-0005",
    "IncidentName": "Blue",
    "IRWINID": null,
    "CreateName": "TRAINEE, GISS",
    "CreateDate": "2026-08-01T03:50:00-06:00",
    "DeleteThis": "No",
    "Comments": "Derived from perimeter and held line. OPS MUST CONFIRM before this is published.",
    "LengthMiles": 2.698,
    "DerivedFrom": "perimeter"
   },
   "geometry": {
    "type": "LineString",
    "coordinates": [
     [
      -103.42181,
      44.023411
     ],
     [
      -103.421625,
      44.023224
     ],
     [
      -103.42144,
      44.023037
     ],
     [
      -103.421255,
      44.02285
     ],
     [
      -103.42107,
      44.022664
     ],
     [
      -103.420885,
      44.022477
     ],
     [
      -103.4207,
      44.02229
     ],
     [
      -103.420515,
      44.022103
     ],
     [
      -103.42033,
      44.021916
     ],
     [
      -103.420145,
      44.02173
     ],
     [
      -103.419959,
      44.021543
     ],
     [
      -103.419774,
      44.021356
     ],
     [
      -103.419589,
      44.021169
     ],
     [
      -103.419404,
      44.020982
     ],
     [
      -103.419219,
      44.020795
     ],
     [
      -103.419034,
      44.020609
     ],
     [
      -103.418849,
      44.020422
     ],
     [
      -103.418664,
      44.020235
     ],
     [
      -103.418479,
      44.020048
     ],
     [
      -103.418294,
      44.019861
     ],
     [
      -103.418109,
      44.019675
     ],
     [
      -103.417924,
      44.019488
     ],
     [
      -103.417738,
      44.019301
     ],
     [
      -103.417553,
      44.019114
     ],
     [
      -103.417368,
      44.018927
     ],
     [
      -103.417183,
      44.01874
     ],
     [
      -103.416998,
      44.018554
     ],
     [
      -103.416813,
      44.018367
     ],
     [
      -103.416628,
      44.01818
     ],
     [
      -103.416592,
      44.017952
     ],
     [
      -103.416555,
      44.017724
     ],
     [
      -103.416519,
      44.017496
     ],
     [
      -103.416483,
      44.017268
     ],
     [
      -103.416447,
      44.01704
     ],
     [
      -103.41641,
      44.016812
     ],
     [
      -103.416374,
      44.016584
     ],
     [
      -103.416338,
      44.016356
     ],
     [
      -103.416302,
      44.016128
     ],
     [
      -103.416265,
      44.0159
     ],
     [
      -103.416229,
      44.015672
     ],
     [
      -103.416193,
      44.015444
     ],
     [
      -103.416157,
      44.015216
     ],
     [
      -103.41612,
      44.014988
     ],
     [
      -103.416084,
      44.01476
     ],
     [
      -103.416048,
      44.014532
     ],
     [
      -103.416012,
      44.014304
     ],
     [
      -103.415975,
      44.014076
     ],
     [
      -103.415939,
      44.013848
     ],
     [
      -103.415903,
      44.01362
     ],
     [
      -103.415867,
      44.013392
     ],
     [
      -103.41583,
      44.013164
     ],
     [
      -103.415794,
      44.012936
     ],
     [
      -103.415758,
      44.012708
     ],
     [
      -103.415722,
      44.01248
     ],
     [
      -103.415685,
      44.012252
     ],
     [
      -103.415649,
      44.012024
     ],
     [
      -103.415613,
      44.011796
     ],
     [
      -103.415577,
      44.011568
     ],
     [
      -103.41554,
      44.01134
     ],
     [
      -103.415504,
      44.011112
     ],
     [
      -103.415468,
      44.010884
     ],
     [
      -103.415475,
      44.010657
     ],
     [
      -103.415481,
      44.010431
     ],
     [
      -103.415488,
      44.010204
     ],
     [
      -103.415494,
      44.009978
     ],
     [
      -103.415501,
      44.009751
     ],
     [
      -103.415508,
      44.009524
     ],
     [
      -103.415514,
      44.009298
     ],
     [
      -103.415521,
      44.009071
     ],
     [
      -103.415527,
      44.008845
     ],
     [
      -103.415534,
      44.008618
     ],
     [
      -103.415541,
      44.008391
     ],
     [
      -103.415547,
      44.008165
     ],
     [
      -103.415554,
      44.007938
     ],
     [
      -103.41556,
      44.007712
     ],
     [
      -103.415567,
      44.007485
     ],
     [
      -103.415574,
      44.007258
     ],
     [
      -103.41558,
      44.007032
     ],
     [
      -103.415587,
      44.006805
     ],
     [
      -103.415594,
      44.006578
     ],
     [
      -103.4156,
      44.006352
     ],
     [
      -103.415607,
      44.006125
     ],
     [
      -103.415613,
      44.005899
     ],
     [
      -103.41562,
      44.005672
     ],
     [
      -103.415627,
      44.005445
     ],
     [
      -103.415633,
      44.005219
     ],
     [
      -103.41564,
      44.004992
     ],
     [
      -103.415646,
      44.004766
     ],
     [
      -103.415653,
      44.004539
     ],
     [
      -103.41566,
      44.004312
     ],
     [
      -103.415666,
      44.004086
     ],
     [
      -103.415673,
      44.003859
     ],
     [
      -103.415679,
      44.003633
     ],
     [
      -103.415686,
      44.003406
     ],
     [
      -103.415723,
      44.003176
     ],
     [
      -103.41576,
      44.002946
     ],
     [
      -103.415798,
      44.002716
     ],
     [
      -103.415835,
      44.002485
     ],
     [
      -103.415872,
      44.002255
     ],
     [
      -103.415909,
      44.002025
     ],
     [
      -103.415946,
      44.001795
     ],
     [
      -103.415984,
      44.001565
     ],
     [
      -103.416021,
      44.001335
     ],
     [
      -103.416058,
      44.001104
     ],
     [
      -103.416095,
      44.000874
     ],
     [
      -103.416132,
      44.000644
     ],
     [
      -103.416169,
      44.000414
     ],
     [
      -103.416207,
      44.000184
     ],
     [
      -103.416244,
      43.999954
     ],
     [
      -103.416281,
      43.999724
     ],
     [
      -103.416318,
      43.999493
     ],
     [
      -103.416355,
      43.999263
     ],
     [
      -103.416393,
      43.999033
     ],
     [
      -103.41643,
      43.998803
     ],
     [
      -103.416467,
      43.998573
     ],
     [
      -103.416504,
      43.998343
     ],
     [
      -103.416541,
      43.998112
     ],
     [
      -103.416579,
      43.997882
     ],
     [
      -103.416616,
      43.997652
     ],
     [
      -103.416653,
      43.997422
     ],
     [
      -103.41669,
      43.997192
     ],
     [
      -103.416727,
      43.996962
     ],
     [
      -103.416764,
      43.996731
     ],
     [
      -103.416802,
      43.996501
     ],
     [
      -103.416839,
      43.996271
     ],
     [
      -103.416876,
      43.996041
     ],
     [
      -103.416953,
      43.995823
     ],
     [
      -103.41703,
      43.995604
     ],
     [
      -103.417108,
      43.995386
     ],
     [
      -103.417185,
      43.995167
     ],
     [
      -103.417262,
      43.994949
     ],
     [
      -103.417339,
      43.99473
     ],
     [
      -103.417417,
      43.994512
     ],
     [
      -103.417494,
      43.994294
     ],
     [
      -103.417571,
      43.994075
     ],
     [
      -103.417648,
      43.993857
     ],
     [
      -103.417726,
      43.993638
     ],
     [
      -103.417803,
      43.99342
     ],
     [
      -103.41788,
      43.993201
     ],
     [
      -103.417957,
      43.992983
     ],
     [
      -103.418035,
      43.992765
     ],
     [
      -103.418112,
      43.992546
     ],
     [
      -103.418189,
      43.992328
     ],
     [
      -103.418266,
      43.992109
     ],
     [
      -103.418343,
      43.991891
     ],
     [
      -103.418421,
      43.991672
     ],
     [
      -103.418498,
      43.991454
     ],
     [
      -103.418575,
      43.991235
     ],
     [
      -103.418652,
      43.991017
     ],
     [
      -103.41873,
      43.990799
     ],
     [
      -103.418807,
      43.99058
     ],
     [
      -103.418884,
      43.990362
     ],
     [
      -103.418961,
      43.990143
     ],
     [
      -103.419039,
      43.989925
     ],
     [
      -103.419116,
      43.989706
     ],
     [
      -103.419193,
      43.989488
     ],
     [
      -103.419441,
      43.989346
     ],
     [
      -103.419688,
      43.989204
     ],
     [
      -103.419936,
      43.989063
     ],
     [
      -103.420183,
      43.988921
     ],
     [
      -103.420431,
      43.988779
     ],
     [
      -103.420678,
      43.988637
     ],
     [
      -103.420926,
      43.988496
     ],
     [
      -103.421173,
      43.988354
     ],
     [
      -103.421421,
      43.988212
     ],
     [
      -103.421668,
      43.98807
     ],
     [
      -103.421916,
      43.987929
     ],
     [
      -103.422163,
      43.987787
     ],
     [
      -103.422411,
      43.987645
     ],
     [
      -103.422658,
      43.987503
     ],
     [
      -103.422906,
      43.987361
     ],
     [
      -103.423153,
      43.98722
     ]
    ]
   }
  }
 ],
 "_derived_by": "scripts/derive_tactical.py"
}
