{
 "type": "FeatureCollection",
 "name": "EventPolygon",
 "crs": {
  "type": "name",
  "properties": {
   "name": "urn:ogc:def:crs:OGC:1.3:CRS84"
  }
 },
 "_warning": "TRAINING EXERCISE \u2014 NOT AN ACTUAL INCIDENT. Fabricated data. Never publish, never sync to NIFS or NIFC AGOL.",
 "_fire": "Blue",
 "_generated_by": "scripts/make_fires.py",
 "features": [
  {
   "type": "Feature",
   "properties": {
    "FeatureCategory": "Wildfire Daily Fire Perimeter",
    "Label": "Blue 07/30",
    "IsVisible": "Yes",
    "MapMethod": "Infrared Image",
    "GeometryID": "BL-PY-0001",
    "IncidentName": "Blue",
    "IRWINID": null,
    "CreateName": "TRAINEE, GISS",
    "CreateDate": "2026-08-01T03:50:00-06:00",
    "DeleteThis": "No",
    "Comments": "Operational period 4 perimeter.",
    "GISAcres": 318.4,
    "PolygonDateTime": "2026-07-30T02:14:00-06:00"
   },
   "geometry": {
    "type": "Polygon",
    "coordinates": [
     [
      [
       -103.427829,
       43.992197
      ],
      [
       -103.433399,
       43.993868
      ],
      [
       -103.436529,
       43.997301
      ],
      [
       -103.436092,
       44.001683
      ],
      [
       -103.432588,
       44.005028
      ],
      [
       -103.427079,
       44.005752
      ],
      [
       -103.422728,
       44.003201
      ],
      [
       -103.422196,
       43.998705
      ],
      [
       -103.424349,
       43.994385
      ],
      [
       -103.427829,
       43.992197
      ]
     ]
    ]
   }
  },
  {
   "type": "Feature",
   "properties": {
    "FeatureCategory": "Wildfire Daily Fire Perimeter",
    "Label": "Blue 07/31",
    "IsVisible": "Yes",
    "MapMethod": "Infrared Image",
    "GeometryID": "BL-PY-0002",
    "IncidentName": "Blue",
    "IRWINID": null,
    "CreateName": "TRAINEE, GISS",
    "CreateDate": "2026-08-01T03:50:00-06:00",
    "DeleteThis": "No",
    "Comments": "Operational period 5 perimeter.",
    "GISAcres": 1025.2,
    "PolygonDateTime": "2026-07-31T02:14:00-06:00"
   },
   "geometry": {
    "type": "Polygon",
    "coordinates": [
     [
      [
       -103.426234,
       43.989283
      ],
      [
       -103.43415,
       43.990885
      ],
      [
       -103.440754,
       43.995063
      ],
      [
       -103.442977,
       44.000778
      ],
      [
       -103.441633,
       44.007442
      ],
      [
       -103.43763,
       44.012775
      ],
      [
       -103.431058,
       44.015081
      ],
      [
       -103.424108,
       44.013592
      ],
      [
       -103.420257,
       44.009052
      ],
      [
       -103.419254,
       44.002456
      ],
      [
       -103.4206,
       43.995791
      ],
      [
       -103.422822,
       43.990933
      ],
      [
       -103.426234,
       43.989283
      ]
     ]
    ]
   }
  },
  {
   "type": "Feature",
   "properties": {
    "FeatureCategory": "Wildfire Daily Fire Perimeter",
    "Label": "Blue 08/01",
    "IsVisible": "Yes",
    "MapMethod": "Infrared Image",
    "GeometryID": "BL-PY-0003",
    "IncidentName": "Blue",
    "IRWINID": null,
    "CreateName": "TRAINEE, GISS",
    "CreateDate": "2026-08-01T03:50:00-06:00",
    "DeleteThis": "No",
    "Comments": "Operational period 6 perimeter.",
    "GISAcres": 2334.6,
    "PolygonDateTime": "2026-08-01T02:14:00-06:00"
   },
   "geometry": {
    "type": "Polygon",
    "coordinates": [
     [
      [
       -103.424638,
       43.986369
      ],
      [
       -103.435465,
       43.98831
      ],
      [
       -103.444571,
       43.993119
      ],
      [
       -103.449048,
       44.00046
      ],
      [
       -103.448739,
       44.009631
      ],
      [
       -103.445364,
       44.017764
      ],
      [
       -103.439734,
       44.024271
      ],
      [
       -103.431221,
       44.026352
      ],
      [
       -103.422736,
       44.024345
      ],
      [
       -103.416628,
       44.01818
      ],
      [
       -103.415468,
       44.010884
      ],
      [
       -103.415686,
       44.003406
      ],
      [
       -103.416876,
       43.996041
      ],
      [
       -103.419193,
       43.989488
      ],
      [
       -103.424638,
       43.986369
      ]
     ]
    ]
   }
  },
  {
   "type": "Feature",
   "properties": {
    "FeatureCategory": "Temporary Flight Restriction",
    "Label": "TFR 5 NM",
    "IsVisible": "Yes",
    "MapMethod": "Digitized-Other",
    "GeometryID": "BL-PY-0004",
    "IncidentName": "Blue",
    "IRWINID": null,
    "CreateName": "TRAINEE, GISS",
    "CreateDate": "2026-08-01T03:50:00-06:00",
    "DeleteThis": "No",
    "Comments": "5 NM radius, surface to 8500 ft MSL. Exercise only \u2014 no real TFR exists. Wider than the AOI, which is why air ops needs a wider extent than ops.",
    "GISAcres": 66481.8,
    "PolygonDateTime": null
   },
   "geometry": {
    "type": "Polygon",
    "coordinates": [
     [
      [
       -103.31454,
       44.003355
      ],
      [
       -103.314774,
       44.010624
      ],
      [
       -103.315884,
       44.017852
      ],
      [
       -103.317864,
       44.024982
      ],
      [
       -103.320698,
       44.03196
      ],
      [
       -103.324365,
       44.038733
      ],
      [
       -103.328838,
       44.04525
      ],
      [
       -103.334081,
       44.051461
      ],
      [
       -103.340057,
       44.057318
      ],
      [
       -103.346719,
       44.062777
      ],
      [
       -103.354016,
       44.067796
      ],
      [
       -103.361893,
       44.072337
      ],
      [
       -103.370291,
       44.076365
      ],
      [
       -103.379145,
       44.079849
      ],
      [
       -103.388387,
       44.082763
      ],
      [
       -103.397947,
       44.085085
      ],
      [
       -103.407752,
       44.086796
      ],
      [
       -103.417728,
       44.087884
      ],
      [
       -103.427797,
       44.08834
      ],
      [
       -103.437883,
       44.088162
      ],
      [
       -103.447908,
       44.087349
      ],
      [
       -103.457797,
       44.085909
      ],
      [
       -103.467474,
       44.083852
      ],
      [
       -103.476864,
       44.081194
      ],
      [
       -103.485896,
       44.077956
      ],
      [
       -103.494501,
       44.074162
      ],
      [
       -103.502614,
       44.069841
      ],
      [
       -103.510172,
       44.065026
      ],
      [
       -103.517118,
       44.059754
      ],
      [
       -103.5234,
       44.054065
      ],
      [
       -103.528969,
       44.048003
      ],
      [
       -103.533782,
       44.041613
      ],
      [
       -103.537805,
       44.034945
      ],
      [
       -103.541006,
       44.02805
      ],
      [
       -103.543361,
       44.020979
      ],
      [
       -103.544852,
       44.013787
      ],
      [
       -103.54547,
       44.006529
      ],
      [
       -103.545208,
       43.999259
      ],
      [
       -103.544069,
       43.992033
      ],
      [
       -103.542063,
       43.984907
      ],
      [
       -103.539205,
       43.977934
      ],
      [
       -103.535517,
       43.971167
      ],
      [
       -103.531027,
       43.964658
      ],
      [
       -103.52577,
       43.958456
      ],
      [
       -103.519786,
       43.952608
      ],
      [
       -103.51312,
       43.947159
      ],
      [
       -103.505823,
       43.94215
      ],
      [
       -103.497952,
       43.937619
      ],
      [
       -103.489564,
       43.933601
      ],
      [
       -103.480725,
       43.930125
      ],
      [
       -103.471502,
       43.927219
      ],
      [
       -103.461964,
       43.924904
      ],
      [
       -103.452183,
       43.923197
      ],
      [
       -103.442235,
       43.922113
      ],
      [
       -103.432194,
       43.921658
      ],
      [
       -103.422136,
       43.921837
      ],
      [
       -103.412138,
       43.922648
      ],
      [
       -103.402275,
       43.924085
      ],
      [
       -103.392623,
       43.926136
      ],
      [
       -103.383254,
       43.928788
      ],
      [
       -103.374239,
       43.932018
      ],
      [
       -103.365647,
       43.935803
      ],
      [
       -103.357543,
       43.940115
      ],
      [
       -103.349989,
       43.94492
      ],
      [
       -103.343042,
       43.950182
      ],
      [
       -103.336755,
       43.95586
      ],
      [
       -103.331176,
       43.961913
      ],
      [
       -103.326347,
       43.968294
      ],
      [
       -103.322306,
       43.974954
      ],
      [
       -103.319083,
       43.981844
      ],
      [
       -103.316703,
       43.988909
      ],
      [
       -103.315185,
       43.996098
      ],
      [
       -103.31454,
       44.003355
      ]
     ]
    ]
   }
  },
  {
   "type": "Feature",
   "properties": {
    "FeatureCategory": "Aerial Hazard Area",
    "Label": "Powerline Corridor",
    "IsVisible": "Yes",
    "MapMethod": "Digitized-Other",
    "GeometryID": "BL-PY-0005",
    "IncidentName": "Blue",
    "IRWINID": null,
    "CreateName": "TRAINEE, GISS",
    "CreateDate": "2026-08-01T03:50:00-06:00",
    "DeleteThis": "No",
    "Comments": "Distribution line. No low-level flight.",
    "GISAcres": 1603.8,
    "PolygonDateTime": null
   },
   "geometry": {
    "type": "Polygon",
    "coordinates": [
     [
      [
       -103.495703,
       44.013155
      ],
      [
       -103.47521,
       44.021532
      ],
      [
       -103.457357,
       44.031279
      ],
      [
       -103.442794,
       44.043383
      ],
      [
       -103.430104,
       44.057374
      ],
      [
       -103.430104,
       44.057374
      ],
      [
       -103.429253,
       44.058086
      ],
      [
       -103.428176,
       44.058616
      ],
      [
       -103.426946,
       44.058926
      ],
      [
       -103.425646,
       44.058996
      ],
      [
       -103.424365,
       44.058821
      ],
      [
       -103.423191,
       44.058413
      ],
      [
       -103.422203,
       44.0578
      ],
      [
       -103.421469,
       44.057023
      ],
      [
       -103.421039,
       44.056136
      ],
      [
       -103.420942,
       44.055198
      ],
      [
       -103.421185,
       44.054275
      ],
      [
       -103.421751,
       44.053428
      ],
      [
       -103.421751,
       44.053428
      ],
      [
       -103.434829,
       44.039041
      ],
      [
       -103.450543,
       44.026017
      ],
      [
       -103.469731,
       44.015513
      ],
      [
       -103.49078,
       44.006891
      ],
      [
       -103.49078,
       44.006891
      ],
      [
       -103.491987,
       44.006538
      ],
      [
       -103.493279,
       44.006422
      ],
      [
       -103.494569,
       44.006552
      ],
      [
       -103.495768,
       44.006918
      ],
      [
       -103.496795,
       44.007496
      ],
      [
       -103.49758,
       44.008246
      ],
      [
       -103.49807,
       44.009118
      ],
      [
       -103.49823,
       44.01005
      ],
      [
       -103.49805,
       44.010981
      ],
      [
       -103.497543,
       44.011847
      ],
      [
       -103.496742,
       44.012588
      ],
      [
       -103.495703,
       44.013155
      ],
      [
       -103.495703,
       44.013155
      ]
     ]
    ]
   }
  },
  {
   "type": "Feature",
   "properties": {
    "FeatureCategory": "Retardant Avoidance Area",
    "Label": "Spring Creek",
    "IsVisible": "Yes",
    "MapMethod": "Digitized-Other",
    "GeometryID": "BL-PY-0006",
    "IncidentName": "Blue",
    "IRWINID": null,
    "CreateName": "TRAINEE, GISS",
    "CreateDate": "2026-08-01T03:50:00-06:00",
    "DeleteThis": "No",
    "Comments": "300 m each side of the creek. Exercise buffer.",
    "GISAcres": 706.1,
    "PolygonDateTime": null
   },
   "geometry": {
    "type": "Polygon",
    "coordinates": [
     [
      [
       -103.407705,
       44.049144
      ],
      [
       -103.40975,
       44.041032
      ],
      [
       -103.413014,
       44.033574
      ],
      [
       -103.417706,
       44.025952
      ],
      [
       -103.423628,
       44.019111
      ],
      [
       -103.430563,
       44.013256
      ],
      [
       -103.430563,
       44.013256
      ],
      [
       -103.431289,
       44.012784
      ],
      [
       -103.43216,
       44.012465
      ],
      [
       -103.433116,
       44.01232
      ],
      [
       -103.434092,
       44.012357
      ],
      [
       -103.43502,
       44.012576
      ],
      [
       -103.435839,
       44.012961
      ],
      [
       -103.436492,
       44.013485
      ],
      [
       -103.436934,
       44.014114
      ],
      [
       -103.437136,
       44.014803
      ],
      [
       -103.437084,
       44.015507
      ],
      [
       -103.436781,
       44.016178
      ],
      [
       -103.436248,
       44.016768
      ],
      [
       -103.436248,
       44.016768
      ],
      [
       -103.429666,
       44.022303
      ],
      [
       -103.424324,
       44.028476
      ],
      [
       -103.42001,
       44.035496
      ],
      [
       -103.417022,
       44.042316
      ],
      [
       -103.415073,
       44.050106
      ],
      [
       -103.415073,
       44.050106
      ],
      [
       -103.414775,
       44.050778
      ],
      [
       -103.414246,
       44.051371
      ],
      [
       -103.413522,
       44.051844
      ],
      [
       -103.412653,
       44.052167
      ],
      [
       -103.411698,
       44.052316
      ],
      [
       -103.410721,
       44.052282
      ],
      [
       -103.409791,
       44.052067
      ],
      [
       -103.408969,
       44.051685
      ],
      [
       -103.408312,
       44.051163
      ],
      [
       -103.407865,
       44.050537
      ],
      [
       -103.407658,
       44.049848
      ],
      [
       -103.407705,
       44.049144
      ],
      [
       -103.407705,
       44.049144
      ]
     ]
    ]
   }
  },
  {
   "type": "Feature",
   "properties": {
    "FeatureCategory": "Closure Area",
    "Label": "Blue Closure",
    "IsVisible": "Yes",
    "MapMethod": "Digitized-Other",
    "GeometryID": "BL-PY-0007",
    "IncidentName": "Blue",
    "IRWINID": null,
    "CreateName": "TRAINEE, GISS",
    "CreateDate": "2026-08-01T03:50:00-06:00",
    "DeleteThis": "No",
    "Comments": "Public closure. Roads and trails inside are closed.",
    "GISAcres": 18087.3,
    "PolygonDateTime": null
   },
   "geometry": {
    "type": "Polygon",
    "coordinates": [
     [
      [
       -103.369775,
       44.004156
      ],
      [
       -103.3699,
       44.007948
      ],
      [
       -103.370483,
       44.011718
      ],
      [
       -103.371519,
       44.015436
      ],
      [
       -103.373,
       44.019076
      ],
      [
       -103.374916,
       44.022608
      ],
      [
       -103.377251,
       44.026006
      ],
      [
       -103.379988,
       44.029244
      ],
      [
       -103.383105,
       44.032298
      ],
      [
       -103.386581,
       44.035144
      ],
      [
       -103.390387,
       44.037761
      ],
      [
       -103.394495,
       44.040128
      ],
      [
       -103.398874,
       44.042228
      ],
      [
       -103.40349,
       44.044044
      ],
      [
       -103.408309,
       44.045563
      ],
      [
       -103.413292,
       44.046774
      ],
      [
       -103.418404,
       44.047666
      ],
      [
       -103.423603,
       44.048233
      ],
      [
       -103.428852,
       44.04847
      ],
      [
       -103.434109,
       44.048377
      ],
      [
       -103.439335,
       44.047953
      ],
      [
       -103.44449,
       44.047203
      ],
      [
       -103.449534,
       44.04613
      ],
      [
       -103.454429,
       44.044745
      ],
      [
       -103.459138,
       44.043057
      ],
      [
       -103.463625,
       44.041079
      ],
      [
       -103.467856,
       44.038826
      ],
      [
       -103.471798,
       44.036316
      ],
      [
       -103.475421,
       44.033568
      ],
      [
       -103.478698,
       44.030602
      ],
      [
       -103.481604,
       44.027441
      ],
      [
       -103.484117,
       44.024109
      ],
      [
       -103.486217,
       44.020632
      ],
      [
       -103.487889,
       44.017036
      ],
      [
       -103.489121,
       44.013349
      ],
      [
       -103.489902,
       44.009598
      ],
      [
       -103.490228,
       44.005812
      ],
      [
       -103.490094,
       44.00202
      ],
      [
       -103.489504,
       43.998251
      ],
      [
       -103.488461,
       43.994533
      ],
      [
       -103.486973,
       43.990896
      ],
      [
       -103.485052,
       43.987365
      ],
      [
       -103.482713,
       43.983969
      ],
      [
       -103.479972,
       43.980733
      ],
      [
       -103.476852,
       43.977682
      ],
      [
       -103.473375,
       43.974838
      ],
      [
       -103.469569,
       43.972224
      ],
      [
       -103.465463,
       43.96986
      ],
      [
       -103.461087,
       43.967763
      ],
      [
       -103.456474,
       43.965949
      ],
      [
       -103.451661,
       43.964432
      ],
      [
       -103.446683,
       43.963223
      ],
      [
       -103.441579,
       43.962333
      ],
      [
       -103.436386,
       43.961767
      ],
      [
       -103.431146,
       43.961529
      ],
      [
       -103.425896,
       43.961623
      ],
      [
       -103.420677,
       43.962046
      ],
      [
       -103.41553,
       43.962796
      ],
      [
       -103.410492,
       43.963866
      ],
      [
       -103.405603,
       43.96525
      ],
      [
       -103.400898,
       43.966936
      ],
      [
       -103.396415,
       43.968911
      ],
      [
       -103.392187,
       43.971162
      ],
      [
       -103.388246,
       43.973669
      ],
      [
       -103.384623,
       43.976415
      ],
      [
       -103.381344,
       43.979378
      ],
      [
       -103.378436,
       43.982536
      ],
      [
       -103.375919,
       43.985866
      ],
      [
       -103.373813,
       43.989341
      ],
      [
       -103.372135,
       43.992935
      ],
      [
       -103.370897,
       43.996621
      ],
      [
       -103.370108,
       44.000371
      ],
      [
       -103.369775,
       44.004156
      ]
     ]
    ]
   }
  },
  {
   "type": "Feature",
   "properties": {
    "FeatureCategory": "Safety Zone",
    "Label": "SZ-1 Area",
    "IsVisible": "Yes",
    "MapMethod": "GPS-Walked",
    "GeometryID": "BL-PY-0008",
    "IncidentName": "Blue",
    "IRWINID": null,
    "CreateName": "TRAINEE, GISS",
    "CreateDate": "2026-08-01T03:50:00-06:00",
    "DeleteThis": "No",
    "Comments": "Meadow. Measured, not eyeballed.",
    "GISAcres": 13.1,
    "PolygonDateTime": null
   },
   "geometry": {
    "type": "Polygon",
    "coordinates": [
     [
      [
       -103.41765,
       44.019829
      ],
      [
       -103.417653,
       44.019931
      ],
      [
       -103.417669,
       44.020032
      ],
      [
       -103.417697,
       44.020132
      ],
      [
       -103.417737,
       44.02023
      ],
      [
       -103.417788,
       44.020325
      ],
      [
       -103.417851,
       44.020417
      ],
      [
       -103.417925,
       44.020504
      ],
      [
       -103.418009,
       44.020586
      ],
      [
       -103.418102,
       44.020662
      ],
      [
       -103.418205,
       44.020733
      ],
      [
       -103.418316,
       44.020797
      ],
      [
       -103.418433,
       44.020853
      ],
      [
       -103.418558,
       44.020902
      ],
      [
       -103.418687,
       44.020943
      ],
      [
       -103.418821,
       44.020975
      ],
      [
       -103.418959,
       44.020999
      ],
      [
       -103.419099,
       44.021015
      ],
      [
       -103.41924,
       44.021021
      ],
      [
       -103.419381,
       44.021019
      ],
      [
       -103.419522,
       44.021007
      ],
      [
       -103.419661,
       44.020987
      ],
      [
       -103.419796,
       44.020958
      ],
      [
       -103.419928,
       44.020921
      ],
      [
       -103.420055,
       44.020875
      ],
      [
       -103.420176,
       44.020822
      ],
      [
       -103.420289,
       44.020762
      ],
      [
       -103.420396,
       44.020694
      ],
      [
       -103.420493,
       44.02062
      ],
      [
       -103.420581,
       44.02054
      ],
      [
       -103.42066,
       44.020455
      ],
      [
       -103.420727,
       44.020366
      ],
      [
       -103.420784,
       44.020272
      ],
      [
       -103.420829,
       44.020175
      ],
      [
       -103.420862,
       44.020076
      ],
      [
       -103.420884,
       44.019975
      ],
      [
       -103.420892,
       44.019873
      ],
      [
       -103.420889,
       44.019771
      ],
      [
       -103.420873,
       44.01967
      ],
      [
       -103.420845,
       44.01957
      ],
      [
       -103.420805,
       44.019472
      ],
      [
       -103.420754,
       44.019377
      ],
      [
       -103.420691,
       44.019285
      ],
      [
       -103.420617,
       44.019198
      ],
      [
       -103.420533,
       44.019116
      ],
      [
       -103.420439,
       44.01904
      ],
      [
       -103.420337,
       44.018969
      ],
      [
       -103.420226,
       44.018905
      ],
      [
       -103.420109,
       44.018849
      ],
      [
       -103.419984,
       44.0188
      ],
      [
       -103.419855,
       44.018759
      ],
      [
       -103.419721,
       44.018727
      ],
      [
       -103.419583,
       44.018703
      ],
      [
       -103.419443,
       44.018687
      ],
      [
       -103.419302,
       44.018681
      ],
      [
       -103.419161,
       44.018683
      ],
      [
       -103.41902,
       44.018695
      ],
      [
       -103.418881,
       44.018715
      ],
      [
       -103.418746,
       44.018744
      ],
      [
       -103.418614,
       44.018781
      ],
      [
       -103.418487,
       44.018827
      ],
      [
       -103.418366,
       44.01888
      ],
      [
       -103.418253,
       44.01894
      ],
      [
       -103.418147,
       44.019008
      ],
      [
       -103.418049,
       44.019082
      ],
      [
       -103.417961,
       44.019162
      ],
      [
       -103.417882,
       44.019247
      ],
      [
       -103.417815,
       44.019336
      ],
      [
       -103.417758,
       44.01943
      ],
      [
       -103.417713,
       44.019526
      ],
      [
       -103.41768,
       44.019626
      ],
      [
       -103.417658,
       44.019727
      ],
      [
       -103.41765,
       44.019829
      ]
     ]
    ]
   }
  },
  {
   "type": "Feature",
   "properties": {
    "FeatureCategory": "Structure Group",
    "Label": "Training Grounds Structures",
    "IsVisible": "Yes",
    "MapMethod": "GPS-Walked",
    "GeometryID": "BL-PY-0009",
    "IncidentName": "Blue",
    "IRWINID": null,
    "CreateName": "TRAINEE, GISS",
    "CreateDate": "2026-08-01T03:50:00-06:00",
    "DeleteThis": "No",
    "Comments": "Lodge, dining hall, cabin row, tank. Structure protection group assigned.",
    "GISAcres": 95.0,
    "PolygonDateTime": null
   },
   "geometry": {
    "type": "Polygon",
    "coordinates": [
     [
      [
       -103.411315,
       44.02824
      ],
      [
       -103.411324,
       44.028515
      ],
      [
       -103.411367,
       44.028788
      ],
      [
       -103.411442,
       44.029058
      ],
      [
       -103.41155,
       44.029321
      ],
      [
       -103.411689,
       44.029577
      ],
      [
       -103.411858,
       44.029823
      ],
      [
       -103.412056,
       44.030058
      ],
      [
       -103.412282,
       44.030279
      ],
      [
       -103.412534,
       44.030486
      ],
      [
       -103.41281,
       44.030675
      ],
      [
       -103.413108,
       44.030847
      ],
      [
       -103.413425,
       44.030999
      ],
      [
       -103.41376,
       44.03113
      ],
      [
       -103.414109,
       44.03124
      ],
      [
       -103.41447,
       44.031328
      ],
      [
       -103.41484,
       44.031393
      ],
      [
       -103.415217,
       44.031434
      ],
      [
       -103.415597,
       44.031451
      ],
      [
       -103.415978,
       44.031444
      ],
      [
       -103.416357,
       44.031414
      ],
      [
       -103.41673,
       44.031359
      ],
      [
       -103.417095,
       44.031282
      ],
      [
       -103.41745,
       44.031181
      ],
      [
       -103.417791,
       44.031059
      ],
      [
       -103.418117,
       44.030916
      ],
      [
       -103.418423,
       44.030753
      ],
      [
       -103.418709,
       44.030571
      ],
      [
       -103.418972,
       44.030372
      ],
      [
       -103.419209,
       44.030157
      ],
      [
       -103.41942,
       44.029928
      ],
      [
       -103.419602,
       44.029687
      ],
      [
       -103.419755,
       44.029435
      ],
      [
       -103.419876,
       44.029175
      ],
      [
       -103.419966,
       44.028908
      ],
      [
       -103.420023,
       44.028636
      ],
      [
       -103.420047,
       44.028361
      ],
      [
       -103.420038,
       44.028087
      ],
      [
       -103.419995,
       44.027814
      ],
      [
       -103.41992,
       44.027544
      ],
      [
       -103.419812,
       44.02728
      ],
      [
       -103.419673,
       44.027025
      ],
      [
       -103.419504,
       44.026778
      ],
      [
       -103.419305,
       44.026544
      ],
      [
       -103.419079,
       44.026323
      ],
      [
       -103.418827,
       44.026116
      ],
      [
       -103.418552,
       44.025927
      ],
      [
       -103.418254,
       44.025755
      ],
      [
       -103.417937,
       44.025603
      ],
      [
       -103.417602,
       44.025472
      ],
      [
       -103.417253,
       44.025362
      ],
      [
       -103.416892,
       44.025274
      ],
      [
       -103.416522,
       44.025209
      ],
      [
       -103.416145,
       44.025168
      ],
      [
       -103.415765,
       44.025151
      ],
      [
       -103.415384,
       44.025158
      ],
      [
       -103.415006,
       44.025188
      ],
      [
       -103.414632,
       44.025243
      ],
      [
       -103.414267,
       44.02532
      ],
      [
       -103.413912,
       44.025421
      ],
      [
       -103.413571,
       44.025543
      ],
      [
       -103.413246,
       44.025686
      ],
      [
       -103.412939,
       44.025849
      ],
      [
       -103.412653,
       44.026031
      ],
      [
       -103.412391,
       44.02623
      ],
      [
       -103.412153,
       44.026445
      ],
      [
       -103.411942,
       44.026673
      ],
      [
       -103.41176,
       44.026915
      ],
      [
       -103.411607,
       44.027167
      ],
      [
       -103.411486,
       44.027427
      ],
      [
       -103.411396,
       44.027694
      ],
      [
       -103.411339,
       44.027966
      ],
      [
       -103.411315,
       44.02824
      ]
     ]
    ]
   }
  },
  {
   "type": "Feature",
   "properties": {
    "FeatureCategory": "Management Action Point Area",
    "Label": "MAP 1 \u2014 Access Road",
    "IsVisible": "Yes",
    "MapMethod": "Digitized-Topo",
    "GeometryID": "BL-PY-0010",
    "IncidentName": "Blue",
    "IRWINID": null,
    "CreateName": "TRAINEE, GISS",
    "CreateDate": "2026-08-01T03:50:00-06:00",
    "DeleteThis": "No",
    "Comments": "Trigger: fire crosses the drainage west of DP 3 \u2014 evacuate the training grounds.",
    "GISAcres": 193.8,
    "PolygonDateTime": null
   },
   "geometry": {
    "type": "Polygon",
    "coordinates": [
     [
      [
       -103.4047,
       44.032778
      ],
      [
       -103.404713,
       44.033171
      ],
      [
       -103.404773,
       44.033561
      ],
      [
       -103.404881,
       44.033946
      ],
      [
       -103.405034,
       44.034322
      ],
      [
       -103.405233,
       44.034688
      ],
      [
       -103.405475,
       44.03504
      ],
      [
       -103.405758,
       44.035375
      ],
      [
       -103.406081,
       44.035691
      ],
      [
       -103.406441,
       44.035986
      ],
      [
       -103.406835,
       44.036256
      ],
      [
       -103.407261,
       44.036501
      ],
      [
       -103.407714,
       44.036719
      ],
      [
       -103.408192,
       44.036907
      ],
      [
       -103.40869,
       44.037064
      ],
      [
       -103.409206,
       44.037189
      ],
      [
       -103.409735,
       44.037282
      ],
      [
       -103.410273,
       44.03734
      ],
      [
       -103.410817,
       44.037365
      ],
      [
       -103.411361,
       44.037355
      ],
      [
       -103.411902,
       44.037312
      ],
      [
       -103.412435,
       44.037234
      ],
      [
       -103.412957,
       44.037123
      ],
      [
       -103.413464,
       44.03698
      ],
      [
       -103.413952,
       44.036805
      ],
      [
       -103.414416,
       44.036601
      ],
      [
       -103.414854,
       44.036368
      ],
      [
       -103.415263,
       44.036108
      ],
      [
       -103.415638,
       44.035824
      ],
      [
       -103.415978,
       44.035517
      ],
      [
       -103.416279,
       44.03519
      ],
      [
       -103.416539,
       44.034845
      ],
      [
       -103.416757,
       44.034485
      ],
      [
       -103.416931,
       44.034113
      ],
      [
       -103.417059,
       44.033732
      ],
      [
       -103.41714,
       44.033343
      ],
      [
       -103.417174,
       44.032952
      ],
      [
       -103.417161,
       44.032559
      ],
      [
       -103.417101,
       44.032169
      ],
      [
       -103.416993,
       44.031784
      ],
      [
       -103.416839,
       44.031407
      ],
      [
       -103.416641,
       44.031042
      ],
      [
       -103.416399,
       44.03069
      ],
      [
       -103.416115,
       44.030355
      ],
      [
       -103.415792,
       44.030039
      ],
      [
       -103.415432,
       44.029744
      ],
      [
       -103.415038,
       44.029474
      ],
      [
       -103.414613,
       44.029229
      ],
      [
       -103.41416,
       44.029011
      ],
      [
       -103.413682,
       44.028823
      ],
      [
       -103.413183,
       44.028666
      ],
      [
       -103.412667,
       44.028541
      ],
      [
       -103.412138,
       44.028448
      ],
      [
       -103.4116,
       44.02839
      ],
      [
       -103.411057,
       44.028365
      ],
      [
       -103.410513,
       44.028375
      ],
      [
       -103.409972,
       44.028418
      ],
      [
       -103.409439,
       44.028496
      ],
      [
       -103.408917,
       44.028607
      ],
      [
       -103.40841,
       44.02875
      ],
      [
       -103.407923,
       44.028924
      ],
      [
       -103.407458,
       44.029129
      ],
      [
       -103.40702,
       44.029362
      ],
      [
       -103.406612,
       44.029622
      ],
      [
       -103.406236,
       44.029906
      ],
      [
       -103.405897,
       44.030213
      ],
      [
       -103.405596,
       44.03054
      ],
      [
       -103.405335,
       44.030884
      ],
      [
       -103.405117,
       44.031244
      ],
      [
       -103.404943,
       44.031616
      ],
      [
       -103.404815,
       44.031998
      ],
      [
       -103.404734,
       44.032386
      ],
      [
       -103.4047,
       44.032778
      ]
     ]
    ]
   }
  },
  {
   "type": "Feature",
   "properties": {
    "FeatureCategory": "Evacuation Area",
    "Label": "Zone A \u2014 GO",
    "IsVisible": "Yes",
    "MapMethod": "Digitized-Other",
    "GeometryID": "BL-PY-0011",
    "IncidentName": "Blue",
    "IRWINID": null,
    "CreateName": "TRAINEE, GISS",
    "CreateDate": "2026-08-01T03:50:00-06:00",
    "DeleteThis": "No",
    "Comments": "Immediate evacuation. Structures inside the Management Action Point trigger.",
    "GISAcres": 1744.5,
    "PolygonDateTime": null
   },
   "geometry": {
    "type": "Polygon",
    "coordinates": [
     [
      [
       -103.40581,
       44.02361
      ],
      [
       -103.40585,
       44.024788
      ],
      [
       -103.406032,
       44.025959
      ],
      [
       -103.406354,
       44.027113
      ],
      [
       -103.406815,
       44.028243
      ],
      [
       -103.407411,
       44.02934
      ],
      [
       -103.408136,
       44.030395
      ],
      [
       -103.408987,
       44.031401
      ],
      [
       -103.409956,
       44.032349
      ],
      [
       -103.411035,
       44.033233
      ],
      [
       -103.412218,
       44.034045
      ],
      [
       -103.413494,
       44.03478
      ],
      [
       -103.414854,
       44.035432
      ],
      [
       -103.416287,
       44.035996
      ],
      [
       -103.417783,
       44.036467
      ],
      [
       -103.419331,
       44.036843
      ],
      [
       -103.420918,
       44.03712
      ],
      [
       -103.422533,
       44.037296
      ],
      [
       -103.424162,
       44.03737
      ],
      [
       -103.425795,
       44.037341
      ],
      [
       -103.427417,
       44.03721
      ],
      [
       -103.429018,
       44.036977
      ],
      [
       -103.430584,
       44.036644
      ],
      [
       -103.432104,
       44.036214
      ],
      [
       -103.433567,
       44.03569
      ],
      [
       -103.43496,
       44.035076
      ],
      [
       -103.436274,
       44.034377
      ],
      [
       -103.437499,
       44.033598
      ],
      [
       -103.438625,
       44.032745
      ],
      [
       -103.439643,
       44.031824
      ],
      [
       -103.440546,
       44.030842
      ],
      [
       -103.441327,
       44.029808
      ],
      [
       -103.441981,
       44.028728
      ],
      [
       -103.442501,
       44.027612
      ],
      [
       -103.442884,
       44.026467
      ],
      [
       -103.443128,
       44.025302
      ],
      [
       -103.44323,
       44.024127
      ],
      [
       -103.443189,
       44.022949
      ],
      [
       -103.443007,
       44.021778
      ],
      [
       -103.442684,
       44.020624
      ],
      [
       -103.442222,
       44.019494
      ],
      [
       -103.441626,
       44.018397
      ],
      [
       -103.4409,
       44.017342
      ],
      [
       -103.440049,
       44.016337
      ],
      [
       -103.43908,
       44.015389
      ],
      [
       -103.438001,
       44.014506
      ],
      [
       -103.436818,
       44.013693
      ],
      [
       -103.435542,
       44.012959
      ],
      [
       -103.434183,
       44.012307
      ],
      [
       -103.432749,
       44.011743
      ],
      [
       -103.431254,
       44.011272
      ],
      [
       -103.429707,
       44.010897
      ],
      [
       -103.42812,
       44.01062
      ],
      [
       -103.426506,
       44.010444
      ],
      [
       -103.424877,
       44.01037
      ],
      [
       -103.423246,
       44.010399
      ],
      [
       -103.421624,
       44.01053
      ],
      [
       -103.420024,
       44.010763
      ],
      [
       -103.418458,
       44.011096
      ],
      [
       -103.416939,
       44.011525
      ],
      [
       -103.415477,
       44.012049
      ],
      [
       -103.414083,
       44.012663
      ],
      [
       -103.41277,
       44.013362
      ],
      [
       -103.411545,
       44.014141
      ],
      [
       -103.41042,
       44.014994
      ],
      [
       -103.409401,
       44.015914
      ],
      [
       -103.408498,
       44.016895
      ],
      [
       -103.407716,
       44.01793
      ],
      [
       -103.407062,
       44.019009
      ],
      [
       -103.406542,
       44.020125
      ],
      [
       -103.406157,
       44.02127
      ],
      [
       -103.405913,
       44.022435
      ],
      [
       -103.40581,
       44.02361
      ]
     ]
    ]
   }
  },
  {
   "type": "Feature",
   "properties": {
    "FeatureCategory": "Evacuation Area",
    "Label": "Zone B \u2014 SET",
    "IsVisible": "Yes",
    "MapMethod": "Digitized-Other",
    "GeometryID": "BL-PY-0012",
    "IncidentName": "Blue",
    "IRWINID": null,
    "CreateName": "TRAINEE, GISS",
    "CreateDate": "2026-08-01T03:50:00-06:00",
    "DeleteThis": "No",
    "Comments": "Be ready. Sheriff will upgrade if the fire crosses the drainage.",
    "GISAcres": 3752.6,
    "PolygonDateTime": null
   },
   "geometry": {
    "type": "Polygon",
    "coordinates": [
     [
      [
       -103.37717,
       44.044362
      ],
      [
       -103.377227,
       44.046089
      ],
      [
       -103.377493,
       44.047806
      ],
      [
       -103.377965,
       44.0495
      ],
      [
       -103.378641,
       44.051158
      ],
      [
       -103.379514,
       44.052767
      ],
      [
       -103.380578,
       44.054314
      ],
      [
       -103.381825,
       44.055789
      ],
      [
       -103.383246,
       44.05718
      ],
      [
       -103.384829,
       44.058477
      ],
      [
       -103.386564,
       44.059669
      ],
      [
       -103.388435,
       44.060747
      ],
      [
       -103.39043,
       44.061704
      ],
      [
       -103.392534,
       44.062531
      ],
      [
       -103.394729,
       44.063223
      ],
      [
       -103.396999,
       44.063775
      ],
      [
       -103.399328,
       44.064181
      ],
      [
       -103.401697,
       44.06444
      ],
      [
       -103.404088,
       44.064549
      ],
      [
       -103.406483,
       44.064507
      ],
      [
       -103.408865,
       44.064315
      ],
      [
       -103.411213,
       44.063973
      ],
      [
       -103.413512,
       44.063486
      ],
      [
       -103.415743,
       44.062855
      ],
      [
       -103.417889,
       44.062087
      ],
      [
       -103.419934,
       44.061187
      ],
      [
       -103.421862,
       44.060162
      ],
      [
       -103.423659,
       44.059019
      ],
      [
       -103.425311,
       44.057768
      ],
      [
       -103.426805,
       44.056418
      ],
      [
       -103.428131,
       44.054979
      ],
      [
       -103.429277,
       44.053462
      ],
      [
       -103.430236,
       44.051878
      ],
      [
       -103.431,
       44.050241
      ],
      [
       -103.431563,
       44.048562
      ],
      [
       -103.431921,
       44.046853
      ],
      [
       -103.432071,
       44.045129
      ],
      [
       -103.432012,
       44.043402
      ],
      [
       -103.431744,
       44.041685
      ],
      [
       -103.43127,
       44.039992
      ],
      [
       -103.430594,
       44.038334
      ],
      [
       -103.42972,
       44.036726
      ],
      [
       -103.428655,
       44.035178
      ],
      [
       -103.427407,
       44.033704
      ],
      [
       -103.425985,
       44.032314
      ],
      [
       -103.424402,
       44.031018
      ],
      [
       -103.422667,
       44.029826
      ],
      [
       -103.420796,
       44.028749
      ],
      [
       -103.418801,
       44.027793
      ],
      [
       -103.416699,
       44.026966
      ],
      [
       -103.414505,
       44.026274
      ],
      [
       -103.412236,
       44.025723
      ],
      [
       -103.409908,
       44.025316
      ],
      [
       -103.407541,
       44.025058
      ],
      [
       -103.405151,
       44.024949
      ],
      [
       -103.402758,
       44.024991
      ],
      [
       -103.400378,
       44.025183
      ],
      [
       -103.398031,
       44.025524
      ],
      [
       -103.395734,
       44.026012
      ],
      [
       -103.393504,
       44.026642
      ],
      [
       -103.391359,
       44.027409
      ],
      [
       -103.389315,
       44.028309
      ],
      [
       -103.387387,
       44.029334
      ],
      [
       -103.38559,
       44.030476
      ],
      [
       -103.383938,
       44.031726
      ],
      [
       -103.382443,
       44.033076
      ],
      [
       -103.381117,
       44.034515
      ],
      [
       -103.37997,
       44.036031
      ],
      [
       -103.37901,
       44.037614
      ],
      [
       -103.378245,
       44.039251
      ],
      [
       -103.377681,
       44.04093
      ],
      [
       -103.377322,
       44.042638
      ],
      [
       -103.37717,
       44.044362
      ]
     ]
    ]
   }
  },
  {
   "type": "Feature",
   "properties": {
    "FeatureCategory": "Evacuation Area",
    "Label": "Zone C \u2014 READY",
    "IsVisible": "Yes",
    "MapMethod": "Digitized-Other",
    "GeometryID": "BL-PY-0013",
    "IncidentName": "Blue",
    "IRWINID": null,
    "CreateName": "TRAINEE, GISS",
    "CreateDate": "2026-08-01T03:50:00-06:00",
    "DeleteThis": "No",
    "Comments": "Stay informed.",
    "GISAcres": 5241.2,
    "PolygonDateTime": null
   },
   "geometry": {
    "type": "Polygon",
    "coordinates": [
     [
      [
       -103.355523,
       44.062815
      ],
      [
       -103.35559,
       44.064857
      ],
      [
       -103.355904,
       44.066886
      ],
      [
       -103.356461,
       44.068887
      ],
      [
       -103.357259,
       44.070847
      ],
      [
       -103.35829,
       44.072748
      ],
      [
       -103.359548,
       44.074578
      ],
      [
       -103.361021,
       44.076321
      ],
      [
       -103.362701,
       44.077965
      ],
      [
       -103.364572,
       44.079498
      ],
      [
       -103.366622,
       44.080907
      ],
      [
       -103.368834,
       44.082181
      ],
      [
       -103.371193,
       44.083312
      ],
      [
       -103.373679,
       44.084291
      ],
      [
       -103.376274,
       44.085109
      ],
      [
       -103.378958,
       44.085761
      ],
      [
       -103.381711,
       44.086242
      ],
      [
       -103.384512,
       44.086549
      ],
      [
       -103.387338,
       44.086678
      ],
      [
       -103.39017,
       44.086628
      ],
      [
       -103.392985,
       44.086401
      ],
      [
       -103.395762,
       44.085999
      ],
      [
       -103.39848,
       44.085423
      ],
      [
       -103.401117,
       44.084678
      ],
      [
       -103.403655,
       44.083771
      ],
      [
       -103.406073,
       44.082707
      ],
      [
       -103.408353,
       44.081496
      ],
      [
       -103.410478,
       44.080146
      ],
      [
       -103.412431,
       44.078667
      ],
      [
       -103.414198,
       44.077072
      ],
      [
       -103.415766,
       44.075371
      ],
      [
       -103.417121,
       44.073579
      ],
      [
       -103.418255,
       44.071708
      ],
      [
       -103.419158,
       44.069772
      ],
      [
       -103.419824,
       44.067788
      ],
      [
       -103.420248,
       44.065769
      ],
      [
       -103.420425,
       44.063731
      ],
      [
       -103.420356,
       44.06169
      ],
      [
       -103.420041,
       44.059661
      ],
      [
       -103.419481,
       44.05766
      ],
      [
       -103.418681,
       44.055701
      ],
      [
       -103.417648,
       44.0538
      ],
      [
       -103.41639,
       44.051971
      ],
      [
       -103.414915,
       44.050228
      ],
      [
       -103.413235,
       44.048585
      ],
      [
       -103.411363,
       44.047053
      ],
      [
       -103.409313,
       44.045645
      ],
      [
       -103.407101,
       44.044371
      ],
      [
       -103.404744,
       44.043241
      ],
      [
       -103.402259,
       44.042263
      ],
      [
       -103.399665,
       44.041446
      ],
      [
       -103.396983,
       44.040794
      ],
      [
       -103.394232,
       44.040313
      ],
      [
       -103.391434,
       44.040007
      ],
      [
       -103.388609,
       44.039878
      ],
      [
       -103.385779,
       44.039927
      ],
      [
       -103.382966,
       44.040154
      ],
      [
       -103.380191,
       44.040557
      ],
      [
       -103.377476,
       44.041132
      ],
      [
       -103.37484,
       44.041877
      ],
      [
       -103.372304,
       44.042783
      ],
      [
       -103.369887,
       44.043846
      ],
      [
       -103.367608,
       44.045057
      ],
      [
       -103.365483,
       44.046406
      ],
      [
       -103.36353,
       44.047884
      ],
      [
       -103.361762,
       44.049478
      ],
      [
       -103.360194,
       44.051178
      ],
      [
       -103.358837,
       44.05297
      ],
      [
       -103.357702,
       44.054841
      ],
      [
       -103.356797,
       44.056775
      ],
      [
       -103.356129,
       44.058759
      ],
      [
       -103.355703,
       44.060778
      ],
      [
       -103.355523,
       44.062815
      ]
     ]
    ]
   }
  },
  {
   "type": "Feature",
   "properties": {
    "FeatureCategory": "Repair Area",
    "Label": "Div Z Dozer Repair",
    "IsVisible": "Yes",
    "MapMethod": "GPS-Walked",
    "GeometryID": "BL-PY-0014",
    "IncidentName": "Blue",
    "IRWINID": null,
    "CreateName": "TRAINEE, GISS",
    "CreateDate": "2026-08-01T03:50:00-06:00",
    "DeleteThis": "No",
    "Comments": "Waterbar, pull berm back, scatter slash. Two blades wide.",
    "GISAcres": 132.0,
    "PolygonDateTime": null
   },
   "geometry": {
    "type": "Polygon",
    "coordinates": [
     [
      [
       -103.447792,
       43.99327
      ],
      [
       -103.439113,
       43.987552
      ],
      [
       -103.427803,
       43.986253
      ],
      [
       -103.417267,
       43.987573
      ],
      [
       -103.413973,
       43.994724
      ],
      [
       -103.412389,
       44.002335
      ],
      [
       -103.412389,
       44.002335
      ],
      [
       -103.412335,
       44.002471
      ],
      [
       -103.412234,
       44.002592
      ],
      [
       -103.412093,
       44.002689
      ],
      [
       -103.411923,
       44.002758
      ],
      [
       -103.411733,
       44.002792
      ],
      [
       -103.411538,
       44.002789
      ],
      [
       -103.41135,
       44.00275
      ],
      [
       -103.411183,
       44.002677
      ],
      [
       -103.411047,
       44.002576
      ],
      [
       -103.410953,
       44.002452
      ],
      [
       -103.410905,
       44.002316
      ],
      [
       -103.410909,
       44.002175
      ],
      [
       -103.410909,
       44.002175
      ],
      [
       -103.412519,
       43.994466
      ],
      [
       -103.416301,
       43.986749
      ],
      [
       -103.427795,
       43.985173
      ],
      [
       -103.439765,
       43.98658
      ],
      [
       -103.448798,
       43.99247
      ],
      [
       -103.448798,
       43.99247
      ],
      [
       -103.448924,
       43.992578
      ],
      [
       -103.449007,
       43.992705
      ],
      [
       -103.449042,
       43.992844
      ],
      [
       -103.449026,
       43.992984
      ],
      [
       -103.44896,
       43.993117
      ],
      [
       -103.448849,
       43.993233
      ],
      [
       -103.4487,
       43.993324
      ],
      [
       -103.448523,
       43.993384
      ],
      [
       -103.448331,
       43.993409
      ],
      [
       -103.448137,
       43.993398
      ],
      [
       -103.447953,
       43.99335
      ],
      [
       -103.447792,
       43.99327
      ],
      [
       -103.447792,
       43.99327
      ]
     ]
    ]
   }
  },
  {
   "type": "Feature",
   "properties": {
    "FeatureCategory": "Repair Area",
    "Label": "Div Z Road Repair",
    "IsVisible": "Yes",
    "MapMethod": "GPS-Walked",
    "GeometryID": "BL-PY-0015",
    "IncidentName": "Blue",
    "IRWINID": null,
    "CreateName": "TRAINEE, GISS",
    "CreateDate": "2026-08-01T03:50:00-06:00",
    "DeleteThis": "No",
    "Comments": "Blade back to template, reinstall drainage.",
    "GISAcres": 33.7,
    "PolygonDateTime": null
   },
   "geometry": {
    "type": "Polygon",
    "coordinates": [
     [
      [
       -103.412148,
       44.002263
      ],
      [
       -103.411928,
       44.009716
      ],
      [
       -103.413086,
       44.016988
      ],
      [
       -103.413086,
       44.016988
      ],
      [
       -103.413084,
       44.017082
      ],
      [
       -103.413048,
       44.017172
      ],
      [
       -103.412981,
       44.017253
      ],
      [
       -103.412887,
       44.017318
      ],
      [
       -103.412773,
       44.017364
      ],
      [
       -103.412647,
       44.017387
      ],
      [
       -103.412517,
       44.017385
      ],
      [
       -103.412391,
       44.017359
      ],
      [
       -103.41228,
       44.017311
      ],
      [
       -103.412189,
       44.017243
      ],
      [
       -103.412126,
       44.017161
      ],
      [
       -103.412094,
       44.01707
      ],
      [
       -103.412094,
       44.01707
      ],
      [
       -103.410932,
       44.00975
      ],
      [
       -103.41115,
       44.002247
      ],
      [
       -103.41115,
       44.002247
      ],
      [
       -103.41117,
       44.002154
      ],
      [
       -103.411222,
       44.002068
      ],
      [
       -103.411304,
       44.001995
      ],
      [
       -103.411409,
       44.001939
      ],
      [
       -103.41153,
       44.001905
      ],
      [
       -103.41166,
       44.001895
      ],
      [
       -103.411788,
       44.001909
      ],
      [
       -103.411907,
       44.001947
      ],
      [
       -103.412009,
       44.002006
      ],
      [
       -103.412086,
       44.002082
      ],
      [
       -103.412133,
       44.002169
      ],
      [
       -103.412148,
       44.002263
      ],
      [
       -103.412148,
       44.002263
      ]
     ]
    ]
   }
  }
 ]
}
