{
 "type": "FeatureCollection",
 "name": "roads",
 "crs": {
  "type": "name",
  "properties": {
   "name": "urn:ogc:def:crs:OGC:1.3:CRS84"
  }
 },
 "_warning": "TRAINING EXERCISE \u2014 NOT AN ACTUAL INCIDENT. Fabricated data. Never publish, never sync to NIFS or NIFC AGOL.",
 "_fire": "Blue",
 "_generated_by": "scripts/make_fires.py",
 "features": [
  {
   "type": "Feature",
   "properties": {
    "NAME": "Storm Mountain Rd",
    "LINE_STATUS": ""
   },
   "geometry": {
    "type": "LineString",
    "coordinates": [
     [
      -103.385653,
      44.059259
     ],
     [
      -103.392099,
      44.052163
     ],
     [
      -103.396853,
      44.043849
     ],
     [
      -103.401922,
      44.036935
     ],
     [
      -103.410148,
      44.032296
     ],
     [
      -103.416633,
      44.028752
     ],
     [
      -103.423834,
      44.029246
     ]
    ]
   }
  },
  {
   "type": "Feature",
   "properties": {
    "NAME": "South Fork Rd",
    "LINE_STATUS": ""
   },
   "geometry": {
    "type": "LineString",
    "coordinates": [
     [
      -103.411649,
      44.002255
     ],
     [
      -103.41143,
      44.009733
     ],
     [
      -103.41259,
      44.017029
     ]
    ]
   }
  },
  {
   "type": "Feature",
   "properties": {
    "NAME": "FS 231",
    "LINE_STATUS": ""
   },
   "geometry": {
    "type": "LineString",
    "coordinates": [
     [
      -103.439439,
      43.987066
     ],
     [
      -103.427799,
      43.985713
     ],
     [
      -103.416784,
      43.987161
     ]
    ]
   }
  },
  {
   "type": "Feature",
   "properties": {
    "NAME": "US-16",
    "LINE_STATUS": ""
   },
   "geometry": {
    "type": "LineString",
    "coordinates": [
     [
      -103.386608,
      44.07403
     ],
     [
      -103.385653,
      44.059259
     ],
     [
      -103.377436,
      44.041597
     ]
    ]
   }
  }
 ]
}
